"﻿""title""",totalScore,reviewsCount,street,city,state,countryCode,website,phone,categoryName,url,ai_result,processing_cost,model_used,processed_at
Schroeder Legacy Lawn Care,5.0,1,,,,,https://schroederlegacylawn.onuniverse.com/,(940) 337-5326,Lawn care service,https://www.google.com/maps/search/?api=1&query=Schroeder%20Legacy%20Lawn%20Care&query_place_id=ChIJifZHWuSLF6ARaNCnqquw5_U,"Конечно! Вот несколько идей для айсбрейкеров в электронных письмах, которые могут помочь установить контакт и вызвать интерес у получателя:

1. **Общие интересы**:
   - ""Привет, [Имя]! Я заметил, что мы оба интересуемся [тема/хобби]. Как ты к этому пришел?""

2. **Вопрос о текущих трендах**:
   - ""Здравствуйте, [Имя]! В последнее время много обсуждают [тренд/новость]. Как вы считаете, как это повлияет на нашу отрасль?""

3. **Личный опыт**:
   - ""Привет, [Имя]! Я только что вернулся с [мероприятие/конференция], и это было невероятно! Вы когда-нибудь были на подобном?""

4. **Совет или рекомендация**:
   - ""Здравствуйте, [Имя]! Я только что прочитал статью о [тема], и она меня очень вдохновила. Хотел бы узнать ваше мнение об этом!""

5. **Ностальгия**:
   - ""Привет, [Имя]! Помните, как мы обсуждали [событие/тему]? Это напомнило мне о [смешной/интересной истории].""

6. **Личное обращение**:
   - ""Здравствуйте, [Имя]! Я увидел вашу недавнюю публикацию о [тема] и был впечатлён. Как вы пришли к этому выводу?""

7. **Необычный вопрос**:
   - ""Привет, [Имя]! Если бы у вас была возможность пообедать с любым человеком в мире, кто бы это был и почему?""

8. **Пожелание удачи**:
   - ""Здравствуйте, [Имя]! Надеюсь, у вас всё хорошо. Удачи с [проектом/задачей], о которой вы упоминали!""

9. **Легкий юмор**:
   - ""Привет, [Имя]! Если бы у вас была суперсила, какую бы вы выбрали? Я бы выбрал способность всегда находить свободное парковочное место!""

10. **Запрос на совет**:
    - ""Здравствуйте, [Имя]! Я знаю, что вы эксперт в [область]. Можете дать несколько советов по [конкретный вопрос]?""

Выбирайте те, которые лучше всего подходят к вашему стилю общения и контексту письма!",0.00032129999999999995,gpt-4o-mini-2024-07-18,2025-11-08T13:27:00.313815
New Life Landscape,4.5,8,305 S Georgia St,Amarillo,Texas,US,http://sprinklerrepairamarillo.com/,(806) 373-5575,Landscaper,https://www.google.com/maps/search/?api=1&query=New%20Life%20Landscape&query_place_id=ChIJGbbQKwhPAYcRAXGu40eS_iA,"Конечно! Вот несколько идей для айсбрейкеров в емейлах, которые могут помочь установить контакт и вызвать интерес у получателя:

1. **Общие интересы**:
   - ""Привет, [Имя]! Я заметил, что мы оба увлекаемся [общий интерес]. Как ты к этому пришел?""

2. **Недавние события**:
   - ""Здравствуйте, [Имя]! Как вам недавнее событие [название события]? Я был впечатлён [ваше мнение о событии].""

3. **Вопрос о мнении**:
   - ""Привет, [Имя]! Я только что прочитал статью о [тема]. Как вы думаете, это повлияет на [сфера]? Было бы интересно услышать ваше мнение!""

4. **Личное обращение**:
   - ""Здравствуйте, [Имя]! Я заметил, что вы работаете в [сфера]. У меня есть несколько вопросов о вашем опыте, если вы не против поделиться.""

5. **Легкий юмор**:
   - ""Привет, [Имя]! Если бы у вас была возможность выбрать суперсилу, какую бы вы выбрали? Я бы выбрал умение делать идеальный кофе!""

6. **Цитата**:
   - ""Здравствуйте, [Имя]! Я наткнулся на цитату [известного человека], которая меня вдохновила: '[цитата]'. Как вы думаете, это применимо к [ваша тема]?""

7. **Личное достижение**:
   - ""Привет, [Имя]! Я только что завершил проект по [тема] и хотел бы узнать, как вы справляетесь с подобными задачами.""

8. **Вопрос о будущем**:
   - ""Здравствуйте, [Имя]! Какие у вас планы на ближайшие месяцы? Есть ли что-то, что вас особенно вдохновляет?""

Выбирайте те, которые лучше всего подходят к вашему стилю общения и контексту. Удачи!",0.00026489999999999993,gpt-4o-mini-2024-07-18,2025-11-08T13:27:10.712182
Verde Landscape Companies,4.4,30,6650 Canyon Dr Unit 4,Amarillo,Texas,US,http://www.verdelandscape.com/,(844) 998-3733,Landscape designer,https://www.google.com/maps/search/?api=1&query=Verde%20Landscape%20Companies&query_place_id=ChIJDcS4fi5IB4cRak0xqZN08zM,"Конечно! Вот несколько идей для email-айсбрейкеров, которые могут помочь начать разговор:

1. **Общие интересы**:
   - ""Привет, [Имя]! Я заметил, что мы оба интересуемся [темой]. Как ты начал увлекаться этим?""

2. **Недавние события**:
   - ""Здравствуйте, [Имя]! Как вы относитесь к последним новостям о [событии]? Это действительно обсуждаемая тема в нашем кругу!""

3. **Личное обращение**:
   - ""Привет, [Имя]! Я только что прочитал вашу статью о [теме]. Она меня вдохновила! Как вы пришли к этой идее?""

4. **Вопрос о мнении**:
   - ""Здравствуйте, [Имя]! У меня есть вопрос: что вы думаете о [теме]? Ваше мнение всегда интересно!""

5. **Обсуждение хобби**:
   - ""Привет, [Имя]! Я заметил, что вы увлекаетесь [хобби]. У меня есть пара вопросов, и я был бы рад обсудить это!""

6. **Личное достижение**:
   - ""Здравствуйте, [Имя]! Я только что завершил проект по [теме], и мне было бы интересно узнать ваше мнение о нем!""

7. **Советы и рекомендации**:
   - ""Привет, [Имя]! Я ищу рекомендации по [теме]. У вас есть какие-нибудь советы?""

8. **Праздничные пожелания**:
   - ""Здравствуйте, [Имя]! С наступающим [праздником]! Как вы планируете его отмечать?""

9. **Обсуждение книг/фильмов**:
   - ""Привет, [Имя]! Я только что закончил читать [название книги] и хотел бы узнать, читали ли вы ее? Какое у вас мнение?""

10. **Личное знакомство**:
    - ""Здравствуйте, [Имя]! Я рад возможности пообщаться. Расскажите немного о себе, чем вы увлекаетесь?""

Эти айсбрейкеры помогут установить контакт и начать продуктивный диалог. Выбирайте те, которые лучше всего подходят для вашей ситуации!",0.00029549999999999997,gpt-4o-mini-2024-07-18,2025-11-08T13:27:19.116629
Superior Quality Lawn And Landscape,4.8,60,,,,,https://superiorqualitylandscaping.com/,(806) 626-2750,Landscaper,https://www.google.com/maps/search/?api=1&query=Superior%20Quality%20Lawn%20And%20Landscape&query_place_id=ChIJhdyCOEZOAYcRmXXzg9wZK_s,"Конечно! Вот несколько идей для айсбрейкеров в емейлах, которые могут помочь установить контакт и вызвать интерес у получателя:

1. **Личное приветствие**:
   - ""Привет, [Имя]! Надеюсь, у вас отличный день. Я заметил, что вы увлекаетесь [хобби/интерес], и мне было бы интересно узнать больше об этом!""

2. **Общие интересы**:
   - ""Здравствуйте, [Имя]! Я увидел, что вы работаете в [отрасль/компания], и у нас есть несколько общих знакомых. Как вы относитесь к [тема, связанная с общими знакомыми]?""

3. **Вопрос о мнении**:
   - ""Привет, [Имя]! Я читаю много о [тема], и мне было бы интересно узнать ваше мнение. Как вы считаете, [вопрос, связанный с темой]?""

4. **Интересный факт**:
   - ""Здравствуйте, [Имя]! Знаете ли вы, что [интересный факт, связанный с их работой или интересами]? Это меня очень впечатлило, и я подумал, что вам тоже будет интересно!""

5. **Обсуждение актуальных событий**:
   - ""Привет, [Имя]! Как вы относитесь к последним новостям в [отрасли]? Я был бы рад обсудить это с вами!""

6. **Личное достижение**:
   - ""Здравствуйте, [Имя]! Я только что завершил [проект/достижение], и это было невероятно интересно. Есть ли у вас похожие истории, которыми вы могли бы поделиться?""

7. **Легкий юмор**:
   - ""Привет, [Имя]! Знаете, я всегда думал, что [шутка или забавный факт о работе/отрасли]. Как вы думаете, это правда?""

8. **Запрос на совет**:
   - ""Здравствуйте, [Имя]! Я работаю над [проектом/задачей] и слышал, что у вас есть опыт в этой области. Могли бы вы поделиться своими мыслями?""

Выбирайте тот, который наиболее соответствует вашему стилю общения и контексту, и адаптируйте его под конкретного получателя!",0.0003069,gpt-4o-mini-2024-07-18,2025-11-08T13:27:29.646086
Mean Green Lawn and Tree service,4.5,33,,,,,http://www.meangreenls.com/,(940) 444-6525,Lawn care service,https://www.google.com/maps/search/?api=1&query=Mean%20Green%20Lawn%20and%20Tree%20service&query_place_id=ChIJ_1Mko5chU4YRn-l8sGojjl0,"Конечно! Вот несколько идей для емейл айсбрейкеров, которые могут помочь начать разговор:

1. **Общие интересы**:
   - ""Привет, [Имя]! Я заметил, что у нас есть общий интерес к [тема]. Как ты начал увлекаться этим?""

2. **Недавние события**:
   - ""Здравствуйте, [Имя]! Как вам понравился [недавнее событие или новость]? Я был впечатлён [ваше мнение].""

3. **Личное обращение**:
   - ""Привет, [Имя]! Я только что прочитал вашу статью о [тема], и она меня действительно вдохновила. Как вы пришли к этой идее?""

4. **Вопрос о предпочтениях**:
   - ""Здравствуйте, [Имя]! Если бы у вас была возможность выбрать одну книгу, которую вы могли бы рекомендовать всем, что бы это было?""

5. **Легкий юмор**:
   - ""Привет, [Имя]! Если бы вы могли быть любым персонажем из фильма на один день, кто бы это был? Я бы выбрал [ваш персонаж]!""

6. **Обсуждение хобби**:
   - ""Здравствуйте, [Имя]! Я слышал, что вы увлекаетесь [хобби]. Как вы начали заниматься этим?""

7. **Вопрос о будущем**:
   - ""Привет, [Имя]! Как вы видите свою карьеру через 5 лет? Есть ли у вас какие-то амбициозные планы?""

8. **Личное достижение**:
   - ""Здравствуйте, [Имя]! Я только что завершил [ваше достижение], и это было невероятно! А какие достижения вы могли бы отметить в этом году?""

Выбирайте те, которые лучше всего подходят для вашей ситуации и получателя!",0.0002445,gpt-4o-mini-2024-07-18,2025-11-08T13:27:37.843759
SJH Landscape,5.0,36,,,,,http://sjhlandscape.com/,(806) 440-7583,Landscaper,https://www.google.com/maps/search/?api=1&query=SJH%20Landscape&query_place_id=ChIJIbOjvdxLZ00RXoONOESl9jE,"Конечно! Вот несколько идей для айсбрейкеров в емейлах, которые могут помочь установить контакт и заинтересовать получателя:

1. **Общие интересы**:
   - ""Привет, [Имя]! Я заметил, что мы оба увлекаемся [общий интерес/хобби]. Как ты начал этим заниматься?""

2. **Упоминание о событии**:
   - ""Здравствуйте, [Имя]! Я слышал, что вы были на [событие/конференция]. Как вам впечатления? Я бы хотел узнать больше о вашем опыте!""

3. **Личное обращение**:
   - ""Привет, [Имя]! Я только что прочитал вашу статью о [тема] и был впечатлён. Как вы пришли к этой идее?""

4. **Вопрос о мнении**:
   - ""Здравствуйте, [Имя]! Я работаю над проектом, связанным с [тема], и был бы рад услышать ваше мнение. Как вы считаете, что самое важное в этом вопросе?""

5. **Легкий юмор**:
   - ""Привет, [Имя]! Если бы у вас была возможность выбрать суперсилу, какую бы вы выбрали? Я бы выбрал умение делать идеальный кофе!""

6. **Ссылка на недавние достижения**:
   - ""Здравствуйте, [Имя]! Поздравляю с вашим недавним достижением в [достижение]! Это вдохновляет. Как вы это сделали?""

7. **Запрос на совет**:
   - ""Привет, [Имя]! Я знаю, что вы эксперт в [область]. У меня есть небольшой вопрос, и я был бы признателен за ваш совет!""

8. **Личное наблюдение**:
   - ""Здравствуйте, [Имя]! Я заметил, что вы активно делитесь контентом о [тема]. Это действительно интересно! Как вы находите время на это?""

Выбирайте тот, который лучше всего подходит к вашему стилю общения и контексту. Удачи!",0.0002721,gpt-4o-mini-2024-07-18,2025-11-08T13:27:46.243234
TX Elite Repair & Service LLC,5.0,26,3345 Spur 24,Dalhart,Texas,US,http://txelite.net/,(806) 418-5505,Truck repair shop,https://www.google.com/maps/search/?api=1&query=TX%20Elite%20Repair%20%26%20Service%20LLC&query_place_id=ChIJ0Uybh563BYcRWOMh2vPCbpo,"Конечно! Вот несколько идей для айсбрейкеров, которые можно использовать в емейлах:

1. **Общие интересы**:
   - ""Привет, [Имя]! Я заметил, что мы оба увлекаемся [тема/хобби]. Как ты начал заниматься этим?""

2. **Недавние события**:
   - ""Здравствуйте, [Имя]! Как вам понравился [недавнее событие/конференция]? Я был там и был впечатлён [что-то конкретное].""

3. **Личное обращение**:
   - ""Привет, [Имя]! Я только что прочитал вашу статью о [тема] и хотел бы узнать больше о вашем мнении по этому поводу.""

4. **Вопрос о будущем**:
   - ""Здравствуйте, [Имя]! Как вы планируете справляться с [предстоящая тенденция/изменение в индустрии]? Мне было бы интересно услышать ваше мнение!""

5. **Легкий юмор**:
   - ""Привет, [Имя]! Если бы у вас была возможность выбрать суперспособность, какую бы вы выбрали? Я бы, наверное, выбрал умение делать идеальный кофе!""

6. **Личное достижение**:
   - ""Здравствуйте, [Имя]! Я только что завершил [проект/достижение], и это было очень интересно. А вы чем сейчас занимаетесь?""

7. **Рекомендация**:
   - ""Привет, [Имя]! Я только что посмотрел [фильм/книгу/сериал], и он мне очень понравился. Может, у вас есть что-то, что вы могли бы порекомендовать?""

8. **Обсуждение трендов**:
   - ""Здравствуйте, [Имя]! Как вы относитесь к последним трендам в [индустрия]? Я заметил, что [что-то интересное] становится всё более популярным.""

Выбирайте те, которые лучше всего подходят к вашей ситуации и стилю общения!",0.00026609999999999996,gpt-4o-mini-2024-07-18,2025-11-08T13:27:55.143252
Anchored Lawncare LLC,5.0,5,1037 City View Dr F,Wichita Falls,Texas,US,https://www.anchoredlawncarellc.com/,(469) 579-8841,Lawn care service,https://www.google.com/maps/search/?api=1&query=Anchored%20Lawncare%20LLC&query_place_id=ChIJ9fxny54hU4YRyQsvjOUfFwY,"Конечно! Вот несколько идей для айсбрейкеров в емейлах, которые могут помочь установить контакт и вызвать интерес у получателя:

1. **Личное обращение**:
   - ""Привет, [Имя]! Я заметил, что вы увлекаетесь [хобби/интерес]. У меня тоже есть к этому интерес, и мне было бы интересно обсудить это с вами!""

2. **Общие интересы**:
   - ""Здравствуйте, [Имя]! Я прочитал вашу статью о [теме] и был поражен вашим подходом. У меня есть несколько идей, которые, возможно, вас заинтересуют!""

3. **Вопрос для размышления**:
   - ""Привет, [Имя]! Если бы вы могли выбрать любую суперсилу для улучшения вашей работы, что бы это было? Я думаю, это может привести к интересной беседе!""

4. **Интересный факт**:
   - ""Здравствуйте, [Имя]! Знаете ли вы, что [интересный факт, связанный с их областью]? Это заставило меня задуматься о [теме], и я хотел бы узнать ваше мнение!""

5. **Обсуждение актуальных событий**:
   - ""Привет, [Имя]! Как вы относитесь к последним новостям в [отрасли]? Я думаю, это может повлиять на [вашу область работы], и было бы интересно обсудить это с вами.""

6. **Личное достижение**:
   - ""Здравствуйте, [Имя]! Я только что завершил проект по [теме], и мне было бы интересно узнать ваше мнение о [связанной теме].""

7. **Запрос совета**:
   - ""Привет, [Имя]! Я знаю, что вы эксперт в [области], и мне было бы интересно услышать ваш совет по [конкретному вопросу].""

8. **Неформальное начало**:
   - ""Здравствуйте, [Имя]! Как проходит ваша неделя? Надеюсь, у вас есть время на что-то интересное!""

Выбирайте тот, который лучше всего подходит для вашей ситуации и получателя, и не забывайте адаптировать его под ваш стиль общения!",0.00028949999999999994,gpt-4o-mini-2024-07-18,2025-11-08T13:28:05.558563
