"﻿""title""",totalScore,reviewsCount,street,city,state,countryCode,website,phone,categoryName,url,ai_result,processing_cost,model_used,processed_at
Schroeder Legacy Lawn Care,5.0,1,,,,,https://schroederlegacylawn.onuniverse.com/,(940) 337-5326,Lawn care service,https://www.google.com/maps/search/?api=1&query=Schroeder%20Legacy%20Lawn%20Care&query_place_id=ChIJifZHWuSLF6ARaNCnqquw5_U,"Конечно! Чтобы помочь вам с айсбрейкерами, мне нужно немного больше информации о контексте. Например, для какой аудитории или мероприятия они предназначены? Это может быть корпоративная встреча, учебный семинар, дружеская встреча или что-то другое? Также, если есть какие-то специфические темы или интересы, которые вы хотите учесть, дайте знать!",5.265e-05,gpt-4o-mini-2024-07-18,2025-11-08T13:22:01.386838
New Life Landscape,4.5,8,305 S Georgia St,Amarillo,Texas,US,http://sprinklerrepairamarillo.com/,(806) 373-5575,Landscaper,https://www.google.com/maps/search/?api=1&query=New%20Life%20Landscape&query_place_id=ChIJGbbQKwhPAYcRAXGu40eS_iA,"Конечно! Пожалуйста, предоставьте данные или тему, на основе которой вы хотите, чтобы я сгенерировал айсбрейкеры.",2.2649999999999998e-05,gpt-4o-mini-2024-07-18,2025-11-08T13:22:03.112140
Verde Landscape Companies,4.4,30,6650 Canyon Dr Unit 4,Amarillo,Texas,US,http://www.verdelandscape.com/,(844) 998-3733,Landscape designer,https://www.google.com/maps/search/?api=1&query=Verde%20Landscape%20Companies&query_place_id=ChIJDcS4fi5IB4cRak0xqZN08zM,"Конечно! Пожалуйста, предоставьте данные или тему, на основе которой вы хотите, чтобы я сгенерировал айсбрейкеры.",2.2649999999999998e-05,gpt-4o-mini-2024-07-18,2025-11-08T13:22:04.241869
Superior Quality Lawn And Landscape,4.8,60,,,,,https://superiorqualitylandscaping.com/,(806) 626-2750,Landscaper,https://www.google.com/maps/search/?api=1&query=Superior%20Quality%20Lawn%20And%20Landscape&query_place_id=ChIJhdyCOEZOAYcRmXXzg9wZK_s,"Конечно! Пожалуйста, предоставьте данные или тему, на основе которой вы хотите, чтобы я сгенерировал айсбрейкеры.",2.2649999999999998e-05,gpt-4o-mini-2024-07-18,2025-11-08T13:22:05.377988
Mean Green Lawn and Tree service,4.5,33,,,,,http://www.meangreenls.com/,(940) 444-6525,Lawn care service,https://www.google.com/maps/search/?api=1&query=Mean%20Green%20Lawn%20and%20Tree%20service&query_place_id=ChIJ_1Mko5chU4YRn-l8sGojjl0,"Конечно! Пожалуйста, предоставьте данные или контекст, на основе которых вы хотите, чтобы я сгенерировал айсбрейкеры.",2.3249999999999996e-05,gpt-4o-mini-2024-07-18,2025-11-08T13:22:07.266249
SJH Landscape,5.0,36,,,,,http://sjhlandscape.com/,(806) 440-7583,Landscaper,https://www.google.com/maps/search/?api=1&query=SJH%20Landscape&query_place_id=ChIJIbOjvdxLZ00RXoONOESl9jE,"Конечно! Пожалуйста, предоставьте данные или контекст, на основе которых вы хотите, чтобы я сгенерировал айсбрейкеры.",2.3249999999999996e-05,gpt-4o-mini-2024-07-18,2025-11-08T13:22:08.732176
TX Elite Repair & Service LLC,5.0,26,3345 Spur 24,Dalhart,Texas,US,http://txelite.net/,(806) 418-5505,Truck repair shop,https://www.google.com/maps/search/?api=1&query=TX%20Elite%20Repair%20%26%20Service%20LLC&query_place_id=ChIJ0Uybh563BYcRWOMh2vPCbpo,"Конечно! Пожалуйста, предоставьте данные или контекст, на основе которых вы хотите, чтобы я сгенерировал айсбрейкеры.",2.3249999999999996e-05,gpt-4o-mini-2024-07-18,2025-11-08T13:22:09.945382
Anchored Lawncare LLC,5.0,5,1037 City View Dr F,Wichita Falls,Texas,US,https://www.anchoredlawncarellc.com/,(469) 579-8841,Lawn care service,https://www.google.com/maps/search/?api=1&query=Anchored%20Lawncare%20LLC&query_place_id=ChIJ9fxny54hU4YRyQsvjOUfFwY,"Конечно! Пожалуйста, предоставьте данные или контекст, на основе которых вы хотите, чтобы я сгенерировал айсбрейкеры.",2.3249999999999996e-05,gpt-4o-mini-2024-07-18,2025-11-08T13:22:11.099579
"Gabe's Heating and Air, LLC",5.0,49,1405 David Ln,Dalhart,Texas,US,https://www.gabesair.com/,(806) 333-9213,Air conditioning contractor,https://www.google.com/maps/search/?api=1&query=Gabe's%20Heating%20and%20Air%2C%20LLC&query_place_id=ChIJTRBTge491wIRMDf-YrMY--0,"Конечно! Чтобы помочь вам лучше, мне нужно немного больше информации о контексте, в котором вы хотите использовать айсбрейкеры. Например, это будет встреча, тренинг, корпоративное мероприятие или что-то другое? Также полезно знать, какая аудитория будет присутствовать (коллеги, студенты, друзья и т.д.). Пожалуйста, уточните, и я с радостью сгенерирую подходящие айсбрейкеры!",6.285e-05,gpt-4o-mini-2024-07-18,2025-11-08T13:22:14.538967
Terra Landscape,5.0,3,2305 Brook Hollow Dr,Wichita Falls,Texas,US,https://www.terralandscapetx.com/,(940) 500-4105,Landscape architect,https://www.google.com/maps/search/?api=1&query=Terra%20Landscape&query_place_id=ChIJfeRLQsjSBoMR8pEVDMS6OOo,"Конечно! Пожалуйста, предоставьте данные или контекст, на основе которых вы хотите, чтобы я сгенерировал айсбрейкеры.",2.3249999999999996e-05,gpt-4o-mini-2024-07-18,2025-11-08T13:22:15.931454
C&K Lawn Mowing and landscaping,5.0,1,17392 Weatherby Ln,Canyon,Texas,US,https://cklawnl.wixsite.com/cklawnmowingandlands,(806) 647-7046,Lawn care service,https://www.google.com/maps/search/?api=1&query=C%26K%20Lawn%20Mowing%20and%20landscaping&query_place_id=ChIJExLNbNNdAYcR43_UrcIiPh8,"Конечно! Пожалуйста, предоставьте данные или контекст, на основе которых вы хотите, чтобы я сгенерировал айсбрейкеры.",2.3249999999999996e-05,gpt-4o-mini-2024-07-18,2025-11-08T13:22:17.194029
Voltage Tree & Lawn,5.0,165,2315 Buchanan St,Wichita Falls,Texas,US,https://voltagetreelawn.com/,(940) 642-1786,Lawn care service,https://www.google.com/maps/search/?api=1&query=Voltage%20Tree%20%26%20Lawn&query_place_id=ChIJ_eypS3ohU4YRH-6OdFiBukE,"Конечно! Пожалуйста, предоставьте данные или контекст, на основе которых вы хотите, чтобы я сгенерировал айсбрейкеры.",2.3249999999999996e-05,gpt-4o-mini-2024-07-18,2025-11-08T13:22:18.377502
Elite Lawn Care Amarillo,4.8,62,5344 Capulin Ln,Amarillo,Texas,US,http://www.elitelcamarillo.com/,(806) 676-1945,Landscaper,https://www.google.com/maps/search/?api=1&query=Elite%20Lawn%20Care%20Amarillo&query_place_id=ChIJ46uxhHC15G4RI3k3wIu6KIE,"Конечно! Пожалуйста, предоставьте данные или темы, на основе которых вы хотите, чтобы я сгенерировал айсбрейкеры.",2.2649999999999998e-05,gpt-4o-mini-2024-07-18,2025-11-08T13:22:19.599451
Greenwood Landscaping,4.8,35,3140 9th St,Wichita Falls,Texas,US,https://www.greenwoodlandscaping.net/,(940) 636-9569,Landscaper,https://www.google.com/maps/search/?api=1&query=Greenwood%20Landscaping&query_place_id=ChIJLX5DWgAhU4YRVBc6O4G1HbM,"Конечно! Пожалуйста, предоставьте данные или контекст, на основе которых вы хотите, чтобы я сгенерировал айсбрейкеры.",2.3249999999999996e-05,gpt-4o-mini-2024-07-18,2025-11-08T13:22:21.331716
Lucas VIP Lawn Care LLC,5.0,5,6939 Quail Ridge Rd,Wichita Falls,Texas,US,https://lucasviplawncare.com/,(940) 704-7115,Lawn care service,https://www.google.com/maps/search/?api=1&query=Lucas%20VIP%20Lawn%20Care%20LLC&query_place_id=ChIJi28bdJ98tgQRcfTyGOFaPWo,"Конечно! Пожалуйста, предоставьте данные или контекст, на основе которых вы хотите, чтобы я сгенерировал айсбрейкеры.",2.3249999999999996e-05,gpt-4o-mini-2024-07-18,2025-11-08T13:22:22.614257
All-Pro Mowing and Landscaping,5.0,23,7511 W McCormick Rd,Amarillo,Texas,US,http://allpromow.com/,(806) 910-6566,Landscaper,https://www.google.com/maps/search/?api=1&query=All-Pro%20Mowing%20and%20Landscaping&query_place_id=ChIJy1EsgqpDAYcR2Ihli02U9C8,"Конечно! Пожалуйста, предоставьте данные или контекст, на основе которых вы хотите, чтобы я сгенерировал айсбрейкеры.",2.3249999999999996e-05,gpt-4o-mini-2024-07-18,2025-11-08T13:22:23.858338
Gene James Air Conditioning & Heating,4.6,8,108 W Cash St,Iowa Park,Texas,US,https://airconditioningwf.com/,(940) 592-9333,HVAC contractor,https://www.google.com/maps/search/?api=1&query=Gene%20James%20Air%20Conditioning%20%26%20Heating&query_place_id=ChIJJYyRH087U4YRmfUJQqm_gXk,"Конечно! Пожалуйста, предоставьте данные или контекст, на основе которых вы хотите, чтобы я сгенерировал айсбрейкеры.",2.3249999999999996e-05,gpt-4o-mini-2024-07-18,2025-11-08T13:22:25.397340
Coffee Landscape and Design LLC,4.8,45,7765 Longoria Rd #400,Amarillo,Texas,US,http://www.coffeelandscapedesign.com/,(806) 656-1296,Landscape designer,https://www.google.com/maps/search/?api=1&query=Coffee%20Landscape%20and%20Design%20LLC&query_place_id=ChIJcQUTe89dAYcRiS5e5JncALg,"Конечно! Чтобы помочь вам с айсбрейкерами, мне нужно немного больше информации о контексте, в котором вы планируете их использовать. Например:

1. Какова цель встречи или мероприятия (командообразование, сетевое взаимодействие, обучение и т.д.)?
2. Кто ваша аудитория (коллеги, студенты, клиенты и т.д.)?
3. Есть ли какие-то специфические темы или интересы, которые вы хотите затронуть?

Пожалуйста, уточните, и я с радостью помогу вам с айсбрейкерами!",7.845e-05,gpt-4o-mini-2024-07-18,2025-11-08T13:22:28.793511
Wichita Valley Landscape,4.7,60,5314 Southwest Pkwy,Wichita Falls,Texas,US,https://www.wv-landscape.com/,(940) 696-3082,Landscaper,https://www.google.com/maps/search/?api=1&query=Wichita%20Valley%20Landscape&query_place_id=ChIJz0qmQAEiU4YRVTaWfa1laBc,"Конечно! Чтобы помочь вам с айсбрейкерами, мне нужно немного больше информации о контексте. Например, для какой аудитории они предназначены (коллеги, студенты, друзья и т.д.), какая цель (разогрев атмосферы, знакомство, командообразование и т.д.) и какие темы вас интересуют. Пожалуйста, уточните, и я с радостью помогу!",5.625e-05,gpt-4o-mini-2024-07-18,2025-11-08T13:22:31.435029
Flatland Roofing & Insulation,5.0,43,706 Elm St,Hartley,Texas,US,https://flatlandroofinginsulation.com/?utm_source=gbp,(806) 606-6794,Insulation contractor,https://www.google.com/maps/search/?api=1&query=Flatland%20Roofing%20%26%20Insulation&query_place_id=ChIJPz4Kibk1BIcR29UlEl6eKn0,"Конечно! Чтобы помочь вам с айсбрейкерами, мне нужно больше информации о контексте или теме, на которую вы хотите их создать. Например, это может быть для корпоративного мероприятия, учебной группы, встречи друзей или чего-то другого. Пожалуйста, уточните, и я с радостью помогу!",4.425e-05,gpt-4o-mini-2024-07-18,2025-11-08T13:22:33.678466
Toot'n Totum Car Care Center (Dalhart),4.2,72,410 Liberal St,Dalhart,Texas,US,https://www.tootntotum.com/carcare,(806) 244-0707,Auto repair shop,https://www.google.com/maps/search/?api=1&query=Toot'n%20Totum%20Car%20Care%20Center%20(Dalhart)&query_place_id=ChIJlyuRYs-2BYcRQI0LMFKctxE,"Конечно! Пожалуйста, предоставьте данные или контекст, на основе которых вы хотите, чтобы я сгенерировал айсбрейкеры. Это могут быть темы, интересы, ситуации или что-то еще.",3.165e-05,gpt-4o-mini-2024-07-18,2025-11-08T13:22:35.786112
Juan’s landscaping and Irrigation,4.3,12,2214 Holliday Rd,Wichita Falls,Texas,US,http://www.juanslandirco.com/,(940) 631-6069,Landscaper,https://www.google.com/maps/search/?api=1&query=Juan%E2%80%99s%20landscaping%20and%20Irrigation&query_place_id=ChIJqaUan8YhU4YR4gHFAf837yA,"Конечно! Пожалуйста, предоставьте данные или контекст, на основе которых вы хотите, чтобы я сгенерировал айсбрейкеры.",2.3249999999999996e-05,gpt-4o-mini-2024-07-18,2025-11-08T13:22:37.420643
Absolute Lawn Care,3.6,56,13490 FM 2590,Amarillo,Texas,US,http://www.absolutelawncareonline.com/,(806) 676-5199,Lawn care service,https://www.google.com/maps/search/?api=1&query=Absolute%20Lawn%20Care&query_place_id=ChIJy8RJF05FAYcRGrcJR4gpJeY,"Конечно! Чтобы помочь вам с айсбрейкерами, мне нужно немного больше информации. Укажите, пожалуйста, контекст: для какой аудитории они предназначены (например, для команды на работе, для студентов, для группы друзей и т.д.), и какие темы вас интересуют (например, хобби, путешествия, фильмы и т.д.). Это поможет мне создать более подходящие и интересные айсбрейкеры.",5.805e-05,gpt-4o-mini-2024-07-18,2025-11-08T13:22:40.098770
Allen Lawn Care,4.8,23,,,,,http://www.lawncare806.com/,(806) 679-8516,Lawn care service,https://www.google.com/maps/search/?api=1&query=Allen%20Lawn%20Care&query_place_id=ChIJs5CzyF5DAYcRanTxmhScT9c,"Конечно! Пожалуйста, предоставьте данные или контекст, на основе которых вы хотите, чтобы я сгенерировал айсбрейкеры.",2.3249999999999996e-05,gpt-4o-mini-2024-07-18,2025-11-08T13:22:41.398794
Custom Gardens,4.8,21,925 E Loop 335 S,Amarillo,Texas,US,http://www.customgardensamarillo.com/,(806) 354-9693,Landscape architect,https://www.google.com/maps/search/?api=1&query=Custom%20Gardens&query_place_id=ChIJlx50KrJFAYcR4WFZK4MxIpE,"Конечно! Пожалуйста, предоставьте данные или контекст, на основе которых вы хотите, чтобы я сгенерировал айсбрейкеры.",2.3249999999999996e-05,gpt-4o-mini-2024-07-18,2025-11-08T13:22:42.913802
Tactical Heating & Air,4.9,50,2405 SW 6th Ave,Amarillo,Texas,US,https://tacticalheatingandair.com/?utm_source=GBP&utm_medium=IGNITE&utm_campaign=LSEO&utm_id=Tactical,(806) 576-9259,Air conditioning repair service,https://www.google.com/maps/search/?api=1&query=Tactical%20Heating%20%26%20Air&query_place_id=ChIJ0U9pI-46DyMR3oHo9R60BvA,"Конечно! Пожалуйста, предоставьте данные или тему, на основе которой вы хотите, чтобы я сгенерировал айсбрейкеры.",2.2649999999999998e-05,gpt-4o-mini-2024-07-18,2025-11-08T13:22:44.473404
Fort Worth Air Conditioning Co. Inc.,4.9,448,9105 White Settlement Rd,Fort Worth,Texas,US,https://fortworth-air.com/,(817) 367-6000,HVAC contractor,https://www.google.com/maps/search/?api=1&query=Fort%20Worth%20Air%20Conditioning%20Co.%20Inc.&query_place_id=ChIJ0448j4QMToYRPa-ngQizuzA,"Конечно! Пожалуйста, предоставьте данные или контекст, на основе которых вы хотите, чтобы я сгенерировал айсбрейкеры.",2.3249999999999996e-05,gpt-4o-mini-2024-07-18,2025-11-08T13:22:45.855733
Orgrow Lawn Care,4.6,14,901 S Madison St,Amarillo,Texas,US,http://www.orgrowlawncare.com/,(806) 376-4769,Lawn care service,https://www.google.com/maps/search/?api=1&query=Orgrow%20Lawn%20Care&query_place_id=ChIJRfu6lVVOAYcRRgG2WFGI2eI,"Конечно! Пожалуйста, предоставьте данные или контекст, на основе которых вы хотите, чтобы я сгенерировал айсбрейкеры.",2.3249999999999996e-05,gpt-4o-mini-2024-07-18,2025-11-08T13:22:47.229397
Malcolm's Heating & Air,5.0,202,3416 Wendell Dr,North Richland Hills,Texas,US,https://www.malcolmsheatingandair.com/,(817) 333-7310,HVAC contractor,https://www.google.com/maps/search/?api=1&query=Malcolm's%20Heating%20%26%20Air&query_place_id=ChIJE6DWTMV5ToYR3746Rw_AnWc,"Конечно! Пожалуйста, предоставьте данные или темы, на основе которых вы хотите, чтобы я сгенерировал айсбрейкеры.",2.2649999999999998e-05,gpt-4o-mini-2024-07-18,2025-11-08T13:22:48.570967
Trinity Air Conditioning - Main Office,5.0,683,1515 Archer City Hwy,Wichita Falls,Texas,US,http://trinityairconditioning.com/,(940) 761-1808,HVAC contractor,https://www.google.com/maps/search/?api=1&query=Trinity%20Air%20Conditioning%20-%20Main%20Office&query_place_id=ChIJi9sXvvEfU4YRssKBK9o1TvQ,"Конечно! Пожалуйста, предоставьте данные или контекст, на основе которых вы хотите, чтобы я сгенерировал айсбрейкеры.",2.3249999999999996e-05,gpt-4o-mini-2024-07-18,2025-11-08T13:22:50.228119
Total Lawn Care,3.8,13,308 6th St,Wichita Falls,Texas,US,http://totallawncarewf.com/,(940) 691-4309,Lawn care service,https://www.google.com/maps/search/?api=1&query=Total%20Lawn%20Care&query_place_id=ChIJnY1rZhAfU4YRhJY6622zYZQ,"Конечно! Пожалуйста, предоставьте данные или контекст, на основе которых вы хотите, чтобы я сгенерировал айсбрейкеры.",2.3249999999999996e-05,gpt-4o-mini-2024-07-18,2025-11-08T13:22:51.555013
Curt's Lawn Service,5.0,136,,,,,http://www.curtslawnservice.com/,(940) 867-2477,Lawn care service,https://www.google.com/maps/search/?api=1&query=Curt's%20Lawn%20Service&query_place_id=ChIJOziuHOshU4YRFVU6uDAfkHk,"Конечно! Пожалуйста, предоставьте данные или контекст, на основе которых вы хотите, чтобы я сгенерировал айсбрейкеры.",2.3249999999999996e-05,gpt-4o-mini-2024-07-18,2025-11-08T13:22:52.908055
Hall's Heating And Air,4.9,887,801 W Kingsmill Ave Ste. #2,Pampa,Texas,US,https://hallheatingandair.net/,(806) 203-6646,HVAC contractor,https://www.google.com/maps/search/?api=1&query=Hall's%20Heating%20And%20Air&query_place_id=ChIJbxkZGgVJB4cRlENErKvWEY4,"Конечно! Пожалуйста, предоставьте данные или контекст, на основе которых вы хотите, чтобы я сгенерировал айсбрейкеры.",2.3249999999999996e-05,gpt-4o-mini-2024-07-18,2025-11-08T13:22:54.271036
Perm-O-Green,4.3,89,5018 Ditto Ln,Wichita Falls,Texas,US,https://www.permogreen.com/,(940) 488-4677,Landscaper,https://www.google.com/maps/search/?api=1&query=Perm-O-Green&query_place_id=ChIJKe3xzfsfU4YRp8GPUsYWbSo,"Конечно! Чтобы помочь вам лучше, мне нужно больше информации о контексте, в котором вы хотите использовать айсбрейкеры. Например, это может быть для корпоративного мероприятия, учебной группы, вечеринки или другого типа встречи. Также полезно знать, какая аудитория будет присутствовать (например, возраст, интересы и т.д.). Пожалуйста, уточните, и я с радостью помогу!",5.565e-05,gpt-4o-mini-2024-07-18,2025-11-08T13:22:56.498166
Otis Air Conditioning and Refrigeration,4.9,506,5828 Ashleyanne Cir,Wichita Falls,Texas,US,http://www.otisrefrigeration.co/,(940) 692-6847,HVAC contractor,https://www.google.com/maps/search/?api=1&query=Otis%20Air%20Conditioning%20and%20Refrigeration&query_place_id=ChIJTeHvFOQfU4YRBMEvUBsWH7o,"Конечно! Пожалуйста, предоставьте данные или контекст, на основе которых вы хотите, чтобы я сгенерировал айсбрейкеры.",2.3249999999999996e-05,gpt-4o-mini-2024-07-18,2025-11-08T13:22:57.926864
GreenSmith Lawncare Amarillo,5.0,5,6200 Susie Rd,Amarillo,Texas,US,https://sites.google.com/d/1-SJcZRlDnAe-PX4o-kQKo1bTQJktNPCW/p/1LobR2iFs2VCbMrkXQ-LEBqj_EqWyCPGa/edit,(806) 410-0603,Lawn care service,https://www.google.com/maps/search/?api=1&query=GreenSmith%20Lawncare%20Amarillo&query_place_id=ChIJpYn0eNXOZigReeKcGVHOQ24,"Конечно! Пожалуйста, предоставьте данные или контекст, на основе которых вы хотите, чтобы я сгенерировал айсбрейкеры.",2.3249999999999996e-05,gpt-4o-mini-2024-07-18,2025-11-08T13:22:59.554716
FallsTown LLC,4.6,20,2209 10th St,Wichita Falls,Texas,US,http://fallstownllc.com/,(940) 642-4139,Lawn care service,https://www.google.com/maps/search/?api=1&query=FallsTown%20LLC&query_place_id=ChIJ_f1c4uwhU4YRXfKnAunpNng,"Конечно! Пожалуйста, предоставьте данные или контекст, на основе которых вы хотите, чтобы я сгенерировал айсбрейкеры.",2.3249999999999996e-05,gpt-4o-mini-2024-07-18,2025-11-08T13:23:01.235797
Metro Air Conditioning Heating & Services,4.8,315,126 W Illinois Ave,Dallas,Texas,US,https://www.metroacs.com/,(214) 304-7658,HVAC contractor,https://www.google.com/maps/search/?api=1&query=Metro%20Air%20Conditioning%20Heating%20%26%20Services&query_place_id=ChIJW9MyXeOZToYR8gwWSwYY1rw,"Конечно! Пожалуйста, предоставьте данные или контекст, на основе которых вы хотите, чтобы я сгенерировал айсбрейкеры.",2.3249999999999996e-05,gpt-4o-mini-2024-07-18,2025-11-08T13:23:02.550221
Smith's Lawn & Tree Service,5.0,30,1112 1/2 Covington St,Wichita Falls,Texas,US,https://smithslawnandtreeservice.com/,(940) 704-1536,Lawn care service,https://www.google.com/maps/search/?api=1&query=Smith's%20Lawn%20%26%20Tree%20Service&query_place_id=ChIJ24-FetIhU4YRlZt9v1MLQgA,"Конечно! Пожалуйста, предоставьте данные или контекст, на основе которых вы хотите, чтобы я сгенерировал айсбрейкеры.",2.3249999999999996e-05,gpt-4o-mini-2024-07-18,2025-11-08T13:23:03.800112
All-Star Heat & Air,4.0,80,2630 W Amarillo Blvd West,Amarillo,Texas,US,http://www.all-starheatair.com/,(806) 584-1679,Air conditioning repair service,https://www.google.com/maps/search/?api=1&query=All-Star%20Heat%20%26%20Air&query_place_id=ChIJpU1HNetPAYcRIIjvzlEiKKc,"Конечно! Чтобы помочь вам с айсбрейкерами, мне нужно немного больше информации о контексте, в котором вы планируете их использовать. Например, это будет деловая встреча, учебный семинар, дружеская встреча или что-то другое? Также полезно знать, какая аудитория будет присутствовать. Пожалуйста, уточните, и я с радостью помогу!",5.3849999999999994e-05,gpt-4o-mini-2024-07-18,2025-11-08T13:23:06.033396
Rescue Air and Plumbing,4.9,3593,9639 Greenville Ave,Dallas,Texas,US,https://www.rescueairtx.com/,(972) 201-3253,HVAC contractor,https://www.google.com/maps/search/?api=1&query=Rescue%20Air%20and%20Plumbing&query_place_id=ChIJ4XFisXcfTIYRURj1cWa1MIk,"Конечно! Чтобы помочь вам с созданием айсбрейкеров, мне нужно больше информации о контексте, в котором вы планируете их использовать. Например:

1. Для какой аудитории предназначены айсбрейкеры (коллеги, студенты, друзья)?
2. Какой формат общения (онлайн, офлайн, группа, пара)?
3. Есть ли какие-то конкретные темы или интересы, которые вы хотите затронуть?

Пожалуйста, предоставьте больше деталей, и я с радостью помогу вам!",7.245e-05,gpt-4o-mini-2024-07-18,2025-11-08T13:23:09.436506
ETR Air Conditioning & Heating,4.9,1411,4700 Old Troup Hwy,Tyler,Texas,US,https://www.etrhvac.com/?utm_source=google&utm_medium=organic&utm_campaign=gmb&utm_content=4700_Old_Troup_Highway_Tyler,(903) 581-3771,HVAC contractor,https://www.google.com/maps/search/?api=1&query=ETR%20Air%20Conditioning%20%26%20Heating&query_place_id=ChIJq6qqqmrLSYYRU532gIOvsAQ,"Конечно! Чтобы помочь вам с айсбрейкерами, мне нужно немного больше информации о контексте, в котором вы планируете их использовать. Например:

1. Какова цель мероприятия (тренинг, встреча, тимбилдинг и т.д.)?
2. Кто ваша аудитория (коллеги, студенты, друзья и т.д.)?
3. Есть ли какие-то предпочтения по теме или формату (вопросы, игры, задания)?

С этими данными я смогу предложить более подходящие айсбрейкеры!",7.544999999999999e-05,gpt-4o-mini-2024-07-18,2025-11-08T13:23:13.605044
Amarillo Land Services,5.0,147,7525 Canyon Dr,Amarillo,Texas,US,https://www.amarillolandservices.com/,(806) 477-2605,Lawn sprinkler system contractor,https://www.google.com/maps/search/?api=1&query=Amarillo%20Land%20Services&query_place_id=ChIJv9ePtDRFAYcRhThjPzXk6r0,"Конечно! Пожалуйста, предоставьте данные или контекст, на основе которых вы хотите, чтобы я сгенерировал айсбрейкеры.",2.3249999999999996e-05,gpt-4o-mini-2024-07-18,2025-11-08T13:23:14.920177
Matthew's HVAC Services Heating & Air Conditioning,4.9,144,7684 SW 81st Ave #200,Amarillo,Texas,US,https://matthewshvac.net/?utm_source=organic&utm_medium=gbp,(806) 681-0778,HVAC contractor,https://www.google.com/maps/search/?api=1&query=Matthew's%20HVAC%20Services%20Heating%20%26%20Air%20Conditioning&query_place_id=ChIJpc3IYTVbAYcRNvryhPTsQLQ,"Конечно! Пожалуйста, предоставьте данные или контекст, на основе которых вы хотите, чтобы я сгенерировал айсбрейкеры.",2.3249999999999996e-05,gpt-4o-mini-2024-07-18,2025-11-08T13:23:16.212635
Complete Lawn Service LLC,4.5,21,2304 Midwestern Pkwy #203,Wichita Falls,Texas,US,http://completelawnllc.com/,(940) 689-9397,Landscaper,https://www.google.com/maps/search/?api=1&query=Complete%20Lawn%20Service%20LLC&query_place_id=ChIJRyh5G5AhU4YRa0Y5zL2-K3g,"Конечно! Пожалуйста, предоставьте данные или контекст, на основе которых вы хотите, чтобы я сгенерировал айсбрейкеры.",2.3249999999999996e-05,gpt-4o-mini-2024-07-18,2025-11-08T13:23:18.038614
Dub's Heating and Air,5.0,337,501 Crandle Dr,White Settlement,Texas,US,http://www.dubsheatingandair.com/,(817) 845-1002,HVAC contractor,https://www.google.com/maps/search/?api=1&query=Dub's%20Heating%20and%20Air&query_place_id=ChIJVUJAMgkMToYRjlP2UYPTqDc,"Конечно! Пожалуйста, предоставьте данные или контекст, на основе которых вы хотите, чтобы я сгенерировал айсбрейкеры.",2.3249999999999996e-05,gpt-4o-mini-2024-07-18,2025-11-08T13:23:19.484090
One Hour Air Conditioning & Heating,4.8,3100,2535 Brennan Ave,Fort Worth,Texas,US,https://www.onehourairftworth.com/?utm_source=organic&utm_medium=gbp,(817) 766-5706,HVAC contractor,https://www.google.com/maps/search/?api=1&query=One%20Hour%20Air%20Conditioning%20%26%20Heating&query_place_id=ChIJp-CLd_nhTYYRN-AndhiVWlY,"Конечно! Пожалуйста, предоставьте данные или контекст, на основе которых вы хотите, чтобы я сгенерировал айсбрейкеры.",2.3249999999999996e-05,gpt-4o-mini-2024-07-18,2025-11-08T13:23:20.715483
Comfort Experts,4.8,1965,4255 Bryant Irvin Rd Ste 211,Fort Worth,Texas,US,https://comfortexpertsinc.com/?utm_source=GMB&utm_medium=organic&utm_campaign=fort_worth,(817) 678-1287,HVAC contractor,https://www.google.com/maps/search/?api=1&query=Comfort%20Experts&query_place_id=ChIJLUsPKXltToYRjPG3CeeER2s,"Конечно! Пожалуйста, предоставьте данные или контекст, на основе которых вы хотите, чтобы я сгенерировал айсбрейкеры.",2.3249999999999996e-05,gpt-4o-mini-2024-07-18,2025-11-08T13:23:22.086496
Snow Bear Heat and Air | Air Conditioning | Ac | furnace repair service,4.8,961,5410 Bell St #218,Amarillo,Texas,US,https://snowbearair.com/locations/tx/snow-bear-heat-air-amarillo/,(806) 367-9416,Air conditioning repair service,https://www.google.com/maps/search/?api=1&query=Snow%20Bear%20Heat%20and%20Air%20%7C%20Air%20Conditioning%20%7C%20Ac%20%7C%20furnace%20repair%20service&query_place_id=ChIJLw49DURPAYcRkRbjdSWotEQ,"Конечно! Пожалуйста, предоставьте данные или контекст, на основе которых вы хотите, чтобы я сгенерировал айсбрейкеры.",2.3249999999999996e-05,gpt-4o-mini-2024-07-18,2025-11-08T13:23:23.797371
5 Star HVAC Contractors,4.9,1098,3906 Melcer Dr #302,Rowlett,Texas,US,https://5starhvaccontractors.com/,(972) 848-9414,HVAC contractor,https://www.google.com/maps/search/?api=1&query=5%20Star%20HVAC%20Contractors&query_place_id=ChIJabmecnUCTIYRwKZWsPdz1aw,"Конечно! Пожалуйста, предоставьте данные или контекст, на основе которых вы хотите, чтобы я сгенерировал айсбрейкеры.",2.3249999999999996e-05,gpt-4o-mini-2024-07-18,2025-11-08T13:23:25.047849
Spencer Air Conditioning & Heating,4.9,1228,2928 W Story Rd,Irving,Texas,US,https://spencerairconditioning.com/?utm_medium=organic&utm_source=google&utm_campaign=gbp,(972) 544-6921,HVAC contractor,https://www.google.com/maps/search/?api=1&query=Spencer%20Air%20Conditioning%20%26%20Heating&query_place_id=ChIJoXhvJhOCToYRaOGtvXHJB3c,"Конечно! Пожалуйста, предоставьте данные или контекст, на основе которых вы хотите, чтобы я сгенерировал айсбрейкеры.",2.3249999999999996e-05,gpt-4o-mini-2024-07-18,2025-11-08T13:23:26.397804
Grizzle Heating & Air,4.9,535,112 N 15th St,Canyon,Texas,US,https://www.grizzlehvac.com/?utm_source=organic&utm_medium=website-button&utm_id=google-business-profile,(806) 655-7676,Air conditioning repair service,https://www.google.com/maps/search/?api=1&query=Grizzle%20Heating%20%26%20Air&query_place_id=ChIJ7ZgozntdAYcRboporhiR8-k,"Конечно! Пожалуйста, предоставьте данные или тему, на основе которой вы хотите, чтобы я сгенерировал айсбрейкеры.",2.2649999999999998e-05,gpt-4o-mini-2024-07-18,2025-11-08T13:23:28.129741
"Xtreme Air Services - HVAC, Plumbing, & Electrical",4.8,2312,308 U.S. 80 Frontage Rd,Sunnyvale,Texas,US,https://xtremeairservices.com/,(972) 288-2263,HVAC contractor,https://www.google.com/maps/search/?api=1&query=Xtreme%20Air%20Services%20-%20HVAC%2C%20Plumbing%2C%20%26%20Electrical&query_place_id=ChIJs0F2r4mvToYR5LclsG7cQHg,"Конечно! Пожалуйста, предоставьте данные или тему, на основе которых вы хотите, чтобы я сгенерировал айсбрейкеры.",2.2649999999999998e-05,gpt-4o-mini-2024-07-18,2025-11-08T13:23:29.407772
The Right Choice Air Conditioning And Plumbing,4.8,1141,2290 Springlake Rd #103,Farmers Branch,Texas,US,https://therightchoicetexas.com/,(972) 914-0624,HVAC contractor,https://www.google.com/maps/search/?api=1&query=The%20Right%20Choice%20Air%20Conditioning%20And%20Plumbing&query_place_id=ChIJHRG67MQnTIYRY3QQitvZ7CA,"Конечно! Пожалуйста, предоставьте данные или контекст, на основе которых вы хотите, чтобы я сгенерировал айсбрейкеры.",2.3249999999999996e-05,gpt-4o-mini-2024-07-18,2025-11-08T13:23:30.644818
Larry's Heating & Air,4.3,59,14310 FM 2590,Amarillo,Texas,US,https://larrysamarillo.com/?utm_source=google&utm_medium=gmb,(806) 383-1956,HVAC contractor,https://www.google.com/maps/search/?api=1&query=Larry's%20Heating%20%26%20Air&query_place_id=ChIJyWza6aJPAYcRNDMr98oJCW0,"Конечно! Пожалуйста, предоставьте данные или контекст, на основе которых вы хотите, чтобы я сгенерировал айсбрейкеры.",2.3249999999999996e-05,gpt-4o-mini-2024-07-18,2025-11-08T13:23:31.860752
Reeder Outdoor Living,3.6,34,11923 Coulter St S,Amarillo,Texas,US,https://reederlandscape.com/,(806) 356-6163,Landscape designer,https://www.google.com/maps/search/?api=1&query=Reeder%20Outdoor%20Living&query_place_id=ChIJ6VL82_ZOAYcRc3RzopvxaMQ,"Конечно! Пожалуйста, предоставьте данные или контекст, на основе которых вы хотите, чтобы я сгенерировал айсбрейкеры. Это могут быть темы, интересы, ситуации или что-то еще, что поможет мне создать подходящие вопросы или фразы.",3.825e-05,gpt-4o-mini-2024-07-18,2025-11-08T13:23:33.794037
Texan Heating and Air,4.9,374,5608 Malvey Ave Suite 202,Fort Worth,Texas,US,https://www.texanhvac.com/,(817) 734-3073,Air conditioning repair service,https://www.google.com/maps/search/?api=1&query=Texan%20Heating%20and%20Air&query_place_id=ChIJGTvEO_J1ToYRgQopCUGuwu0,"Конечно! Пожалуйста, предоставьте данные или контекст, на основе которых вы хотите, чтобы я сгенерировал айсбрейкеры.",2.3249999999999996e-05,gpt-4o-mini-2024-07-18,2025-11-08T13:23:35.571361
Captain Air Heating and Cooling,4.8,88,1202 Co Rd 2306,Canton,Texas,US,https://captainairtexas.com/,(903) 802-4022,HVAC contractor,https://www.google.com/maps/search/?api=1&query=Captain%20Air%20Heating%20and%20Cooling&query_place_id=ChIJpSPBVgcRSYYRw4YCCfb68UI,"Конечно! Пожалуйста, предоставьте данные или контекст, на основе которых вы хотите, чтобы я сгенерировал айсбрейкеры.",2.3249999999999996e-05,gpt-4o-mini-2024-07-18,2025-11-08T13:23:37.192976
1st Class Heat & Air,4.7,453,2712 S Rigsbee Dr #5,Plano,Texas,US,https://1stclassairservice.com/?utm_campaign=gmb&utm_medium=organic&utm_source=google,(972) 895-7278,HVAC contractor,https://www.google.com/maps/search/?api=1&query=1st%20Class%20Heat%20%26%20Air&query_place_id=ChIJr-jpTmgZTIYRXeuFBGR31iE,"Конечно! Пожалуйста, предоставьте данные или тему, на основе которых вы хотите, чтобы я сгенерировал айсбрейкеры.",2.2649999999999998e-05,gpt-4o-mini-2024-07-18,2025-11-08T13:23:39.279025
Garland Heating & Air Conditioning,4.7,617,2113 S Garland Ave,Garland,Texas,US,https://www.garlandheatingandair.com/,(972) 278-3500,HVAC contractor,https://www.google.com/maps/search/?api=1&query=Garland%20Heating%20%26%20Air%20Conditioning&query_place_id=ChIJ32KqxFqnToYRupQUcIZaGQI,"Конечно! Пожалуйста, предоставьте данные или тему, на основе которой вы хотите, чтобы я сгенерировал айсбрейкеры.",2.2649999999999998e-05,gpt-4o-mini-2024-07-18,2025-11-08T13:23:40.532082
"Willard Cooling, Heating, Plumbing, & Electrical (Max Air And Plumbing – Max Mechanical)",4.9,3326,2313 Michigan Ct,Arlington,Texas,US,https://willardac.com/?utm_source=google-gbp&utm_medium=organic&utm_campaign=*144*willard-cooling-arlington,(817) 674-7522,HVAC contractor,https://www.google.com/maps/search/?api=1&query=Willard%20Cooling%2C%20Heating%2C%20Plumbing%2C%20%26%20Electrical%20(Max%20Air%20And%20Plumbing%20%E2%80%93%20Max%20Mechanical)&query_place_id=ChIJH1aL_cd8ToYRY0cbOjgLh_o,"Конечно! Пожалуйста, предоставьте данные или контекст, на основе которых вы хотите, чтобы я сгенерировал айсбрейкеры.",2.3249999999999996e-05,gpt-4o-mini-2024-07-18,2025-11-08T13:23:41.697440
"Gary's Heating and Air Conditioning, Inc.",4.9,1799,2505 SW 7th Ave,Amarillo,Texas,US,https://www.garys.com/,(806) 318-1337,HVAC contractor,https://www.google.com/maps/search/?api=1&query=Gary's%20Heating%20and%20Air%20Conditioning%2C%20Inc.&query_place_id=ChIJz3Dw4kdOAYcRD-zE2puFFeQ,"Конечно! Чтобы помочь вам с айсбрейкерами, мне нужно немного больше информации о контексте. Например, для какой аудитории они предназначены (коллеги, студенты, друзья и т.д.), и в каком формате вы планируете их использовать (встреча, тренинг, вечеринка и т.д.). Также будет полезно знать, какие темы или интересы могут быть актуальны для вашей группы. Пожалуйста, уточните!",6.165e-05,gpt-4o-mini-2024-07-18,2025-11-08T13:23:44.187225
Absolute Comfort Heating and Air,4.2,15,3512 McNiel Ave,Wichita Falls,Texas,US,http://www.absolutecomforttxok.com/,(940) 636-5210,Air conditioning repair service,https://www.google.com/maps/search/?api=1&query=Absolute%20Comfort%20Heating%20and%20Air&query_place_id=ChIJ03fGrcEhU4YRrskqNVJEcX8,"Конечно! Пожалуйста, предоставьте данные или тему, на основе которых вы хотите, чтобы я сгенерировал айсбрейкеры.",2.2649999999999998e-05,gpt-4o-mini-2024-07-18,2025-11-08T13:23:45.568408
Kelly's Heating and Air,4.8,194,320 S Charles St #113,Lewisville,Texas,US,https://kellysheatingandair.com/hvac-in-lewisville-tx/,(972) 436-4340,HVAC contractor,https://www.google.com/maps/search/?api=1&query=Kelly's%20Heating%20and%20Air&query_place_id=ChIJz0bSVYwyTIYRTtJCvQddMJE,"Конечно! Пожалуйста, предоставьте данные или контекст, на основе которых вы хотите, чтобы я сгенерировал айсбрейкеры.",2.3249999999999996e-05,gpt-4o-mini-2024-07-18,2025-11-08T13:23:46.930546
Ellis Air Conditioning and Heating,4.9,181,536 N Hwy 67,Cedar Hill,Texas,US,https://www.ellisac.com/,(972) 291-9316,Air conditioning contractor,https://www.google.com/maps/search/?api=1&query=Ellis%20Air%20Conditioning%20and%20Heating&query_place_id=ChIJb_EfJeyNToYR9R20ccVix7s,"Конечно! Пожалуйста, предоставьте данные или контекст, на основе которых вы хотите, чтобы я сгенерировал айсбрейкеры.",2.3249999999999996e-05,gpt-4o-mini-2024-07-18,2025-11-08T13:23:48.266083
"Patrick heating & air conditioning, inc.",3.7,52,1602 S Monroe St,Amarillo,Texas,US,http://www.patrickcompanies.com/,(806) 374-0407,Air conditioning contractor,https://www.google.com/maps/search/?api=1&query=Patrick%20heating%20%26%20air%20conditioning%2C%20inc.&query_place_id=ChIJMyDoT6pPAYcRlkIK-reoATA,"Конечно! Чтобы помочь вам с созданием айсбрейкеров, мне нужно немного больше информации о контексте, в котором вы хотите их использовать. Например, это будет встреча, тренинг, корпоративное мероприятие или что-то другое? Также полезно знать, какая аудитория будет присутствовать (коллеги, студенты, друзья и т.д.). Пожалуйста, уточните, и я с радостью помогу!",5.805e-05,gpt-4o-mini-2024-07-18,2025-11-08T13:23:50.756778
Samm's Heating and Air Conditioning,4.9,1425,250 Chisholm Pl,Plano,Texas,US,https://www.sammsheatingandair.com/,(214) 251-4438,Air conditioning repair service,https://www.google.com/maps/search/?api=1&query=Samm's%20Heating%20and%20Air%20Conditioning&query_place_id=ChIJ__N8dw8ZTIYRRt4hH8JPzY8,"Конечно! Пожалуйста, предоставьте данные или контекст, на основе которых вы хотите, чтобы я сгенерировал айсбрейкеры.",2.3249999999999996e-05,gpt-4o-mini-2024-07-18,2025-11-08T13:23:52.457038
Hall's Heating and Air,5.0,40,6011 SW 45th Ave #4,Amarillo,Texas,US,https://hallheatingandair.net/,(806) 405-8884,HVAC contractor,https://www.google.com/maps/search/?api=1&query=Hall's%20Heating%20and%20Air&query_place_id=ChIJxWaxeX1RAYcRr196Dc34w58,"Конечно! Пожалуйста, предоставьте данные или контекст, на основе которых вы хотите, чтобы я сгенерировал айсбрейкеры.",2.3249999999999996e-05,gpt-4o-mini-2024-07-18,2025-11-08T13:23:53.821001
Serveway Heating and Air Conditioning,4.9,365,10120 Cayuga Dr Suite 107,Dallas,Texas,US,https://www.servewayhvac.com/?utm_source=google&utm_medium=organic&utm_campaign=gbp,(469) 231-9379,HVAC contractor,https://www.google.com/maps/search/?api=1&query=Serveway%20Heating%20and%20Air%20Conditioning&query_place_id=ChIJx4C5x0OhToYRjJs7BQD4Mvc,"Конечно! Чтобы помочь вам с айсбрейкерами, мне нужно немного больше информации о контексте. Например, для какой аудитории или ситуации вы хотите их использовать? Это может быть для корпоративного мероприятия, учебной группы, встречи друзей и т.д. Также полезно знать, какие темы или интересы могут быть актуальны для участников.",4.6649999999999996e-05,gpt-4o-mini-2024-07-18,2025-11-08T13:23:56.265962
K&S Heating and Air,4.6,571,1409 S Jupiter Rd,Garland,Texas,US,http://www.kandsac.com/,(972) 942-8078,Air conditioning repair service,https://www.google.com/maps/search/?api=1&query=K%26S%20Heating%20and%20Air&query_place_id=ChIJrRm3caCgToYRc9_oA1xCX58,"Конечно! Чтобы помочь вам с созданием айсбрейкеров, мне нужно больше информации о контексте, в котором вы планируете их использовать. Например, это будет встреча, тренинг, корпоративное мероприятие или что-то другое? Также было бы полезно знать, какая аудитория будет присутствовать (коллеги, студенты, клиенты и т.д.) и какие темы или цели вы хотите затронуть. Пожалуйста, уточните, и я с радостью помогу!",6.704999999999999e-05,gpt-4o-mini-2024-07-18,2025-11-08T13:23:59.757997
The Right Choice Heating and Air Inc,4.9,314,2414 W University Dr Suite 122 E,McKinney,Texas,US,https://therightchoicetexas.com/service-areas/ac-repair-mckinney/,(469) 447-9707,HVAC contractor,https://www.google.com/maps/search/?api=1&query=The%20Right%20Choice%20Heating%20and%20Air%20Inc&query_place_id=ChIJq7EeD8UTTIYRkRgQ3M6pGKE,"Конечно! Пожалуйста, предоставьте данные или контекст, на основе которых вы хотите, чтобы я сгенерировал айсбрейкеры.",2.3249999999999996e-05,gpt-4o-mini-2024-07-18,2025-11-08T13:24:01.240747
Mid-Cities Air Conditioning and Heating,4.8,649,204 S Main St Ste 240,Keller,Texas,US,https://www.midcitiesac.com/?utm_source=google&utm_medium=organic&utm_campaign=gbp,(817) 284-3332,HVAC contractor,https://www.google.com/maps/search/?api=1&query=Mid-Cities%20Air%20Conditioning%20and%20Heating&query_place_id=ChIJDWTbYEwrTIYRwARgxxUtArc,"Конечно! Пожалуйста, предоставьте данные или контекст, на основе которых вы хотите, чтобы я сгенерировал айсбрейкеры.",2.3249999999999996e-05,gpt-4o-mini-2024-07-18,2025-11-08T13:24:02.483650
J.R.V Heating & Cooling LLC.,4.9,213,720 E Main St A,Allen,Texas,US,http://www.jrvair.com/,(214) 288-5984,Air conditioning contractor,https://www.google.com/maps/search/?api=1&query=J.R.V%20Heating%20%26%20Cooling%20LLC.&query_place_id=ChIJzaCHGvoQTIYR0wg1HPmyFR4,"Конечно! Пожалуйста, предоставьте данные или контекст, на основе которых вы хотите, чтобы я сгенерировал айсбрейкеры.",2.3249999999999996e-05,gpt-4o-mini-2024-07-18,2025-11-08T13:24:03.694163
KINGS LAWN SERVICE LLC,4.4,48,6009 Canyon Dr,Amarillo,Texas,US,https://kingslawnamarillo.com/,(806) 567-4028,Landscaper,https://www.google.com/maps/search/?api=1&query=KINGS%20LAWN%20SERVICE%20LLC&query_place_id=ChIJZSIO8JvIB0sRz7QeQQyelOo,"Конечно! Чтобы помочь вам лучше, мне нужно немного больше информации. Какие именно данные вы имеете в виду? Это могут быть темы, интересы, события или что-то другое. Пожалуйста, уточните, и я с радостью сгенерирую для вас айсбрейкеры!",4.124999999999999e-05,gpt-4o-mini-2024-07-18,2025-11-08T13:24:05.671868
"Goode Brothers Heating & Air Conditioning, Inc.",4.9,1803,8812 US-259,Longview,Texas,US,https://www.goodebrothers.com/?utm_source=Google+Business+Listing+&utm_medium=organic+&utm_campaign=website+button,(903) 291-0608,HVAC contractor,https://www.google.com/maps/search/?api=1&query=Goode%20Brothers%20Heating%20%26%20Air%20Conditioning%2C%20Inc.&query_place_id=ChIJkcghcO08NoYRPSDd0gFEupE,"Конечно! Чтобы помочь вам с созданием айсбрейкеров, мне нужно немного больше информации о контексте. Например, для какой ситуации или группы людей вы хотите использовать айсбрейкеры? Это может быть для корпоративного мероприятия, учебного класса, вечеринки или чего-то другого. Также будет полезно знать, какие темы или интересы могут быть актуальны для участников.",5.205e-05,gpt-4o-mini-2024-07-18,2025-11-08T13:24:08.371993
"A&R Plumbing, Heating, & Air Conditioning",4.6,127,87 N Fannin St,Amarillo,Texas,US,https://armechanical.com/,(806) 372-1572,Air conditioning contractor,https://www.google.com/maps/search/?api=1&query=A%26R%20Plumbing%2C%20Heating%2C%20%26%20Air%20Conditioning&query_place_id=ChIJU8VehkNOAYcR106FrUTQN10,"Конечно! Пожалуйста, предоставьте данные или контекст, на основе которых вы хотите, чтобы я сгенерировал айсбрейкеры.",2.3249999999999996e-05,gpt-4o-mini-2024-07-18,2025-11-08T13:24:09.623468
North Texas HVAC,4.9,315,,,,,http://www.northtxhvac.com/?utm_campaign=gmb,(817) 522-1219,HVAC contractor,https://www.google.com/maps/search/?api=1&query=North%20Texas%20HVAC&query_place_id=ChIJYfydBATbTYYRuo-lJqFe-yY,"Конечно! Чтобы помочь вам с айсбрейкерами, мне нужно немного больше информации о контексте: для какой аудитории или события вы хотите их использовать? Это может быть встреча, тренинг, корпоративное мероприятие или что-то другое. Также будет полезно знать, какие темы или интересы у участников.",4.3650000000000004e-05,gpt-4o-mini-2024-07-18,2025-11-08T13:24:11.975686
Boone's Heating and Cooling,4.9,817,3372 Garden Brook Dr,Farmers Branch,Texas,US,https://willardac.com/?utm_source=google-gbp&utm_medium=organic&utm_campaign=*52*boones-heating-cooling-farmers-branch,(972) 646-1824,HVAC contractor,https://www.google.com/maps/search/?api=1&query=Boone's%20Heating%20and%20Cooling&query_place_id=ChIJA9Ndet8nTIYRuxsyKUCKBSs,"Конечно! Чтобы помочь вам с айсбрейкерами, мне нужно немного больше информации о контексте. Например, для какой аудитории или ситуации вы хотите их использовать? Это может быть для корпоративного мероприятия, учебной группы, вечеринки или чего-то другого? Также будет полезно знать, какие темы или интересы могут быть актуальны для участников.",4.785e-05,gpt-4o-mini-2024-07-18,2025-11-08T13:24:14.184740
Air Repair Pros,4.9,4453,1647 Witt Rd #201,Frisco,Texas,US,https://airrepairpros.com/?category=gmb&utm_campaign=gmb,(972) 630-4227,HVAC contractor,https://www.google.com/maps/search/?api=1&query=Air%20Repair%20Pros&query_place_id=ChIJyWxK4007TIYRMjuW9qHGhTI,"Конечно! Пожалуйста, предоставьте данные или контекст, на основе которых вы хотите, чтобы я сгенерировал айсбрейкеры. Это могут быть темы, интересы, ситуации или что-то другое.",3.165e-05,gpt-4o-mini-2024-07-18,2025-11-08T13:24:16.196282
Amarillo Air Conditioning LLC,5.0,556,1001 N Forest St Unit E,Amarillo,Texas,US,https://www.amarilloair.com/?utm_source=google&utm_medium=organic&utm_campaign=gmb,(806) 515-2919,HVAC contractor,https://www.google.com/maps/search/?api=1&query=Amarillo%20Air%20Conditioning%20LLC&query_place_id=ChIJpWzLhkVOAYcRunj3WNOo5jM,"Конечно! Пожалуйста, предоставьте данные или контекст, на основе которых вы хотите, чтобы я сгенерировал айсбрейкеры.",2.3249999999999996e-05,gpt-4o-mini-2024-07-18,2025-11-08T13:24:18.029654
Chill Out Heat Air & Refrigeration,4.6,41,5206 Tradewind St,Amarillo,Texas,US,http://chilloutheatair.com/,(806) 517-2094,Air conditioning contractor,https://www.google.com/maps/search/?api=1&query=Chill%20Out%20Heat%20Air%20%26%20Refrigeration&query_place_id=ChIJx539QX5FAYcRayne2ieVrxo,"Конечно! Пожалуйста, предоставьте данные или контекст, на основе которых вы хотите, чтобы я сгенерировал айсбрейкеры.",2.3249999999999996e-05,gpt-4o-mini-2024-07-18,2025-11-08T13:24:19.466829
NewRise Heating & Cooling,4.9,347,1003 Enterprise Pl #101,Arlington,Texas,US,https://newrisehvac.com/,(469) 579-9110,Air conditioning repair service,https://www.google.com/maps/search/?api=1&query=NewRise%20Heating%20%26%20Cooling&query_place_id=ChIJAQAEC3piToYRZFJoTY7IHJs,"Конечно! Чтобы помочь вам с айсбрейкерами, мне нужно немного больше информации о контексте. Например, для какой аудитории или ситуации вы хотите их использовать? Это может быть для корпоративного мероприятия, учебной группы, вечеринки или чего-то другого? Также будет полезно знать, какие темы или интересы могут быть актуальны для вашей аудитории.",4.905e-05,gpt-4o-mini-2024-07-18,2025-11-08T13:24:21.412160
Bill Joplin's Air Conditioning & Heating,4.9,3452,301 E Midway St,McKinney,Texas,US,https://joplins.net/?utm_source=google&utm_medium=organic&utm_campaign=gbp,(469) 846-8339,HVAC contractor,https://www.google.com/maps/search/?api=1&query=Bill%20Joplin's%20Air%20Conditioning%20%26%20Heating&query_place_id=ChIJ41cSPE4STIYRG80tt1EuEOY,"Конечно! Пожалуйста, предоставьте данные или тему, на основе которой вы хотите, чтобы я сгенерировал айсбрейкеры.",2.2649999999999998e-05,gpt-4o-mini-2024-07-18,2025-11-08T13:24:22.722974
Sutton Heating and Air,4.9,115,508 Crockett St,Amarillo,Texas,US,https://www.suttonheatingandair.com/,(806) 331-2584,HVAC contractor,https://www.google.com/maps/search/?api=1&query=Sutton%20Heating%20and%20Air&query_place_id=ChIJA53JiU9OAYcRnzIaIlFD97o,"Конечно! Пожалуйста, предоставьте данные или тему, на основе которой вы хотите получить айсбрейкеры.",1.905e-05,gpt-4o-mini-2024-07-18,2025-11-08T13:24:23.851958
A/C Contractors,4.9,1238,3830 Gilmer Rd,Longview,Texas,US,https://www.accontractors.com/,(903) 759-4250,HVAC contractor,https://www.google.com/maps/search/?api=1&query=A%2FC%20Contractors&query_place_id=ChIJtRdu1rw-NoYR7fQYYlurwWI,"Конечно! Пожалуйста, предоставьте данные или тему, на основе которой вы хотите, чтобы я сгенерировал айсбрейкеры.",2.2649999999999998e-05,gpt-4o-mini-2024-07-18,2025-11-08T13:24:25.051900
Collin Air Conditioning,4.9,411,6905 K Ave #201,Plano,Texas,US,https://collinair.com/?utm_source=google&utm_medium=organic&utm_campaign=gbp,(972) 424-4905,Air conditioning repair service,https://www.google.com/maps/search/?api=1&query=Collin%20Air%20Conditioning&query_place_id=ChIJeXiETN0ZTIYRz62ClnBNy3A,"Конечно! Пожалуйста, предоставьте данные или контекст, на основе которых вы хотите, чтобы я сгенерировал айсбрейкеры.",2.3249999999999996e-05,gpt-4o-mini-2024-07-18,2025-11-08T13:24:26.450121
"AryCo HVAC, Electric, & Plumbing",4.9,1298,1721 N Business 287,Decatur,Texas,US,https://www.aryco.com/,(940) 627-5882,HVAC contractor,https://www.google.com/maps/search/?api=1&query=AryCo%20HVAC%2C%20Electric%2C%20%26%20Plumbing&query_place_id=ChIJy3SUYuySTYYRQfo0TOEmVjk,"Конечно! Чтобы помочь вам с айсбрейкерами, мне нужно больше информации о контексте или теме, для которой они нужны. Например, это может быть для корпоративного мероприятия, учебной группы, вечеринки или другого типа встречи. Пожалуйста, уточните, и я с радостью предложу идеи!",4.3650000000000004e-05,gpt-4o-mini-2024-07-18,2025-11-08T13:24:28.791932
Crow's Heat & Air- McKinney,4.9,379,1132 Westmoreland Dr,McKinney,Texas,US,http://crowsheatandair.com/,(972) 548-1323,HVAC contractor,https://www.google.com/maps/search/?api=1&query=Crow's%20Heat%20%26%20Air-%20McKinney&query_place_id=ChIJzXUBqyYSTIYRc9DJAQVGZOI,"Конечно! Чтобы помочь вам с айсбрейкерами, мне нужно немного больше информации. Например, для какой аудитории или ситуации вы хотите их использовать? Это может быть для команды на работе, учебной группы, вечеринки или другого мероприятия. Также будет полезно знать, какие темы или интересы могут быть у участников.",4.3650000000000004e-05,gpt-4o-mini-2024-07-18,2025-11-08T13:24:30.458374
Dallas Heating and Air Conditioning,4.8,205,5050 Quorum Dr Ste 700,Dallas,Texas,US,https://www.dallasheatingac.com/?utm_source=GMB&utm_medium=Website&utm_campaign=Addison,(214) 831-8061,HVAC contractor,https://www.google.com/maps/search/?api=1&query=Dallas%20Heating%20and%20Air%20Conditioning&query_place_id=ChIJd7VVVu8hTIYRzxc4WSeppGM,"Конечно! Пожалуйста, предоставьте данные или контекст, на основе которых вы хотите, чтобы я сгенерировал айсбрейкеры. Это могут быть темы, интересы, ситуации или что-то другое.",3.165e-05,gpt-4o-mini-2024-07-18,2025-11-08T13:24:32.287313
Service Experts Fort Worth,4.8,4946,2725 Basswood Blvd Suite #241,Fort Worth,Texas,US,https://www.serviceexperts.com/fort-worth-tx/,(817) 241-5893,HVAC contractor,https://www.google.com/maps/search/?api=1&query=Service%20Experts%20Fort%20Worth&query_place_id=ChIJFYtJpRN5ToYRBZxn9XqNk6w,"Конечно! Напишите, пожалуйста, какие данные или темы вы хотите использовать для генерации айсбрейкеров. Это могут быть интересные факты, хобби, предпочтения или что-то другое.",2.9849999999999997e-05,gpt-4o-mini-2024-07-18,2025-11-08T13:24:34.122744
Hardwick Heating and Air,5.0,58,5000 S Western St,Amarillo,Texas,US,http://hardwickheatingair.com/,(806) 471-0103,HVAC contractor,https://www.google.com/maps/search/?api=1&query=Hardwick%20Heating%20and%20Air&query_place_id=ChIJXSYrTGg6zkwRQuBc11jazMY,"Конечно! Пожалуйста, предоставьте данные или контекст, на основе которых вы хотите, чтобы я сгенерировал айсбрейкеры.",2.3249999999999996e-05,gpt-4o-mini-2024-07-18,2025-11-08T13:24:35.608920
Bennett Heating and Air Conditioning,5.0,19,600 S Broadway St,Plainview,Texas,US,http://bennettheatandair.com/contact-us/,(806) 293-7285,Air conditioning contractor,https://www.google.com/maps/search/?api=1&query=Bennett%20Heating%20and%20Air%20Conditioning&query_place_id=ChIJNXg5zn7CAYcRM9Ppw1zKrj4,"Конечно! Пожалуйста, предоставьте данные или тему, на основе которой вы хотите, чтобы я сгенерировал айсбрейкеры.",2.2649999999999998e-05,gpt-4o-mini-2024-07-18,2025-11-08T13:24:36.959288
James Lane Air Conditioning & Plumbing - A Fidelity Company,4.8,389,5024 Old Jacksboro Hwy,Wichita Falls,Texas,US,http://www.jameslane.com/,(940) 766-0244,HVAC contractor,https://www.google.com/maps/search/?api=1&query=James%20Lane%20Air%20Conditioning%20%26%20Plumbing%20-%20A%20Fidelity%20Company&query_place_id=ChIJy32m5_kfU4YRIe00YVttY8Y,"Конечно! Пожалуйста, предоставьте данные или контекст, на основе которых вы хотите, чтобы я сгенерировал айсбрейкеры.",2.3249999999999996e-05,gpt-4o-mini-2024-07-18,2025-11-08T13:24:38.623728
