"Ôªø""title""",totalScore,reviewsCount,street,city,state,countryCode,website,phone,categoryName,url,ai_result,processing_cost,model_used,processed_at
Schroeder Legacy Lawn Care,5.0,1,,,,,https://schroederlegacylawn.onuniverse.com/,(940) 337-5326,Lawn care service,https://www.google.com/maps/search/?api=1&query=Schroeder%20Legacy%20Lawn%20Care&query_place_id=ChIJifZHWuSLF6ARaNCnqquw5_U,"Subject: Let‚Äôs Break the Ice! ‚ùÑÔ∏è

Hey Team!

I hope this email finds you all well! As we dive into our projects and tasks, I thought it might be fun to take a moment to get to know each other a little better. After all, a little laughter and connection can go a long way!

Here are a few icebreaker questions to kick things off:

1. If you could have dinner with any fictional character, who would it be and why?
2. What‚Äôs the most unusual food you‚Äôve ever tried?
3. If you could instantly become an expert in anything, what would it be?
4. What‚Äôs your go-to karaoke song (or would be if you had the courage)?
5. If you could travel anywhere in the world right now, where would you go?

Feel free to reply to this email with your answers or share them in our next team meeting. Let‚Äôs keep it light and fun!

Looking forward to hearing your responses!

Best,  
[Your Name]",0.00012675,gpt-4o-mini-2024-07-18,2025-11-08T13:09:42.237127
New Life Landscape,4.5,8,305 S Georgia St,Amarillo,Texas,US,http://sprinklerrepairamarillo.com/,(806) 373-5575,Landscaper,https://www.google.com/maps/search/?api=1&query=New%20Life%20Landscape&query_place_id=ChIJGbbQKwhPAYcRAXGu40eS_iA,"Subject: Let‚Äôs Break the Ice! ‚ùÑÔ∏è

Hey Team!

I hope this email finds you all well! As we dive into our projects, I thought it would be fun to kick things off with a little icebreaker. It‚Äôs a great way to get to know each other better and lighten the mood!

Here‚Äôs a quick question for everyone: **If you could have dinner with any fictional character, who would it be and why?** Feel free to get creative‚Äîwhether it‚Äôs a superhero, a character from your favorite book, or even a cartoon!

Reply to this email with your answers, and I‚Äôll compile them for a fun read. Looking forward to hearing your picks!

Cheers,  
[Your Name]",9.194999999999999e-05,gpt-4o-mini-2024-07-18,2025-11-08T13:09:45.195624
Verde Landscape Companies,4.4,30,6650 Canyon Dr Unit 4,Amarillo,Texas,US,http://www.verdelandscape.com/,(844) 998-3733,Landscape designer,https://www.google.com/maps/search/?api=1&query=Verde%20Landscape%20Companies&query_place_id=ChIJDcS4fi5IB4cRak0xqZN08zM,"Subject: Let‚Äôs Break the Ice! ‚ùÑÔ∏è

Hey Team!

I hope this email finds you all well! As we dive into our projects, I thought it would be fun to kick things off with a little icebreaker to help us get to know each other better. 

Here‚Äôs a simple question for everyone: **If you could have dinner with any fictional character, who would it be and why?** 

Feel free to reply to this email or share your thoughts in our next meeting. I can‚Äôt wait to hear your answers and maybe even get some inspiration for my next book or movie choice!

Looking forward to your replies!

Best,  
[Your Name]",8.534999999999999e-05,gpt-4o-mini-2024-07-18,2025-11-08T13:09:49.246518
Superior Quality Lawn And Landscape,4.8,60,,,,,https://superiorqualitylandscaping.com/,(806) 626-2750,Landscaper,https://www.google.com/maps/search/?api=1&query=Superior%20Quality%20Lawn%20And%20Landscape&query_place_id=ChIJhdyCOEZOAYcRmXXzg9wZK_s,"Subject: Let‚Äôs Break the Ice! ‚ùÑÔ∏è

Hey Team,

I hope this email finds you all well! As we dive into our projects, I thought it would be fun to kick things off with a little icebreaker. It‚Äôs a great way to get to know each other better and lighten the mood!

Here‚Äôs a question for everyone: **If you could have dinner with any fictional character, who would it be and why?**

Feel free to reply to this email or share your thoughts in our next meeting. I can‚Äôt wait to see what creative answers you all come up with!

Looking forward to hearing from you!

Cheers,  
[Your Name]  
[Your Position]",8.774999999999999e-05,gpt-4o-mini-2024-07-18,2025-11-08T13:09:51.906082
Mean Green Lawn and Tree service,4.5,33,,,,,http://www.meangreenls.com/,(940) 444-6525,Lawn care service,https://www.google.com/maps/search/?api=1&query=Mean%20Green%20Lawn%20and%20Tree%20service&query_place_id=ChIJ_1Mko5chU4YRn-l8sGojjl0,"Subject: Just a Quick Hello! üòä

Hey [Recipient's Name],

I hope this email finds you well! I wanted to take a moment to reach out and introduce myself. I‚Äôm [Your Name], and I‚Äôm excited to connect with you!

To kick things off, here are a few fun icebreakers:

1. If you could have dinner with any fictional character, who would it be and why?
2. What‚Äôs the most interesting place you‚Äôve traveled to recently?
3. Do you have a favorite book or movie that you could watch over and over again?

I‚Äôd love to hear your thoughts! Looking forward to getting to know you better.

Best,
[Your Name]  
[Your Position]  
[Your Contact Information]",9.434999999999999e-05,gpt-4o-mini-2024-07-18,2025-11-08T13:09:55.304721
SJH Landscape,5.0,36,,,,,http://sjhlandscape.com/,(806) 440-7583,Landscaper,https://www.google.com/maps/search/?api=1&query=SJH%20Landscape&query_place_id=ChIJIbOjvdxLZ00RXoONOESl9jE,"Subject: Let‚Äôs Break the Ice! ‚ùÑÔ∏è

Hey Team!

Hope this email finds you all well! As we dive into our projects, I thought it would be fun to kick things off with a little icebreaker. It‚Äôs a great way to get to know each other better and lighten the mood!

Here‚Äôs a simple question for everyone: **If you could have dinner with any fictional character, who would it be and why?** 

Feel free to reply all with your answers, and let‚Äôs see who has the most interesting choice! I‚Äôll share mine too, but I promise I won‚Äôt pick anyone too weird (maybe). üòâ

Looking forward to hearing your responses!

Cheers,  
[Your Name]",9.015e-05,gpt-4o-mini-2024-07-18,2025-11-08T13:09:59.171438
TX Elite Repair & Service LLC,5.0,26,3345 Spur 24,Dalhart,Texas,US,http://txelite.net/,(806) 418-5505,Truck repair shop,https://www.google.com/maps/search/?api=1&query=TX%20Elite%20Repair%20%26%20Service%20LLC&query_place_id=ChIJ0Uybh563BYcRWOMh2vPCbpo,"Subject: Let‚Äôs Break the Ice! ‚ùÑÔ∏è

Hey Team!

I hope this email finds you all well! As we dive into our projects, I thought it would be fun to kick things off with a little icebreaker. It‚Äôs a great way to get to know each other better and lighten the mood!

Here‚Äôs a simple one: **If you could have dinner with any three people, dead or alive, who would they be and why?** Feel free to share your answers in this thread, and let‚Äôs see how our tastes differ!

Looking forward to hearing your thoughts! Let‚Äôs make this a fun and engaging conversation.

Cheers,  
[Your Name]  

P.S. Bonus points if you can guess who I‚Äôd choose! üòâ",9.434999999999999e-05,gpt-4o-mini-2024-07-18,2025-11-08T13:10:02.341190
Anchored Lawncare LLC,5.0,5,1037 City View Dr F,Wichita Falls,Texas,US,https://www.anchoredlawncarellc.com/,(469) 579-8841,Lawn care service,https://www.google.com/maps/search/?api=1&query=Anchored%20Lawncare%20LLC&query_place_id=ChIJ9fxny54hU4YRyQsvjOUfFwY,"Subject: Let‚Äôs Break the Ice! ‚ùÑÔ∏è

Hey Team!

I hope this email finds you all well! As we dive into our projects, I thought it would be fun to kick things off with a little icebreaker. It‚Äôs a great way to get to know each other better and lighten the mood!

Here‚Äôs a question for everyone: **If you could have dinner with any three people, dead or alive, who would they be and why?** 

Feel free to reply to this email or share your thoughts in our next meeting. I can‚Äôt wait to hear your answers and learn more about everyone‚Äôs interests!

Looking forward to some great conversations!

Best,  
[Your Name]",8.774999999999999e-05,gpt-4o-mini-2024-07-18,2025-11-08T13:10:06.356273
