"﻿""title""",totalScore,reviewsCount,street,city,state,countryCode,website,phone,categoryName,url,accessible,is_dynamic,emails_found,emails,check_status,scraped_content_length,ai_summary_status,business_type,services,owner_name,personalization_hooks,target_market,pain_points,ai_error
Gene James Air Conditioning & Heating,4.6,8,108 W Cash St,Iowa Park,Texas,US,https://airconditioningwf.com/,(940) 592-9333,HVAC contractor,https://www.google.com/maps/search/?api=1&query=Gene%20James%20Air%20Conditioning%20%26%20Heating&query_place_id=ChIJJYyRH087U4YRmfUJQqm_gXk,Yes,No,2,genejames@airconditioningwf.com; genejames@airconditioningwf.comlicense,success,2585,ai_failed_error,,,,,,,The api_key client option must be set either by passing api_key to the client or by setting the OPENAI_API_KEY environment variable
All-Pro Mowing and Landscaping,5,23,7511 W McCormick Rd,Amarillo,Texas,US,http://allpromow.com/,(806) 910-6566,Landscaper,https://www.google.com/maps/search/?api=1&query=All-Pro%20Mowing%20and%20Landscaping&query_place_id=ChIJy1EsgqpDAYcR2Ihli02U9C8,Yes,No,1,clayallpro1@gmail.com,success,1664,ai_failed_error,,,,,,,The api_key client option must be set either by passing api_key to the client or by setting the OPENAI_API_KEY environment variable
Verde Landscape Companies,4.4,30,6650 Canyon Dr Unit 4,Amarillo,Texas,US,http://www.verdelandscape.com/,(844) 998-3733,Landscape designer,https://www.google.com/maps/search/?api=1&query=Verde%20Landscape%20Companies&query_place_id=ChIJDcS4fi5IB4cRak0xqZN08zM,Yes,No,2,998-3733office@verdelandscape.comback; office@verdelandscape.com,success,2759,ai_failed_error,,,,,,,The api_key client option must be set either by passing api_key to the client or by setting the OPENAI_API_KEY environment variable
Toot'n Totum Car Care Center (Dalhart),4.2,72,410 Liberal St,Dalhart,Texas,US,https://www.tootntotum.com/carcare,(806) 244-0707,Auto repair shop,https://www.google.com/maps/search/?api=1&query=Toot'n%20Totum%20Car%20Care%20Center%20(Dalhart)&query_place_id=ChIJlyuRYs-2BYcRQI0LMFKctxE,Yes,No,0,,success,5248,ai_failed_error,,,,,,,The api_key client option must be set either by passing api_key to the client or by setting the OPENAI_API_KEY environment variable
TX Elite Repair & Service LLC,5,26,3345 Spur 24,Dalhart,Texas,US,http://txelite.net/,(806) 418-5505,Truck repair shop,https://www.google.com/maps/search/?api=1&query=TX%20Elite%20Repair%20%26%20Service%20LLC&query_place_id=ChIJ0Uybh563BYcRWOMh2vPCbpo,Yes,No,3,joedon.henry@outlook.comhoursopen; henryjoedon.henry@outlook.com; joedon.henry@outlook.com,success,2266,ai_failed_error,,,,,,,The api_key client option must be set either by passing api_key to the client or by setting the OPENAI_API_KEY environment variable
Flatland Roofing & Insulation,5,43,706 Elm St,Hartley,Texas,US,https://flatlandroofinginsulation.com/?utm_source=gbp,(806) 606-6794,Insulation contractor,https://www.google.com/maps/search/?api=1&query=Flatland%20Roofing%20%26%20Insulation&query_place_id=ChIJPz4Kibk1BIcR29UlEl6eKn0,Yes,No,1,info@flatlandroofinginsulation.com,success,4664,ai_failed_error,,,,,,,The api_key client option must be set either by passing api_key to the client or by setting the OPENAI_API_KEY environment variable
Mean Green Lawn and Tree service,4.5,33,,,,,http://www.meangreenls.com/,(940) 444-6525,Lawn care service,https://www.google.com/maps/search/?api=1&query=Mean%20Green%20Lawn%20and%20Tree%20service&query_place_id=ChIJ_1Mko5chU4YRn-l8sGojjl0,Yes,No,1,jjohnson@meangreenls.com,success,1782,ai_failed_error,,,,,,,The api_key client option must be set either by passing api_key to the client or by setting the OPENAI_API_KEY environment variable
SJH Landscape,5,36,,,,,http://sjhlandscape.com/,(806) 440-7583,Landscaper,https://www.google.com/maps/search/?api=1&query=SJH%20Landscape&query_place_id=ChIJIbOjvdxLZ00RXoONOESl9jE,Yes,No,1,landscape806-440-7583contact@sjhlandscape.com,success,1880,ai_failed_error,,,,,,,The api_key client option must be set either by passing api_key to the client or by setting the OPENAI_API_KEY environment variable
Terra Landscape,5,3,2305 Brook Hollow Dr,Wichita Falls,Texas,US,https://www.terralandscapetx.com/,(940) 500-4105,Landscape architect,https://www.google.com/maps/search/?api=1&query=Terra%20Landscape&query_place_id=ChIJfeRLQsjSBoMR8pEVDMS6OOo,Yes,No,1,info@terralandscapetx.com,success,902,ai_failed_error,,,,,,,The api_key client option must be set either by passing api_key to the client or by setting the OPENAI_API_KEY environment variable
Schroeder Legacy Lawn Care,5,1,,,,,https://schroederlegacylawn.onuniverse.com/,(940) 337-5326,Lawn care service,https://www.google.com/maps/search/?api=1&query=Schroeder%20Legacy%20Lawn%20Care&query_place_id=ChIJifZHWuSLF6ARaNCnqquw5_U,Yes,No,1,schroederlegacylawn@gmail.com,success,524,ai_failed_error,,,,,,,The api_key client option must be set either by passing api_key to the client or by setting the OPENAI_API_KEY environment variable
"Gabe's Heating and Air, LLC",5,49,1405 David Ln,Dalhart,Texas,US,https://www.gabesair.com/,(806) 333-9213,Air conditioning contractor,https://www.google.com/maps/search/?api=1&query=Gabe's%20Heating%20and%20Air%2C%20LLC&query_place_id=ChIJTRBTge491wIRMDf-YrMY--0,Yes,No,1,gabesheatingandair806@gmail.com,success,3567,ai_failed_error,,,,,,,The api_key client option must be set either by passing api_key to the client or by setting the OPENAI_API_KEY environment variable
Coffee Landscape and Design LLC,4.8,45,7765 Longoria Rd #400,Amarillo,Texas,US,http://www.coffeelandscapedesign.com/,(806) 656-1296,Landscape designer,https://www.google.com/maps/search/?api=1&query=Coffee%20Landscape%20and%20Design%20LLC&query_place_id=ChIJcQUTe89dAYcRiS5e5JncALg,Yes,No,1,coffeelandscapeanddesign@gmail.com,success,2048,ai_failed_error,,,,,,,The api_key client option must be set either by passing api_key to the client or by setting the OPENAI_API_KEY environment variable
Greenwood Landscaping,4.8,35,3140 9th St,Wichita Falls,Texas,US,https://www.greenwoodlandscaping.net/,(940) 636-9569,Landscaper,https://www.google.com/maps/search/?api=1&query=Greenwood%20Landscaping&query_place_id=ChIJLX5DWgAhU4YRVBc6O4G1HbM,Yes,No,1,greenwoodinc@mail.com,success,9824,ai_failed_error,,,,,,,The api_key client option must be set either by passing api_key to the client or by setting the OPENAI_API_KEY environment variable
Lucas VIP Lawn Care LLC,5,5,6939 Quail Ridge Rd,Wichita Falls,Texas,US,https://lucasviplawncare.com/,(940) 704-7115,Lawn care service,https://www.google.com/maps/search/?api=1&query=Lucas%20VIP%20Lawn%20Care%20LLC&query_place_id=ChIJi28bdJ98tgQRcfTyGOFaPWo,Yes,No,1,lucasviplawns@gmail.com,success,3639,ai_failed_error,,,,,,,The api_key client option must be set either by passing api_key to the client or by setting the OPENAI_API_KEY environment variable
Absolute Lawn Care,3.6,56,13490 FM 2590,Amarillo,Texas,US,http://www.absolutelawncareonline.com/,(806) 676-5199,Lawn care service,https://www.google.com/maps/search/?api=1&query=Absolute%20Lawn%20Care&query_place_id=ChIJy8RJF05FAYcRGrcJR4gpJeY,Yes,No,1,micah@absolutelawncareonline.com,success,706,ai_failed_error,,,,,,,The api_key client option must be set either by passing api_key to the client or by setting the OPENAI_API_KEY environment variable
Superior Quality Lawn And Landscape,4.8,60,,,,,https://superiorqualitylandscaping.com/,(806) 626-2750,Landscaper,https://www.google.com/maps/search/?api=1&query=Superior%20Quality%20Lawn%20And%20Landscape&query_place_id=ChIJhdyCOEZOAYcRmXXzg9wZK_s,Yes,No,1,baldock6242@gmail.com,success,3785,ai_failed_error,,,,,,,The api_key client option must be set either by passing api_key to the client or by setting the OPENAI_API_KEY environment variable
Voltage Tree & Lawn,5,165,2315 Buchanan St,Wichita Falls,Texas,US,https://voltagetreelawn.com/,(940) 642-1786,Lawn care service,https://www.google.com/maps/search/?api=1&query=Voltage%20Tree%20%26%20Lawn&query_place_id=ChIJ_eypS3ohU4YRH-6OdFiBukE,Yes,No,1,voltagetreelawn@gmail.com,success,3563,ai_failed_error,,,,,,,The api_key client option must be set either by passing api_key to the client or by setting the OPENAI_API_KEY environment variable
Tactical Heating & Air,4.9,50,2405 SW 6th Ave,Amarillo,Texas,US,https://tacticalheatingandair.com/?utm_source=GBP&utm_medium=IGNITE&utm_campaign=LSEO&utm_id=Tactical,(806) 576-9259,Air conditioning repair service,https://www.google.com/maps/search/?api=1&query=Tactical%20Heating%20%26%20Air&query_place_id=ChIJ0U9pI-46DyMR3oHo9R60BvA,Yes,No,1,tacticalheatingandair@yahoo.com,success,4237,ai_failed_error,,,,,,,The api_key client option must be set either by passing api_key to the client or by setting the OPENAI_API_KEY environment variable
Wichita Valley Landscape,4.7,60,5314 Southwest Pkwy,Wichita Falls,Texas,US,https://www.wv-landscape.com/,(940) 696-3082,Landscaper,https://www.google.com/maps/search/?api=1&query=Wichita%20Valley%20Landscape&query_place_id=ChIJz0qmQAEiU4YRVTaWfa1laBc,Yes,No,1,wvmail@aol.com,success,1465,ai_failed_error,,,,,,,The api_key client option must be set either by passing api_key to the client or by setting the OPENAI_API_KEY environment variable
C&K Lawn Mowing and landscaping,5,1,17392 Weatherby Ln,Canyon,Texas,US,https://cklawnl.wixsite.com/cklawnmowingandlands,(806) 647-7046,Lawn care service,https://www.google.com/maps/search/?api=1&query=C%26K%20Lawn%20Mowing%20and%20landscaping&query_place_id=ChIJExLNbNNdAYcR43_UrcIiPh8,Yes,No,2,cklawnl@gmail.com; usacklawnl@gmail.com,success,2557,ai_failed_error,,,,,,,The api_key client option must be set either by passing api_key to the client or by setting the OPENAI_API_KEY environment variable
FallsTown LLC,4.6,20,2209 10th St,Wichita Falls,Texas,US,http://fallstownllc.com/,(940) 642-4139,Lawn care service,https://www.google.com/maps/search/?api=1&query=FallsTown%20LLC&query_place_id=ChIJ_f1c4uwhU4YRXfKnAunpNng,Yes,No,1,fallstownllc@gmail.comgoogle,success,480,ai_failed_error,,,,,,,The api_key client option must be set either by passing api_key to the client or by setting the OPENAI_API_KEY environment variable
New Life Landscape,4.5,8,305 S Georgia St,Amarillo,Texas,US,http://sprinklerrepairamarillo.com/,(806) 373-5575,Landscaper,https://www.google.com/maps/search/?api=1&query=New%20Life%20Landscape&query_place_id=ChIJGbbQKwhPAYcRAXGu40eS_iA,Yes,No,1,nllc94@gmail.com,success,2215,ai_failed_error,,,,,,,The api_key client option must be set either by passing api_key to the client or by setting the OPENAI_API_KEY environment variable
Allen Lawn Care,4.8,23,,,,,http://www.lawncare806.com/,(806) 679-8516,Lawn care service,https://www.google.com/maps/search/?api=1&query=Allen%20Lawn%20Care&query_place_id=ChIJs5CzyF5DAYcRanTxmhScT9c,Yes,No,3,service.mail@lawncare806.com; contactmail@lawncare806.com; mail@lawncare806.com,success,3729,ai_failed_error,,,,,,,The api_key client option must be set either by passing api_key to the client or by setting the OPENAI_API_KEY environment variable
Orgrow Lawn Care,4.6,14,901 S Madison St,Amarillo,Texas,US,http://www.orgrowlawncare.com/,(806) 376-4769,Lawn care service,https://www.google.com/maps/search/?api=1&query=Orgrow%20Lawn%20Care&query_place_id=ChIJRfu6lVVOAYcRRgG2WFGI2eI,Yes,No,0,,success,306,ai_failed_error,,,,,,,The api_key client option must be set either by passing api_key to the client or by setting the OPENAI_API_KEY environment variable
Custom Gardens,4.8,21,925 E Loop 335 S,Amarillo,Texas,US,http://www.customgardensamarillo.com/,(806) 354-9693,Landscape architect,https://www.google.com/maps/search/?api=1&query=Custom%20Gardens&query_place_id=ChIJlx50KrJFAYcR4WFZK4MxIpE,Yes,No,2,info@customgardensamarillo.com; info@customgardensamarillo.comconsultationwe,success,2789,ai_failed_error,,,,,,,The api_key client option must be set either by passing api_key to the client or by setting the OPENAI_API_KEY environment variable
Juan’s landscaping and Irrigation,4.3,12,2214 Holliday Rd,Wichita Falls,Texas,US,http://www.juanslandirco.com/,(940) 631-6069,Landscaper,https://www.google.com/maps/search/?api=1&query=Juan%E2%80%99s%20landscaping%20and%20Irrigation&query_place_id=ChIJqaUan8YhU4YR4gHFAf837yA,Yes,No,2,jlmaldonadojr@gmail.com; jlmaldonadojr@gmail.comphone,success,3040,ai_failed_error,,,,,,,The api_key client option must be set either by passing api_key to the client or by setting the OPENAI_API_KEY environment variable
Elite Lawn Care Amarillo,4.8,62,5344 Capulin Ln,Amarillo,Texas,US,http://www.elitelcamarillo.com/,(806) 676-1945,Landscaper,https://www.google.com/maps/search/?api=1&query=Elite%20Lawn%20Care%20Amarillo&query_place_id=ChIJ46uxhHC15G4RI3k3wIu6KIE,Yes,No,2,william@elitelcamarillo.com; txwilliam@elitelcamarillo.com,success,2534,ai_failed_error,,,,,,,The api_key client option must be set either by passing api_key to the client or by setting the OPENAI_API_KEY environment variable
Anchored Lawncare LLC,5,5,1037 City View Dr F,Wichita Falls,Texas,US,https://www.anchoredlawncarellc.com/,(469) 579-8841,Lawn care service,https://www.google.com/maps/search/?api=1&query=Anchored%20Lawncare%20LLC&query_place_id=ChIJ9fxny54hU4YRyQsvjOUfFwY,Yes,No,1,cole@anchoredlawncarellc.com,success,922,ai_failed_error,,,,,,,The api_key client option must be set either by passing api_key to the client or by setting the OPENAI_API_KEY environment variable
Curt's Lawn Service,5,136,,,,,http://www.curtslawnservice.com/,(940) 867-2477,Lawn care service,https://www.google.com/maps/search/?api=1&query=Curt's%20Lawn%20Service&query_place_id=ChIJOziuHOshU4YRFVU6uDAfkHk,Yes,No,0,,success,1114,ai_failed_error,,,,,,,The api_key client option must be set either by passing api_key to the client or by setting the OPENAI_API_KEY environment variable
Trinity Air Conditioning - Main Office,5,683,1515 Archer City Hwy,Wichita Falls,Texas,US,http://trinityairconditioning.com/,(940) 761-1808,HVAC contractor,https://www.google.com/maps/search/?api=1&query=Trinity%20Air%20Conditioning%20-%20Main%20Office&query_place_id=ChIJi9sXvvEfU4YRssKBK9o1TvQ,Yes,No,0,,success,15000,ai_failed_error,,,,,,,The api_key client option must be set either by passing api_key to the client or by setting the OPENAI_API_KEY environment variable
GreenSmith Lawncare Amarillo,5,5,6200 Susie Rd,Amarillo,Texas,US,https://sites.google.com/d/1-SJcZRlDnAe-PX4o-kQKo1bTQJktNPCW/p/1LobR2iFs2VCbMrkXQ-LEBqj_EqWyCPGa/edit,(806) 410-0603,Lawn care service,https://www.google.com/maps/search/?api=1&query=GreenSmith%20Lawncare%20Amarillo&query_place_id=ChIJpYn0eNXOZigReeKcGVHOQ24,Yes,No,0,,success,201,ai_failed_error,,,,,,,The api_key client option must be set either by passing api_key to the client or by setting the OPENAI_API_KEY environment variable
Hall's Heating And Air,4.9,887,801 W Kingsmill Ave Ste. #2,Pampa,Texas,US,https://hallheatingandair.net/,(806) 203-6646,HVAC contractor,https://www.google.com/maps/search/?api=1&query=Hall's%20Heating%20And%20Air&query_place_id=ChIJbxkZGgVJB4cRlENErKvWEY4,Yes,No,0,,success,7585,ai_failed_error,,,,,,,The api_key client option must be set either by passing api_key to the client or by setting the OPENAI_API_KEY environment variable
Malcolm's Heating & Air,5,202,3416 Wendell Dr,North Richland Hills,Texas,US,https://www.malcolmsheatingandair.com/,(817) 333-7310,HVAC contractor,https://www.google.com/maps/search/?api=1&query=Malcolm's%20Heating%20%26%20Air&query_place_id=ChIJE6DWTMV5ToYR3746Rw_AnWc,Yes,No,1,malcolmsair@gmail.com,success,5981,ai_failed_error,,,,,,,The api_key client option must be set either by passing api_key to the client or by setting the OPENAI_API_KEY environment variable
Fort Worth Air Conditioning Co. Inc.,4.9,448,9105 White Settlement Rd,Fort Worth,Texas,US,https://fortworth-air.com/,(817) 367-6000,HVAC contractor,https://www.google.com/maps/search/?api=1&query=Fort%20Worth%20Air%20Conditioning%20Co.%20Inc.&query_place_id=ChIJ0448j4QMToYRPa-ngQizuzA,Yes,No,1,service@fortworth-air.com,success,7922,ai_failed_error,,,,,,,The api_key client option must be set either by passing api_key to the client or by setting the OPENAI_API_KEY environment variable
Spencer Air Conditioning & Heating,4.9,1228,2928 W Story Rd,Irving,Texas,US,https://spencerairconditioning.com/?utm_medium=organic&utm_source=google&utm_campaign=gbp,(972) 544-6921,HVAC contractor,https://www.google.com/maps/search/?api=1&query=Spencer%20Air%20Conditioning%20%26%20Heating&query_place_id=ChIJoXhvJhOCToYRaOGtvXHJB3c,Yes,No,1,service@spencerairconditioning.com,success,2612,ai_failed_error,,,,,,,The api_key client option must be set either by passing api_key to the client or by setting the OPENAI_API_KEY environment variable
Otis Air Conditioning and Refrigeration,4.9,506,5828 Ashleyanne Cir,Wichita Falls,Texas,US,http://www.otisrefrigeration.co/,(940) 692-6847,HVAC contractor,https://www.google.com/maps/search/?api=1&query=Otis%20Air%20Conditioning%20and%20Refrigeration&query_place_id=ChIJTeHvFOQfU4YRBMEvUBsWH7o,Yes,No,2,customer_service@otisrefrigeration.co; shaney@otisrefrigeration.co,success,4209,ai_failed_error,,,,,,,The api_key client option must be set either by passing api_key to the client or by setting the OPENAI_API_KEY environment variable
Dub's Heating and Air,5,337,501 Crandle Dr,White Settlement,Texas,US,http://www.dubsheatingandair.com/,(817) 845-1002,HVAC contractor,https://www.google.com/maps/search/?api=1&query=Dub's%20Heating%20and%20Air&query_place_id=ChIJVUJAMgkMToYRjlP2UYPTqDc,Yes,No,2,845-1002dubsheatingandair@gmail.com; dubsheatingandair@gmail.com,success,3107,ai_failed_error,,,,,,,The api_key client option must be set either by passing api_key to the client or by setting the OPENAI_API_KEY environment variable
Complete Lawn Service LLC,4.5,21,2304 Midwestern Pkwy #203,Wichita Falls,Texas,US,http://completelawnllc.com/,(940) 689-9397,Landscaper,https://www.google.com/maps/search/?api=1&query=Complete%20Lawn%20Service%20LLC&query_place_id=ChIJRyh5G5AhU4YRa0Y5zL2-K3g,Yes,No,1,stacie@completelawnllc.com,success,4401,ai_failed_error,,,,,,,The api_key client option must be set either by passing api_key to the client or by setting the OPENAI_API_KEY environment variable
5 Star HVAC Contractors,4.9,1098,3906 Melcer Dr #302,Rowlett,Texas,US,https://5starhvaccontractors.com/,(972) 848-9414,HVAC contractor,https://www.google.com/maps/search/?api=1&query=5%20Star%20HVAC%20Contractors&query_place_id=ChIJabmecnUCTIYRwKZWsPdz1aw,Yes,No,1,support@5starhvaccontractors.com,success,5761,ai_failed_error,,,,,,,The api_key client option must be set either by passing api_key to the client or by setting the OPENAI_API_KEY environment variable
ETR Air Conditioning & Heating,4.9,1411,4700 Old Troup Hwy,Tyler,Texas,US,https://www.etrhvac.com/?utm_source=google&utm_medium=organic&utm_campaign=gmb&utm_content=4700_Old_Troup_Highway_Tyler,(903) 581-3771,HVAC contractor,https://www.google.com/maps/search/?api=1&query=ETR%20Air%20Conditioning%20%26%20Heating&query_place_id=ChIJq6qqqmrLSYYRU532gIOvsAQ,Yes,No,1,wecare@etrhvac.com,success,11539,ai_failed_error,,,,,,,The api_key client option must be set either by passing api_key to the client or by setting the OPENAI_API_KEY environment variable
Snow Bear Heat and Air | Air Conditioning | Ac | furnace repair service,4.8,961,5410 Bell St #218,Amarillo,Texas,US,https://snowbearair.com/locations/tx/snow-bear-heat-air-amarillo/,(806) 367-9416,Air conditioning repair service,https://www.google.com/maps/search/?api=1&query=Snow%20Bear%20Heat%20and%20Air%20%7C%20Air%20Conditioning%20%7C%20Ac%20%7C%20furnace%20repair%20service&query_place_id=ChIJLw49DURPAYcRkRbjdSWotEQ,Yes,No,0,,success,7335,ai_failed_error,,,,,,,The api_key client option must be set either by passing api_key to the client or by setting the OPENAI_API_KEY environment variable
Comfort Experts,4.8,1965,4255 Bryant Irvin Rd Ste 211,Fort Worth,Texas,US,https://comfortexpertsinc.com/?utm_source=GMB&utm_medium=organic&utm_campaign=fort_worth,(817) 678-1287,HVAC contractor,https://www.google.com/maps/search/?api=1&query=Comfort%20Experts&query_place_id=ChIJLUsPKXltToYRjPG3CeeER2s,Yes,No,0,,success,8760,ai_failed_error,,,,,,,The api_key client option must be set either by passing api_key to the client or by setting the OPENAI_API_KEY environment variable
Total Lawn Care,3.8,13,308 6th St,Wichita Falls,Texas,US,http://totallawncarewf.com/,(940) 691-4309,Lawn care service,https://www.google.com/maps/search/?api=1&query=Total%20Lawn%20Care&query_place_id=ChIJnY1rZhAfU4YRhJY6622zYZQ,Yes,No,0,,success,2130,ai_failed_error,,,,,,,The api_key client option must be set either by passing api_key to the client or by setting the OPENAI_API_KEY environment variable
Matthew's HVAC Services Heating & Air Conditioning,4.9,144,7684 SW 81st Ave #200,Amarillo,Texas,US,https://matthewshvac.net/?utm_source=organic&utm_medium=gbp,(806) 681-0778,HVAC contractor,https://www.google.com/maps/search/?api=1&query=Matthew's%20HVAC%20Services%20Heating%20%26%20Air%20Conditioning&query_place_id=ChIJpc3IYTVbAYcRNvryhPTsQLQ,Yes,No,0,,success,4036,ai_failed_error,,,,,,,The api_key client option must be set either by passing api_key to the client or by setting the OPENAI_API_KEY environment variable
Smith's Lawn & Tree Service,5,30,1112 1/2 Covington St,Wichita Falls,Texas,US,https://smithslawnandtreeservice.com/,(940) 704-1536,Lawn care service,https://www.google.com/maps/search/?api=1&query=Smith's%20Lawn%20%26%20Tree%20Service&query_place_id=ChIJ24-FetIhU4YRlZt9v1MLQgA,Yes,No,0,,success,2648,ai_failed_error,,,,,,,The api_key client option must be set either by passing api_key to the client or by setting the OPENAI_API_KEY environment variable
Amarillo Land Services,5,147,7525 Canyon Dr,Amarillo,Texas,US,https://www.amarillolandservices.com/,(806) 477-2605,Lawn sprinkler system contractor,https://www.google.com/maps/search/?api=1&query=Amarillo%20Land%20Services&query_place_id=ChIJv9ePtDRFAYcRhThjPzXk6r0,Yes,No,0,,success,5013,ai_failed_error,,,,,,,The api_key client option must be set either by passing api_key to the client or by setting the OPENAI_API_KEY environment variable
Perm-O-Green,4.3,89,5018 Ditto Ln,Wichita Falls,Texas,US,https://www.permogreen.com/,(940) 488-4677,Landscaper,https://www.google.com/maps/search/?api=1&query=Perm-O-Green&query_place_id=ChIJKe3xzfsfU4YRp8GPUsYWbSo,Yes,No,0,,success,6854,ai_failed_error,,,,,,,The api_key client option must be set either by passing api_key to the client or by setting the OPENAI_API_KEY environment variable
Metro Air Conditioning Heating & Services,4.8,315,126 W Illinois Ave,Dallas,Texas,US,https://www.metroacs.com/,(214) 304-7658,HVAC contractor,https://www.google.com/maps/search/?api=1&query=Metro%20Air%20Conditioning%20Heating%20%26%20Services&query_place_id=ChIJW9MyXeOZToYR8gwWSwYY1rw,Yes,No,1,info@metroacs.com,success,9429,ai_failed_error,,,,,,,The api_key client option must be set either by passing api_key to the client or by setting the OPENAI_API_KEY environment variable
The Right Choice Heating and Air Inc,4.9,314,2414 W University Dr Suite 122 E,McKinney,Texas,US,https://therightchoicetexas.com/service-areas/ac-repair-mckinney/,(469) 447-9707,HVAC contractor,https://www.google.com/maps/search/?api=1&query=The%20Right%20Choice%20Heating%20and%20Air%20Inc&query_place_id=ChIJq7EeD8UTTIYRkRgQ3M6pGKE,Yes,No,1,support@therightchoicetexas.com,success,15000,ai_failed_error,,,,,,,The api_key client option must be set either by passing api_key to the client or by setting the OPENAI_API_KEY environment variable
The Right Choice Air Conditioning And Plumbing,4.8,1141,2290 Springlake Rd #103,Farmers Branch,Texas,US,https://therightchoicetexas.com/,(972) 914-0624,HVAC contractor,https://www.google.com/maps/search/?api=1&query=The%20Right%20Choice%20Air%20Conditioning%20And%20Plumbing&query_place_id=ChIJHRG67MQnTIYRY3QQitvZ7CA,Yes,No,1,support@therightchoicetexas.com,success,8617,ai_failed_error,,,,,,,The api_key client option must be set either by passing api_key to the client or by setting the OPENAI_API_KEY environment variable
Captain Air Heating and Cooling,4.8,88,1202 Co Rd 2306,Canton,Texas,US,https://captainairtexas.com/,(903) 802-4022,HVAC contractor,https://www.google.com/maps/search/?api=1&query=Captain%20Air%20Heating%20and%20Cooling&query_place_id=ChIJpSPBVgcRSYYRw4YCCfb68UI,Yes,No,1,captainair.office@gmail.com,success,3089,ai_failed_error,,,,,,,The api_key client option must be set either by passing api_key to the client or by setting the OPENAI_API_KEY environment variable
Reeder Outdoor Living,3.6,34,11923 Coulter St S,Amarillo,Texas,US,https://reederlandscape.com/,(806) 356-6163,Landscape designer,https://www.google.com/maps/search/?api=1&query=Reeder%20Outdoor%20Living&query_place_id=ChIJ6VL82_ZOAYcRc3RzopvxaMQ,Yes,No,0,,success,8089,ai_failed_error,,,,,,,The api_key client option must be set either by passing api_key to the client or by setting the OPENAI_API_KEY environment variable
"A&R Plumbing, Heating, & Air Conditioning",4.6,127,87 N Fannin St,Amarillo,Texas,US,https://armechanical.com/,(806) 372-1572,Air conditioning contractor,https://www.google.com/maps/search/?api=1&query=A%26R%20Plumbing%2C%20Heating%2C%20%26%20Air%20Conditioning&query_place_id=ChIJU8VehkNOAYcR106FrUTQN10,Yes,No,0,,success,4857,ai_failed_error,,,,,,,The api_key client option must be set either by passing api_key to the client or by setting the OPENAI_API_KEY environment variable
Grizzle Heating & Air,4.9,535,112 N 15th St,Canyon,Texas,US,https://www.grizzlehvac.com/?utm_source=organic&utm_medium=website-button&utm_id=google-business-profile,(806) 655-7676,Air conditioning repair service,https://www.google.com/maps/search/?api=1&query=Grizzle%20Heating%20%26%20Air&query_place_id=ChIJ7ZgozntdAYcRboporhiR8-k,Yes,No,0,,success,4990,ai_failed_error,,,,,,,The api_key client option must be set either by passing api_key to the client or by setting the OPENAI_API_KEY environment variable
"Xtreme Air Services - HVAC, Plumbing, & Electrical",4.8,2312,308 U.S. 80 Frontage Rd,Sunnyvale,Texas,US,https://xtremeairservices.com/,(972) 288-2263,HVAC contractor,https://www.google.com/maps/search/?api=1&query=Xtreme%20Air%20Services%20-%20HVAC%2C%20Plumbing%2C%20%26%20Electrical&query_place_id=ChIJs0F2r4mvToYR5LclsG7cQHg,Yes,No,1,servicetoday@xtremeairservices.com,success,11923,ai_failed_error,,,,,,,The api_key client option must be set either by passing api_key to the client or by setting the OPENAI_API_KEY environment variable
Absolute Comfort Heating and Air,4.2,15,3512 McNiel Ave,Wichita Falls,Texas,US,http://www.absolutecomforttxok.com/,(940) 636-5210,Air conditioning repair service,https://www.google.com/maps/search/?api=1&query=Absolute%20Comfort%20Heating%20and%20Air&query_place_id=ChIJ03fGrcEhU4YRrskqNVJEcX8,Yes,No,0,,success,2265,ai_failed_error,,,,,,,The api_key client option must be set either by passing api_key to the client or by setting the OPENAI_API_KEY environment variable
Rescue Air and Plumbing,4.9,3593,9639 Greenville Ave,Dallas,Texas,US,https://www.rescueairtx.com/,(972) 201-3253,HVAC contractor,https://www.google.com/maps/search/?api=1&query=Rescue%20Air%20and%20Plumbing&query_place_id=ChIJ4XFisXcfTIYRURj1cWa1MIk,Yes,No,1,info@rescueairtx.com,success,7315,ai_failed_error,,,,,,,The api_key client option must be set either by passing api_key to the client or by setting the OPENAI_API_KEY environment variable
"Gary's Heating and Air Conditioning, Inc.",4.9,1799,2505 SW 7th Ave,Amarillo,Texas,US,https://www.garys.com/,(806) 318-1337,HVAC contractor,https://www.google.com/maps/search/?api=1&query=Gary's%20Heating%20and%20Air%20Conditioning%2C%20Inc.&query_place_id=ChIJz3Dw4kdOAYcRD-zE2puFFeQ,Yes,No,0,,success,8571,ai_failed_error,,,,,,,The api_key client option must be set either by passing api_key to the client or by setting the OPENAI_API_KEY environment variable
All-Star Heat & Air,4,80,2630 W Amarillo Blvd West,Amarillo,Texas,US,http://www.all-starheatair.com/,(806) 584-1679,Air conditioning repair service,https://www.google.com/maps/search/?api=1&query=All-Star%20Heat%20%26%20Air&query_place_id=ChIJpU1HNetPAYcRIIjvzlEiKKc,Yes,No,0,,success,4010,ai_failed_error,,,,,,,The api_key client option must be set either by passing api_key to the client or by setting the OPENAI_API_KEY environment variable
One Hour Air Conditioning & Heating,4.8,3100,2535 Brennan Ave,Fort Worth,Texas,US,https://www.onehourairftworth.com/?utm_source=organic&utm_medium=gbp,(817) 766-5706,HVAC contractor,https://www.google.com/maps/search/?api=1&query=One%20Hour%20Air%20Conditioning%20%26%20Heating&query_place_id=ChIJp-CLd_nhTYYRN-AndhiVWlY,Yes,No,1,customerservice@onehourair.com,success,6087,ai_failed_error,,,,,,,The api_key client option must be set either by passing api_key to the client or by setting the OPENAI_API_KEY environment variable
K&S Heating and Air,4.6,571,1409 S Jupiter Rd,Garland,Texas,US,http://www.kandsac.com/,(972) 942-8078,Air conditioning repair service,https://www.google.com/maps/search/?api=1&query=K%26S%20Heating%20and%20Air&query_place_id=ChIJrRm3caCgToYRc9_oA1xCX58,Yes,No,1,accounting@kandsac.com,success,4366,ai_failed_error,,,,,,,The api_key client option must be set either by passing api_key to the client or by setting the OPENAI_API_KEY environment variable
Air Repair Pros,4.9,4453,1647 Witt Rd #201,Frisco,Texas,US,https://airrepairpros.com/?category=gmb&utm_campaign=gmb,(972) 630-4227,HVAC contractor,https://www.google.com/maps/search/?api=1&query=Air%20Repair%20Pros&query_place_id=ChIJyWxK4007TIYRMjuW9qHGhTI,Yes,No,0,,success,1428,ai_failed_error,,,,,,,The api_key client option must be set either by passing api_key to the client or by setting the OPENAI_API_KEY environment variable
Texan Heating and Air,4.9,374,5608 Malvey Ave Suite 202,Fort Worth,Texas,US,https://www.texanhvac.com/,(817) 734-3073,Air conditioning repair service,https://www.google.com/maps/search/?api=1&query=Texan%20Heating%20and%20Air&query_place_id=ChIJGTvEO_J1ToYRgQopCUGuwu0,Yes,No,1,service@texanhvac.com,success,5038,ai_failed_error,,,,,,,The api_key client option must be set either by passing api_key to the client or by setting the OPENAI_API_KEY environment variable
Amarillo Air Conditioning LLC,5,556,1001 N Forest St Unit E,Amarillo,Texas,US,https://www.amarilloair.com/?utm_source=google&utm_medium=organic&utm_campaign=gmb,(806) 515-2919,HVAC contractor,https://www.google.com/maps/search/?api=1&query=Amarillo%20Air%20Conditioning%20LLC&query_place_id=ChIJpWzLhkVOAYcRunj3WNOo5jM,Yes,No,0,,success,15000,ai_failed_error,,,,,,,The api_key client option must be set either by passing api_key to the client or by setting the OPENAI_API_KEY environment variable
KINGS LAWN SERVICE LLC,4.4,48,6009 Canyon Dr,Amarillo,Texas,US,https://kingslawnamarillo.com/,(806) 567-4028,Landscaper,https://www.google.com/maps/search/?api=1&query=KINGS%20LAWN%20SERVICE%20LLC&query_place_id=ChIJZSIO8JvIB0sRz7QeQQyelOo,Yes,No,0,,success,15000,ai_failed_error,,,,,,,The api_key client option must be set either by passing api_key to the client or by setting the OPENAI_API_KEY environment variable
Kelly's Heating and Air,4.8,194,320 S Charles St #113,Lewisville,Texas,US,https://kellysheatingandair.com/hvac-in-lewisville-tx/,(972) 436-4340,HVAC contractor,https://www.google.com/maps/search/?api=1&query=Kelly's%20Heating%20and%20Air&query_place_id=ChIJz0bSVYwyTIYRTtJCvQddMJE,Yes,No,2,info@kellysheatingandair.com; hotline@kellysheatingandair.com,success,6240,ai_failed_error,,,,,,,The api_key client option must be set either by passing api_key to the client or by setting the OPENAI_API_KEY environment variable
Hall's Heating and Air,5,40,6011 SW 45th Ave #4,Amarillo,Texas,US,https://hallheatingandair.net/,(806) 405-8884,HVAC contractor,https://www.google.com/maps/search/?api=1&query=Hall's%20Heating%20and%20Air&query_place_id=ChIJxWaxeX1RAYcRr196Dc34w58,Yes,No,0,,success,7585,ai_failed_error,,,,,,,The api_key client option must be set either by passing api_key to the client or by setting the OPENAI_API_KEY environment variable
Samm's Heating and Air Conditioning,4.9,1425,250 Chisholm Pl,Plano,Texas,US,https://www.sammsheatingandair.com/,(214) 251-4438,Air conditioning repair service,https://www.google.com/maps/search/?api=1&query=Samm's%20Heating%20and%20Air%20Conditioning&query_place_id=ChIJ__N8dw8ZTIYRRt4hH8JPzY8,Yes,No,0,,success,10731,ai_failed_error,,,,,,,The api_key client option must be set either by passing api_key to the client or by setting the OPENAI_API_KEY environment variable
"Patrick heating & air conditioning, inc.",3.7,52,1602 S Monroe St,Amarillo,Texas,US,http://www.patrickcompanies.com/,(806) 374-0407,Air conditioning contractor,https://www.google.com/maps/search/?api=1&query=Patrick%20heating%20%26%20air%20conditioning%2C%20inc.&query_place_id=ChIJMyDoT6pPAYcRlkIK-reoATA,Yes,No,0,,success,1308,ai_failed_error,,,,,,,The api_key client option must be set either by passing api_key to the client or by setting the OPENAI_API_KEY environment variable
Larry's Heating & Air,4.3,59,14310 FM 2590,Amarillo,Texas,US,https://larrysamarillo.com/?utm_source=google&utm_medium=gmb,(806) 383-1956,HVAC contractor,https://www.google.com/maps/search/?api=1&query=Larry's%20Heating%20%26%20Air&query_place_id=ChIJyWza6aJPAYcRNDMr98oJCW0,Yes,No,0,,success,10600,ai_failed_error,,,,,,,The api_key client option must be set either by passing api_key to the client or by setting the OPENAI_API_KEY environment variable
NewRise Heating & Cooling,4.9,347,1003 Enterprise Pl #101,Arlington,Texas,US,https://newrisehvac.com/,(469) 579-9110,Air conditioning repair service,https://www.google.com/maps/search/?api=1&query=NewRise%20Heating%20%26%20Cooling&query_place_id=ChIJAQAEC3piToYRZFJoTY7IHJs,Yes,No,1,support@newrisehvac.com,success,4047,ai_failed_error,,,,,,,The api_key client option must be set either by passing api_key to the client or by setting the OPENAI_API_KEY environment variable
"Willard Cooling, Heating, Plumbing, & Electrical (Max Air And Plumbing – Max Mechanical)",4.9,3326,2313 Michigan Ct,Arlington,Texas,US,https://willardac.com/?utm_source=google-gbp&utm_medium=organic&utm_campaign=*144*willard-cooling-arlington,(817) 674-7522,HVAC contractor,https://www.google.com/maps/search/?api=1&query=Willard%20Cooling%2C%20Heating%2C%20Plumbing%2C%20%26%20Electrical%20(Max%20Air%20And%20Plumbing%20%E2%80%93%20Max%20Mechanical)&query_place_id=ChIJH1aL_cd8ToYRY0cbOjgLh_o,Yes,No,2,info@willardac.com; callcenter@willardac.com,success,13329,ai_failed_error,,,,,,,The api_key client option must be set either by passing api_key to the client or by setting the OPENAI_API_KEY environment variable
Boone's Heating and Cooling,4.9,817,3372 Garden Brook Dr,Farmers Branch,Texas,US,https://willardac.com/?utm_source=google-gbp&utm_medium=organic&utm_campaign=*52*boones-heating-cooling-farmers-branch,(972) 646-1824,HVAC contractor,https://www.google.com/maps/search/?api=1&query=Boone's%20Heating%20and%20Cooling&query_place_id=ChIJA9Ndet8nTIYRuxsyKUCKBSs,Yes,No,2,info@willardac.com; callcenter@willardac.com,success,13329,ai_failed_error,,,,,,,The api_key client option must be set either by passing api_key to the client or by setting the OPENAI_API_KEY environment variable
Serveway Heating and Air Conditioning,4.9,365,10120 Cayuga Dr Suite 107,Dallas,Texas,US,https://www.servewayhvac.com/?utm_source=google&utm_medium=organic&utm_campaign=gbp,(469) 231-9379,HVAC contractor,https://www.google.com/maps/search/?api=1&query=Serveway%20Heating%20and%20Air%20Conditioning&query_place_id=ChIJx4C5x0OhToYRjJs7BQD4Mvc,Yes,No,0,,success,2099,ai_failed_error,,,,,,,The api_key client option must be set either by passing api_key to the client or by setting the OPENAI_API_KEY environment variable
Ellis Air Conditioning and Heating,4.9,181,536 N Hwy 67,Cedar Hill,Texas,US,https://www.ellisac.com/,(972) 291-9316,Air conditioning contractor,https://www.google.com/maps/search/?api=1&query=Ellis%20Air%20Conditioning%20and%20Heating&query_place_id=ChIJb_EfJeyNToYR9R20ccVix7s,Yes,No,1,aaron@ellisac.com,success,5161,ai_failed_error,,,,,,,The api_key client option must be set either by passing api_key to the client or by setting the OPENAI_API_KEY environment variable
"AryCo HVAC, Electric, & Plumbing",4.9,1298,1721 N Business 287,Decatur,Texas,US,https://www.aryco.com/,(940) 627-5882,HVAC contractor,https://www.google.com/maps/search/?api=1&query=AryCo%20HVAC%2C%20Electric%2C%20%26%20Plumbing&query_place_id=ChIJy3SUYuySTYYRQfo0TOEmVjk,Yes,No,0,,success,3437,ai_failed_error,,,,,,,The api_key client option must be set either by passing api_key to the client or by setting the OPENAI_API_KEY environment variable
1st Class Heat & Air,4.7,453,2712 S Rigsbee Dr #5,Plano,Texas,US,https://1stclassairservice.com/?utm_campaign=gmb&utm_medium=organic&utm_source=google,(972) 895-7278,HVAC contractor,https://www.google.com/maps/search/?api=1&query=1st%20Class%20Heat%20%26%20Air&query_place_id=ChIJr-jpTmgZTIYRXeuFBGR31iE,Yes,No,0,,success,7566,ai_failed_error,,,,,,,The api_key client option must be set either by passing api_key to the client or by setting the OPENAI_API_KEY environment variable
Mid-Cities Air Conditioning and Heating,4.8,649,204 S Main St Ste 240,Keller,Texas,US,https://www.midcitiesac.com/?utm_source=google&utm_medium=organic&utm_campaign=gbp,(817) 284-3332,HVAC contractor,https://www.google.com/maps/search/?api=1&query=Mid-Cities%20Air%20Conditioning%20and%20Heating&query_place_id=ChIJDWTbYEwrTIYRwARgxxUtArc,Yes,No,0,,success,6545,ai_failed_error,,,,,,,The api_key client option must be set either by passing api_key to the client or by setting the OPENAI_API_KEY environment variable
Dallas Heating and Air Conditioning,4.8,205,5050 Quorum Dr Ste 700,Dallas,Texas,US,https://www.dallasheatingac.com/?utm_source=GMB&utm_medium=Website&utm_campaign=Addison,(214) 831-8061,HVAC contractor,https://www.google.com/maps/search/?api=1&query=Dallas%20Heating%20and%20Air%20Conditioning&query_place_id=ChIJd7VVVu8hTIYRzxc4WSeppGM,Yes,No,0,,success,3480,ai_failed_error,,,,,,,The api_key client option must be set either by passing api_key to the client or by setting the OPENAI_API_KEY environment variable
Sutton Heating and Air,4.9,115,508 Crockett St,Amarillo,Texas,US,https://www.suttonheatingandair.com/,(806) 331-2584,HVAC contractor,https://www.google.com/maps/search/?api=1&query=Sutton%20Heating%20and%20Air&query_place_id=ChIJA53JiU9OAYcRnzIaIlFD97o,Yes,No,0,,success,13286,ai_failed_error,,,,,,,The api_key client option must be set either by passing api_key to the client or by setting the OPENAI_API_KEY environment variable
Bill Joplin's Air Conditioning & Heating,4.9,3452,301 E Midway St,McKinney,Texas,US,https://joplins.net/?utm_source=google&utm_medium=organic&utm_campaign=gbp,(469) 846-8339,HVAC contractor,https://www.google.com/maps/search/?api=1&query=Bill%20Joplin's%20Air%20Conditioning%20%26%20Heating&query_place_id=ChIJ41cSPE4STIYRG80tt1EuEOY,Yes,No,0,,success,10688,ai_failed_error,,,,,,,The api_key client option must be set either by passing api_key to the client or by setting the OPENAI_API_KEY environment variable
Collin Air Conditioning,4.9,411,6905 K Ave #201,Plano,Texas,US,https://collinair.com/?utm_source=google&utm_medium=organic&utm_campaign=gbp,(972) 424-4905,Air conditioning repair service,https://www.google.com/maps/search/?api=1&query=Collin%20Air%20Conditioning&query_place_id=ChIJeXiETN0ZTIYRz62ClnBNy3A,Yes,No,0,,success,4016,ai_failed_error,,,,,,,The api_key client option must be set either by passing api_key to the client or by setting the OPENAI_API_KEY environment variable
Hardwick Heating and Air,5,58,5000 S Western St,Amarillo,Texas,US,http://hardwickheatingair.com/,(806) 471-0103,HVAC contractor,https://www.google.com/maps/search/?api=1&query=Hardwick%20Heating%20and%20Air&query_place_id=ChIJXSYrTGg6zkwRQuBc11jazMY,Yes,No,0,,success,1179,ai_failed_error,,,,,,,The api_key client option must be set either by passing api_key to the client or by setting the OPENAI_API_KEY environment variable
"Goode Brothers Heating & Air Conditioning, Inc.",4.9,1803,8812 US-259,Longview,Texas,US,https://www.goodebrothers.com/?utm_source=Google+Business+Listing+&utm_medium=organic+&utm_campaign=website+button,(903) 291-0608,HVAC contractor,https://www.google.com/maps/search/?api=1&query=Goode%20Brothers%20Heating%20%26%20Air%20Conditioning%2C%20Inc.&query_place_id=ChIJkcghcO08NoYRPSDd0gFEupE,Yes,No,1,contact@goodebrothers.com,success,6125,ai_failed_error,,,,,,,The api_key client option must be set either by passing api_key to the client or by setting the OPENAI_API_KEY environment variable
A/C Contractors,4.9,1238,3830 Gilmer Rd,Longview,Texas,US,https://www.accontractors.com/,(903) 759-4250,HVAC contractor,https://www.google.com/maps/search/?api=1&query=A%2FC%20Contractors&query_place_id=ChIJtRdu1rw-NoYR7fQYYlurwWI,Yes,No,0,,success,6450,ai_failed_error,,,,,,,The api_key client option must be set either by passing api_key to the client or by setting the OPENAI_API_KEY environment variable
North Texas HVAC,4.9,315,,,,,http://www.northtxhvac.com/?utm_campaign=gmb,(817) 522-1219,HVAC contractor,https://www.google.com/maps/search/?api=1&query=North%20Texas%20HVAC&query_place_id=ChIJYfydBATbTYYRuo-lJqFe-yY,Yes,No,1,bryan@northtxhvac.com,success,7595,ai_failed_error,,,,,,,The api_key client option must be set either by passing api_key to the client or by setting the OPENAI_API_KEY environment variable
J.R.V Heating & Cooling LLC.,4.9,213,720 E Main St A,Allen,Texas,US,http://www.jrvair.com/,(214) 288-5984,Air conditioning contractor,https://www.google.com/maps/search/?api=1&query=J.R.V%20Heating%20%26%20Cooling%20LLC.&query_place_id=ChIJzaCHGvoQTIYR0wg1HPmyFR4,Yes,No,3,servicenow@jrvair.com; vigilr@jrvair.com; servicesservicenow@jrvair.com,success,1068,ai_failed_error,,,,,,,The api_key client option must be set either by passing api_key to the client or by setting the OPENAI_API_KEY environment variable
Service Experts Fort Worth,4.8,4946,2725 Basswood Blvd Suite #241,Fort Worth,Texas,US,https://www.serviceexperts.com/fort-worth-tx/,(817) 241-5893,HVAC contractor,https://www.google.com/maps/search/?api=1&query=Service%20Experts%20Fort%20Worth&query_place_id=ChIJFYtJpRN5ToYRBZxn9XqNk6w,Yes,No,0,,success,15000,ai_failed_error,,,,,,,The api_key client option must be set either by passing api_key to the client or by setting the OPENAI_API_KEY environment variable
Crow's Heat & Air- McKinney,4.9,379,1132 Westmoreland Dr,McKinney,Texas,US,http://crowsheatandair.com/,(972) 548-1323,HVAC contractor,https://www.google.com/maps/search/?api=1&query=Crow's%20Heat%20%26%20Air-%20McKinney&query_place_id=ChIJzXUBqyYSTIYRc9DJAQVGZOI,Yes,No,0,,success,4373,ai_failed_error,,,,,,,The api_key client option must be set either by passing api_key to the client or by setting the OPENAI_API_KEY environment variable
Chill Out Heat Air & Refrigeration,4.6,41,5206 Tradewind St,Amarillo,Texas,US,http://chilloutheatair.com/,(806) 517-2094,Air conditioning contractor,https://www.google.com/maps/search/?api=1&query=Chill%20Out%20Heat%20Air%20%26%20Refrigeration&query_place_id=ChIJx539QX5FAYcRayne2ieVrxo,Yes,No,1,bochillout@gmail.com,success,1796,ai_failed_error,,,,,,,The api_key client option must be set either by passing api_key to the client or by setting the OPENAI_API_KEY environment variable
Bennett Heating and Air Conditioning,5,19,600 S Broadway St,Plainview,Texas,US,http://bennettheatandair.com/contact-us/,(806) 293-7285,Air conditioning contractor,https://www.google.com/maps/search/?api=1&query=Bennett%20Heating%20and%20Air%20Conditioning&query_place_id=ChIJNXg5zn7CAYcRM9Ppw1zKrj4,Yes,No,0,,success,256,ai_failed_error,,,,,,,The api_key client option must be set either by passing api_key to the client or by setting the OPENAI_API_KEY environment variable
Garland Heating & Air Conditioning,4.7,617,2113 S Garland Ave,Garland,Texas,US,https://www.garlandheatingandair.com/,(972) 278-3500,HVAC contractor,https://www.google.com/maps/search/?api=1&query=Garland%20Heating%20%26%20Air%20Conditioning&query_place_id=ChIJ32KqxFqnToYRupQUcIZaGQI,Yes,No,1,info@garlandheatingandair.com,success,6272,ai_failed_error,,,,,,,The api_key client option must be set either by passing api_key to the client or by setting the OPENAI_API_KEY environment variable
James Lane Air Conditioning & Plumbing - A Fidelity Company,4.8,389,5024 Old Jacksboro Hwy,Wichita Falls,Texas,US,http://www.jameslane.com/,(940) 766-0244,HVAC contractor,https://www.google.com/maps/search/?api=1&query=James%20Lane%20Air%20Conditioning%20%26%20Plumbing%20-%20A%20Fidelity%20Company&query_place_id=ChIJy32m5_kfU4YRIe00YVttY8Y,Yes,No,0,,success,4896,ai_failed_error,,,,,,,The api_key client option must be set either by passing api_key to the client or by setting the OPENAI_API_KEY environment variable
A & T Yard Service Inc,4,9,1305 S Hobart St,Pampa,Texas,US,,,Landscaper,https://www.google.com/maps/search/?api=1&query=A%20%26%20T%20Yard%20Service%20Inc&query_place_id=ChIJ--_mCddJB4cRYxcEShxuGHY,No,No,0,,no_url,,skipped_not_accessible,,,,,,,
Pro Lawn,4.5,2,4310 Wilbarger St,Vernon,Texas,US,,,Landscaper,https://www.google.com/maps/search/?api=1&query=Pro%20Lawn&query_place_id=ChIJG43x8NKsVIYRr78K2UC2hjo,No,No,0,,no_url,,skipped_not_accessible,,,,,,,
"Texas Panda Heating and Air, LLC",5,1,,,,,,(806) 930-0461,HVAC contractor,https://www.google.com/maps/search/?api=1&query=Texas%20Panda%20Heating%20and%20Air%2C%20LLC&query_place_id=ChIJmZ8-8hQ3JS0Rn3VXMTD5z20,No,No,0,,no_url,,skipped_not_accessible,,,,,,,
Halligan Tree and Landscape service,5,27,#4406,Amarillo,Texas,US,,(806) 477-9133,Lawn care service,https://www.google.com/maps/search/?api=1&query=Halligan%20Tree%20and%20Landscape%20service&query_place_id=ChIJ_9LQbYNFAYcRo2pXz3bUHdc,No,No,0,,no_url,,skipped_not_accessible,,,,,,,
Claborn Heating & Air Inc,5,2,1803 Tejas Trail,Dalhart,Texas,US,,(806) 333-5857,HVAC contractor,https://www.google.com/maps/search/?api=1&query=Claborn%20Heating%20%26%20Air%20Inc&query_place_id=ChIJjSPXYqK2BYcRdynDqFMVWcY,No,No,0,,no_url,,skipped_not_accessible,,,,,,,
Golden Standard Landscaping,4.7,12,3860 Business Park Dr,Amarillo,Texas,US,,(806) 662-1963,Landscaper,https://www.google.com/maps/search/?api=1&query=Golden%20Standard%20Landscaping&query_place_id=ChIJ6YES3E9FAYcRrLBUMYbXD7g,No,No,0,,no_url,,skipped_not_accessible,,,,,,,
W J's Heating & Air Conditioning,4.7,11,414 Liberal St,Dalhart,Texas,US,,(806) 249-6216,Air conditioning contractor,https://www.google.com/maps/search/?api=1&query=W%20J's%20Heating%20%26%20Air%20Conditioning&query_place_id=ChIJrb3Ffc-2BYcRNn9ink3cM3w,No,No,0,,no_url,,skipped_not_accessible,,,,,,,
360 Heat & Air,3.4,9,1705 E 1st St,Dalhart,Texas,US,,(806) 244-1730,Air conditioning repair service,https://www.google.com/maps/search/?api=1&query=360%20Heat%20%26%20Air&query_place_id=ChIJU_F2hem2BYcRb8r13WhFjNw,No,No,0,,no_url,,skipped_not_accessible,,,,,,,
360 Heat & Air,,0,107 N Jefferson St,Dalhart,Texas,US,,(806) 249-1730,HVAC contractor,https://www.google.com/maps/search/?api=1&query=360%20Heat%20%26%20Air&query_place_id=ChIJxQi8azC3BYcR-SBMv0x4Yic,No,No,0,,no_url,,skipped_not_accessible,,,,,,,
KDM Performance,4.7,35,215 Liberal St,Dalhart,Texas,US,,(806) 244-0150,Mechanic,https://www.google.com/maps/search/?api=1&query=KDM%20Performance&query_place_id=ChIJlSCQozWxBYcRLaKgrq_dFF8,No,No,0,,no_url,,skipped_not_accessible,,,,,,,
Dalhart Truck and Trailer service,5,44,705 N Jefferson St,Dalhart,Texas,US,,(806) 333-1555,Truck repair shop,https://www.google.com/maps/search/?api=1&query=Dalhart%20Truck%20and%20Trailer%20service&query_place_id=ChIJr6uq-LW3BYcRI5beggaJmB4,No,No,0,,no_url,,skipped_not_accessible,,,,,,,
Wright's Classics,4.8,40,1212 US-87,Dalhart,Texas,US,,(806) 244-2886,Air conditioning repair service,https://www.google.com/maps/search/?api=1&query=Wright's%20Classics&query_place_id=ChIJMa6y2Mu2BYcRkfiJHTJLlLU,No,No,0,,no_url,,skipped_not_accessible,,,,,,,
JRP Trees and Landscaping,5,1,618 N Davis St,Pampa,Texas,US,http://www.facebook.com/JRPTreeandLandscaping/,(806) 376-3367,Lawn care service,https://www.google.com/maps/search/?api=1&query=JRP%20Trees%20and%20Landscaping&query_place_id=ChIJZbE4fSk2B4cR3oITK6lIUNQ,No,No,0,,error_400,,skipped_not_accessible,,,,,,,
The Grounds Guys of Amarillo,4.8,40,8501 SW 81st Ave Building C,Amarillo,Texas,US,https://www.groundsguys.com/amarillo/?cid=LSTL_GUY000204&utm_source=gmb&utm_campaign=local&utm_medium=organic,(806) 350-5296,Landscaper,https://www.google.com/maps/search/?api=1&query=The%20Grounds%20Guys%20of%20Amarillo&query_place_id=ChIJRcgEveoCpEMRpPwlzDc1PIU,No,No,0,,error_403,,skipped_not_accessible,,,,,,,
Texas Tree and Lawn,4.8,13,3414 S Hill St,Amarillo,Texas,US,,(806) 420-6489,Landscaper,https://www.google.com/maps/search/?api=1&query=Texas%20Tree%20and%20Lawn&query_place_id=ChIJ0_ZT0rNIAYcR8WNy79X-hec,No,No,0,,no_url,,skipped_not_accessible,,,,,,,
Tope's Tree Trimming & Landscaping,4.9,105,4304 Gables St,Amarillo,Texas,US,,(806) 683-4654,Tree service,https://www.google.com/maps/search/?api=1&query=Tope's%20Tree%20Trimming%20%26%20Landscaping&query_place_id=ChIJ_____w9QAYcRQoTEkuYTfRs,No,No,0,,no_url,,skipped_not_accessible,,,,,,,
Northrup Landscape Essentials,4.2,5,3513 S Rusk St #4831,Amarillo,Texas,US,,(806) 353-9504,Landscape designer,https://www.google.com/maps/search/?api=1&query=Northrup%20Landscape%20Essentials&query_place_id=ChIJITn9TJRPAYcR2WK-c2AePPc,No,No,0,,no_url,,skipped_not_accessible,,,,,,,
Wild Coyote Country Store,4.8,16,1200 Rock Island Ave,Channing,Texas,US,https://wildcoyotecountrystore.com/,(806) 884-0115,Auto repair shop,https://www.google.com/maps/search/?api=1&query=Wild%20Coyote%20Country%20Store&query_place_id=ChIJH7WJx1g9BIcR8nBFBxSA0-Q,No,No,0,,error_403,,skipped_not_accessible,,,,,,,
Story Service & Repair LLC,5,3,201 E Meek St,Texline,Texas,US,,(806) 421-6197,Mechanic,https://www.google.com/maps/search/?api=1&query=Story%20Service%20%26%20Repair%20LLC&query_place_id=ChIJI-8EAaNvBYcRNaFyDyDsnoo,No,No,0,,no_url,,skipped_not_accessible,,,,,,,
Rethink Diagnostics LLC,5,2,345 Evans Ln,Texline,Texas,US,,,Auto repair shop,https://www.google.com/maps/search/?api=1&query=Rethink%20Diagnostics%20LLC&query_place_id=ChIJT1aTZilvBYcRkh9h8O9lBe4,No,No,0,,no_url,,skipped_not_accessible,,,,,,,
Mendoza services llc,5,10,625 S West St,Pampa,Texas,US,,(806) 662-6698,Lawn sprinkler system contractor,https://www.google.com/maps/search/?api=1&query=Mendoza%20services%20llc&query_place_id=ChIJL3-EmlFHEyQRTBb_2dkB7BE,No,No,0,,no_url,,skipped_not_accessible,,,,,,,
Lawnscapers,,0,309 Benedict St,White Deer,Texas,US,,(806) 282-5538,Lawn care service,https://www.google.com/maps/search/?api=1&query=Lawnscapers&query_place_id=ChIJC8-IpLYtB4cRhHx7OYHzgT0,No,No,0,,no_url,,skipped_not_accessible,,,,,,,
Neoclassic Landscaping Amarillo,5,59,4301 SW 45th Ave,Amarillo,Texas,US,https://www.landscapingamarillotx.com/,(806) 878-9486,Landscaper,https://www.google.com/maps/search/?api=1&query=Neoclassic%20Landscaping%20Amarillo&query_place_id=ChIJZaFWGsQHK4cRiVusMPz2gFw,No,No,0,,error_403,,skipped_not_accessible,,,,,,,
Sears Appliance Repair,5,2,700 Tennessee Ave,Dalhart,Texas,US,https://www.searshomeservices.com/locations/tx/dalhart/sears-appliance-repair/700-tennessee-blvd,(806) 417-0515,Appliance repair service,https://www.google.com/maps/search/?api=1&query=Sears%20Appliance%20Repair&query_place_id=ChIJkSSoPGS3BYcRJiUYR4-OT1k,No,No,0,,error_403,,skipped_not_accessible,,,,,,,
Affordable Landscaping & Lawn Service,4.5,13,9524 Seymour Hwy,Wichita Falls,Texas,US,https://www.facebook.com/affordablelandscaping24/,(940) 631-8968,Tree service,https://www.google.com/maps/search/?api=1&query=Affordable%20Landscaping%20%26%20Lawn%20Service&query_place_id=ChIJGaQZbS0gU4YRwyj6UXNoUp0,No,No,0,,error_400,,skipped_not_accessible,,,,,,,
Advanced Auto Repair,4.9,53,401 E 2nd St,Dalhart,Texas,US,,(806) 717-9102,Auto repair shop,https://www.google.com/maps/search/?api=1&query=Advanced%20Auto%20Repair&query_place_id=ChIJS7HbYSa3BYcR0x0AHzWf7Z8,No,No,0,,no_url,,skipped_not_accessible,,,,,,,
Bob's Towing,4.9,152,,,,,,(806) 333-6639,Towing service,https://www.google.com/maps/search/?api=1&query=Bob's%20Towing&query_place_id=ChIJFzvSjpi2BYcR1X9L45CUdsw,No,No,0,,no_url,,skipped_not_accessible,,,,,,,
Ortega's Lawn Care Service,4.6,11,8304 Foxtail St,Amarillo,Texas,US,,(806) 341-0004,Lawn care service,https://www.google.com/maps/search/?api=1&query=Ortega's%20Lawn%20Care%20Service&query_place_id=ChIJpwy3iShFAYcRFRD6C6-qwUk,No,No,0,,no_url,,skipped_not_accessible,,,,,,,
Rush Truck Centers - Dalhart,4,67,1117 US-87,Dalhart,Texas,US,https://www.rushtruckcenters.com/locations/10270000-dalhart?utm_source=google&utm_medium=organic&utm_campaign=gmb-dalhart-main,(806) 884-2100,Truck repair shop,https://www.google.com/maps/search/?api=1&query=Rush%20Truck%20Centers%20-%20Dalhart&query_place_id=ChIJk5hGDse2BYcR-D0KdvjTR-Y,No,No,0,,error_403,,skipped_not_accessible,,,,,,,
Your Last Call Irrigation and Landscape,5,49,,,,,https://yourlastcallirrigationandlandscape.com/,(806) 621-8410,Landscaper,https://www.google.com/maps/search/?api=1&query=Your%20Last%20Call%20Irrigation%20and%20Landscape&query_place_id=ChIJy8hYpzJbAYcRWmS_HtTj7jA,No,No,0,,error_403,,skipped_not_accessible,,,,,,,
"Legends Quality and Affordable Lawn Care Services, LLC",3.8,42,3418 Lewis Ln,Amarillo,Texas,US,,(806) 290-4062,Lawn care service,https://www.google.com/maps/search/?api=1&query=Legends%20Quality%20and%20Affordable%20Lawn%20Care%20Services%2C%20LLC&query_place_id=ChIJkQWQq79PAYcROKb7KEoTigU,No,No,0,,no_url,,skipped_not_accessible,,,,,,,
TruGreen Lawn Care,4.5,255,12585 Coulter St S,Amarillo,Texas,US,https://www.trugreen.com/local-lawn-care/texas/amarillo,(833) 418-5004,Lawn care service,https://www.google.com/maps/search/?api=1&query=TruGreen%20Lawn%20Care&query_place_id=ChIJE8MPIOtbAYcRqWiABXoK6kE,No,No,0,,error_403,,skipped_not_accessible,,,,,,,
Amarillo Grass Masters,4.2,38,8501 SW 81st Ave suite c,Amarillo,Texas,US,,(806) 231-5143,Lawn care service,https://www.google.com/maps/search/?api=1&query=Amarillo%20Grass%20Masters&query_place_id=ChIJ04D__StbAYcREw954GCbDk4,No,No,0,,no_url,,skipped_not_accessible,,,,,,,
Snapp's Home & Lawn,4.2,11,,Amarillo,Texas,US,,(806) 584-3542,Lawn care service,https://www.google.com/maps/search/?api=1&query=Snapp's%20Home%20%26%20Lawn&query_place_id=ChIJVVVVVdFRAYcRTbaqi1O9QyI,No,No,0,,no_url,,skipped_not_accessible,,,,,,,
Blake's Lawn Care,4.2,5,5110 Temple Dr,Amarillo,Texas,US,https://blakeclawnservice.firebaseapp.com/,(806) 236-1952,Lawn care service,https://www.google.com/maps/search/?api=1&query=Blake's%20Lawn%20Care&query_place_id=ChIJhajPn_ZFAYcRACAeVn0XJ-I,No,Yes,0,,dynamic,,skipped_not_accessible,,,,,,,
Greener Side Lawn Care,5,9,2615 W 17th,Plainview,Texas,US,https://www.facebook.com/brandonrowell91/,(541) 720-6629,Lawn care service,https://www.google.com/maps/search/?api=1&query=Greener%20Side%20Lawn%20Care&query_place_id=ChIJLX4Mu0TpAYcR7obzwIo42dU,No,No,0,,error_400,,skipped_not_accessible,,,,,,,
H & S Air Conditioning & Heating Systems,4.5,25,2008 N Hobart St,Pampa,Texas,US,,(806) 665-2637,Air conditioning contractor,https://www.google.com/maps/search/?api=1&query=H%20%26%20S%20Air%20Conditioning%20%26%20Heating%20Systems&query_place_id=ChIJOVdP9dU3B4cR78rOyQQfCZY,No,No,0,,no_url,,skipped_not_accessible,,,,,,,
Luke Lawn Care,4.7,15,4335 Boren Ave,Wichita Falls,Texas,US,https://m.facebook.com/profile.php?id=1028101820609680&ref=content_filter,(940) 730-3479,Lawn care service,https://www.google.com/maps/search/?api=1&query=Luke%20Lawn%20Care&query_place_id=ChIJi3BZ3awhU4YReVBQr7Tnphk,No,No,0,,error_400,,skipped_not_accessible,,,,,,,
High plains lawn care,2,2,4715 Eagle Ln,Amarillo,Texas,US,,(806) 410-7613,Lawn care service,https://www.google.com/maps/search/?api=1&query=High%20plains%20lawn%20care&query_place_id=ChIJ5VHGADpPAYcRwM7kW5qKeq8,No,No,0,,no_url,,skipped_not_accessible,,,,,,,
Grounds Works Lawn Care and Landscaping,,0,125 Jupiter St,Sheppard AFB,Texas,US,,(940) 882-0148,Lawn care service,https://www.google.com/maps/search/?api=1&query=Grounds%20Works%20Lawn%20Care%20and%20Landscaping&query_place_id=ChIJWXaLpxsnU4YRsCU3pAfk0Dc,No,No,0,,no_url,,skipped_not_accessible,,,,,,,
Gates Lawn & Landscaping LLC,,0,2313 Grant St,Wichita Falls,Texas,US,,(940) 224-5238,Lawn care service,https://www.google.com/maps/search/?api=1&query=Gates%20Lawn%20%26%20Landscaping%20LLC&query_place_id=ChIJxRn5J9shU4YRm2E_zOaIAWc,No,No,0,,no_url,,skipped_not_accessible,,,,,,,
"TTL Lawncare - Lawn Service, Full-Service Complete Lawn Care, Landscaping and Lawn Maintenance",,0,,,,,,(940) 253-6152,Lawn care service,https://www.google.com/maps/search/?api=1&query=TTL%20Lawncare%20-%20Lawn%20Service%2C%20Full-Service%20Complete%20Lawn%20Care%2C%20Landscaping%20and%20Lawn%20Maintenance&query_place_id=ChIJ4SrPSXPErkIRInnaFjcrJrM,No,No,0,,no_url,,skipped_not_accessible,,,,,,,
Gamblin Lawn Services,5,9,402 N McMasters St,Amarillo,Texas,US,https://www.facebook.com/profile.php?id=100078119687685&mibextid=ZbWKwL,(806) 443-8519,Lawn care service,https://www.google.com/maps/search/?api=1&query=Gamblin%20Lawn%20Services&query_place_id=ChIJuZysb9RPAYcRJTQfRCt5xaI,No,No,0,,error_400,,skipped_not_accessible,,,,,,,
Perfect Cut Lawn Care,,0,,,,,https://www.perfectcutlawncaretx.com/,(806) 683-3833,Lawn care service,https://www.google.com/maps/search/?api=1&query=Perfect%20Cut%20Lawn%20Care&query_place_id=ChIJG5qR5Y8XmoYRO_NOYhtUf3U,No,No,0,,connection_error,,skipped_not_accessible,,,,,,,
"Alden Air Conditioning & Heating, Inc.",4.5,88,2232 Michigan Ave,Arlington,Texas,US,https://www.aldenair.com/,(817) 275-8861,HVAC contractor,https://www.google.com/maps/search/?api=1&query=Alden%20Air%20Conditioning%20%26%20Heating%2C%20Inc.&query_place_id=ChIJOaLqh8d8ToYR-ZEXAqmQdjA,No,Yes,0,,dynamic,,skipped_not_accessible,,,,,,,
C&G's heating and cooling,5,21,2918 Mesquite St,Vernon,Texas,US,https://candgheatingandcooling.my.canva.site/,(940) 261-1329,Heating equipment supplier,https://www.google.com/maps/search/?api=1&query=C%26G's%20heating%20and%20cooling&query_place_id=ChIJ4979MfQvq4cRa2WbzzZ6ITY,No,Yes,0,,dynamic,,skipped_not_accessible,,,,,,,
"Avalos Heating & Air, LLC",5,186,3225 N Loop 335 W,Amarillo,Texas,US,https://www.avalosac.com/,(806) 367-8010,HVAC contractor,https://www.google.com/maps/search/?api=1&query=Avalos%20Heating%20%26%20Air%2C%20LLC&query_place_id=ChIJ932kLmhPAYcRyPXWQD1gzqU,No,No,0,,error_403,,skipped_not_accessible,,,,,,,
Adam's Air,4.8,136,1914 N Forest St,Amarillo,Texas,US,https://adamsairamarillo.com/,(806) 316-1103,HVAC contractor,https://www.google.com/maps/search/?api=1&query=Adam's%20Air&query_place_id=ChIJKxSVu3xFAYcRmRZy8KjlfFY,No,No,0,,error_403,,skipped_not_accessible,,,,,,,
Comfort Masters Heating & Air Conditioning,4.9,1083,6657 Corporation Pkwy #250,Fort Worth,Texas,US,https://comfortmastersdfw.com/?utm_source=google&utm_medium=gmb&utm_campaign=GMB%20Fort%20Worth,(817) 500-5354,HVAC contractor,https://www.google.com/maps/search/?api=1&query=Comfort%20Masters%20Heating%20%26%20Air%20Conditioning&query_place_id=ChIJnbdH_D0MToYR0QQ6q_qVbFI,No,No,0,,error_403,,skipped_not_accessible,,,,,,,
Secret Gardener Landscape,4.4,8,1850 W McCormick Rd,Amarillo,Texas,US,https://secretgardenerlandscape.com/,(806) 373-5900,Landscaper,https://www.google.com/maps/search/?api=1&query=Secret%20Gardener%20Landscape&query_place_id=ChIJVWTgAJ1EAYcRjZN0cw3by28,No,No,0,,timeout,,skipped_not_accessible,,,,,,,
On Time Experts (fka Dring Air Conditioning & Heating),4.9,1145,2440 Lacy Ln Suite 110,Carrollton,Texas,US,https://www.theontimeexperts.com/dring/?utm_source=google&utm_medium=organic&utm_campaign=gbp_dring,(972) 241-1312,HVAC contractor,https://www.google.com/maps/search/?api=1&query=On%20Time%20Experts%20(fka%20Dring%20Air%20Conditioning%20%26%20Heating)&query_place_id=ChIJnfnsXismTIYRQCD_aL5ZjYo,No,No,0,,error_403,,skipped_not_accessible,,,,,,,
Wichita Falls Heating & Cooling Conditioning,5,4,1026 E Fort Worth St,Wichita Falls,Texas,US,,(940) 281-0710,Air conditioning contractor,https://www.google.com/maps/search/?api=1&query=Wichita%20Falls%20Heating%20%26%20Cooling%20Conditioning&query_place_id=ChIJNYF9peLPUoYRz9tCgwFZWdY,No,No,0,,no_url,,skipped_not_accessible,,,,,,,
Amarillo Heating & Cooling Services,4.8,44,2904 Jewell Ave,Amarillo,Texas,US,,(806) 436-8082,Air conditioning contractor,https://www.google.com/maps/search/?api=1&query=Amarillo%20Heating%20%26%20Cooling%20Services&query_place_id=ChIJCVe7J7FaAYcRKoLvIXo7Z2w,No,No,0,,no_url,,skipped_not_accessible,,,,,,,
Shawn's Heating and Air,4.2,21,901 Aztec Dr #2905,Burkburnett,Texas,US,,(940) 636-1776,Air conditioning contractor,https://www.google.com/maps/search/?api=1&query=Shawn's%20Heating%20and%20Air&query_place_id=ChIJN0E7JdUuU4YRIOtjLxyK2H8,No,No,0,,no_url,,skipped_not_accessible,,,,,,,
Walker Heating & Cooling,4.8,328,15463 State Hwy 64,Tyler,Texas,US,https://walkercooling.com/,(903) 595-1200,Air conditioning repair service,https://www.google.com/maps/search/?api=1&query=Walker%20Heating%20%26%20Cooling&query_place_id=ChIJ05rP9U-2SYYR1zTAzZVp4ZY,No,No,0,,error_403,,skipped_not_accessible,,,,,,,
Unlimited Air Conditioning and Heating,4.8,243,822 Woodlawn Ave,Dallas,Texas,US,https://www.unlimitedairandheating.com/,(945) 998-7066,HVAC contractor,https://www.google.com/maps/search/?api=1&query=Unlimited%20Air%20Conditioning%20and%20Heating&query_place_id=ChIJ88N3WYGZToYRrHFcYegd620,No,No,0,,connection_error,,skipped_not_accessible,,,,,,,
Oak Point Heating And Air LLC,4.7,161,3447 Farm to Market Rd 720 #11,Little Elm,Texas,US,https://www.oakpointhvac.com/,(469) 698-4637,HVAC contractor,https://www.google.com/maps/search/?api=1&query=Oak%20Point%20Heating%20And%20Air%20LLC&query_place_id=ChIJ___PCuXKTYYRjuwZB8kuc4k,No,No,0,,timeout,,skipped_not_accessible,,,,,,,
