"﻿""title""",totalScore,reviewsCount,street,city,state,countryCode,website,phone,categoryName,url,accessible,is_dynamic,emails_found,emails,check_status,scraped_content_length,ai_summary_status,business_type,services,owner_name,personalization_hooks,target_market,pain_points,company_size_estimate,key_differentiators,icebreaker,icebreaker_status,icebreaker_tokens
Schroeder Legacy Lawn Care,5,1,,,,,https://schroederlegacylawn.onuniverse.com/,(940) 337-5326,Lawn care service,https://www.google.com/maps/search/?api=1&query=Schroeder%20Legacy%20Lawn%20Care&query_place_id=ChIJifZHWuSLF6ARaNCnqquw5_U,Yes,No,1,schroederlegacylawn@gmail.com,success,524,success,providing quality lawn care services at affordable prices,Lawn Mowing; Weed Removal; Tree Trimming; Brush Cleanups; Mulching,,Show your lawn some love!; Get a free estimate today!,residents of Wichita Falls,high lawn care costs; lack of quality service options,small,affordable pricing; focus on quality service,Impressive track record at Schroeder Legacy Lawn Care - 1 review maintaining 5 stars in Texas. I'm in the Texas market too. Wanted to run something by you.,success,1270
New Life Landscape,4.5,8,305 S Georgia St,Amarillo,Texas,US,http://sprinklerrepairamarillo.com/,(806) 373-5575,Landscaper,https://www.google.com/maps/search/?api=1&query=New%20Life%20Landscape&query_place_id=ChIJGbbQKwhPAYcRAXGu40eS_iA,Yes,No,1,nllc94@gmail.com,success,2215,success,Landscape contracting and sprinkler system services,sprinkler system installation; sprinkler system repair; landscape design,,Highlight their extensive experience in irrigation; Emphasize hassle-free service for lawn care,"residential and commercial clients in Amarillo, Texas",irrigation system failures; high maintenance costs,small,30+ years of experience; high-quality parts to minimize maintenance costs,Impressive track record at New Life Landscape - 8 reviews maintaining 4.5 stars in Amarillo. I'm in the Texas market too. Wanted to run something by you.,success,1267
Verde Landscape Companies,4.4,30,6650 Canyon Dr Unit 4,Amarillo,Texas,US,http://www.verdelandscape.com/,(844) 998-3733,Landscape designer,https://www.google.com/maps/search/?api=1&query=Verde%20Landscape%20Companies&query_place_id=ChIJDcS4fi5IB4cRak0xqZN08zM,Yes,No,2,998-3733office@verdelandscape.comback; office@verdelandscape.com,success,2759,success,Landscaping services rooted in the Texas Panhandle,landscape design; landscape maintenance; hardscape integration,,emphasize commitment to quality and transparency; highlight expertise in creating functional outdoor spaces,corporate and private clients,need for reliable landscaping services; desire for well-maintained outdoor spaces,medium,commitment to integrity and reliability; focus on enhancing quality of life,Impressive track record at Verde Landscape Companies - 30 reviews maintaining 4.4 stars in Amarillo. I'm in the Texas market too. Wanted to run something by you.,success,1266
Superior Quality Lawn And Landscape,4.8,60,,,,,https://superiorqualitylandscaping.com/,(806) 626-2750,Landscaper,https://www.google.com/maps/search/?api=1&query=Superior%20Quality%20Lawn%20And%20Landscape&query_place_id=ChIJhdyCOEZOAYcRmXXzg9wZK_s,Yes,No,1,baldock6242@gmail.com,success,3785,success,full range of superior landscaping services,landscaping; hardscaping; lawn maintenance; garden design; irrigation system repair,,emphasize their experience in transforming gardens; highlight their commitment to quality and customer satisfaction,residents of Amarillo,maintaining a beautiful outdoor space; finding reliable landscaping services,medium,dedicated to building long term relationships; reputation for customer satisfaction,Impressive track record at Superior Quality Lawn And Landscape - 60 reviews maintaining 4.8 stars in Texas. I'm in the Texas market too. Wanted to run something by you.,success,1273
Mean Green Lawn and Tree service,4.5,33,,,,,http://www.meangreenls.com/,(940) 444-6525,Lawn care service,https://www.google.com/maps/search/?api=1&query=Mean%20Green%20Lawn%20and%20Tree%20service&query_place_id=ChIJ_1Mko5chU4YRn-l8sGojjl0,Yes,No,1,jjohnson@meangreenls.com,success,1782,success,Professional lawn care services in Wichita Falls area,Lawn Maintenance; Mulching and Bed Maintenance; Tree and Shrub Care; Seasonal Cleanup; Landscape Design,,Mention the importance of maintaining a healthy lawn; Highlight seasonal cleanup services for fall preparation,residential and commercial property owners in the Greater Wichita Falls Area,Lack of time for yard maintenance; Difficulty in maintaining healthy plants and lawns,small,Free estimates; Focus on quality and customer satisfaction,Impressive track record at Mean Green Lawn and Tree service - 33 reviews maintaining 4.5 stars in Wichita Falls. I'm in the Texas market too. Wanted to run something by you.,success,1287
SJH Landscape,5,36,,,,,http://sjhlandscape.com/,(806) 440-7583,Landscaper,https://www.google.com/maps/search/?api=1&query=SJH%20Landscape&query_place_id=ChIJIbOjvdxLZ00RXoONOESl9jE,Yes,No,1,landscape806-440-7583contact@sjhlandscape.com,success,1880,success,Landscape contracting company providing sprinkler systems and lawn care services,Sprinkler System Repairs; Landscaping; Lawn Care; Sprinkler System Installation; Winter Services,,Over 35 Five Star Google Reviews; Local presence in the Texas Panhandle,"residential, ranch, commercial, and industrial clients in the Texas Panhandle",Inefficiencies in sprinkler systems causing water waste; Need for reliable lawn care services,small,Licensed Irrigator; Specialized Irrigation team,Impressive track record at SJH Landscape - 36 reviews maintaining 5 stars in Texas. I'm in the Texas market too. Wanted to run something by you.,success,1269
TX Elite Repair & Service LLC,5,26,3345 Spur 24,Dalhart,Texas,US,http://txelite.net/,(806) 418-5505,Truck repair shop,https://www.google.com/maps/search/?api=1&query=TX%20Elite%20Repair%20%26%20Service%20LLC&query_place_id=ChIJ0Uybh563BYcRWOMh2vPCbpo,Yes,No,3,joedon.henry@outlook.comhoursopen; henryjoedon.henry@outlook.com; joedon.henry@outlook.com,success,2266,success,Expert truck repair services with 24/7 mobile mechanics,Mobile truck repair; Fleet maintenance; Quality parts service,Joe Don Henry,Highlighting 24/7 service for urgent repairs; Emphasizing fleet maintenance to keep businesses running smoothly,Businesses with truck fleets,Downtime due to truck repairs; Need for reliable mobile repair services,small,24/7 availability; Focus on minimizing downtime,"Hey Joe, love how TX Elite Repair & Service LLC offers 24/7 mobile mechanics in Dalhart - I'm active in Texas too. Had something interesting to share.",success,1275
Anchored Lawncare LLC,5,5,1037 City View Dr F,Wichita Falls,Texas,US,https://www.anchoredlawncarellc.com/,(469) 579-8841,Lawn care service,https://www.google.com/maps/search/?api=1&query=Anchored%20Lawncare%20LLC&query_place_id=ChIJ9fxny54hU4YRyQsvjOUfFwY,Yes,No,1,cole@anchoredlawncarellc.com,success,922,success,Veteran-owned lawn care services,lawn mowing; edging; tree trimming; weedeating; trash haul off,,Transform your outdoor space into a pristine oasis; Hassle-free lawn care services,homeowners and businesses needing lawn care,time-consuming lawn maintenance; lack of expertise in lawn care,small,veteran-owned; commitment to excellence,Impressive track record at Anchored Lawncare LLC - 5 reviews maintaining 5 stars in Wichita Falls. I'm in the Texas market too. Wanted to run something by you.,success,1273
"Gabe's Heating and Air, LLC",5,49,1405 David Ln,Dalhart,Texas,US,https://www.gabesair.com/,(806) 333-9213,Air conditioning contractor,https://www.google.com/maps/search/?api=1&query=Gabe's%20Heating%20and%20Air%2C%20LLC&query_place_id=ChIJTRBTge491wIRMDf-YrMY--0,Yes,No,1,gabesheatingandair806@gmail.com,success,3567,success,"HVAC services provider in Dalhart, Texas",Heating Repair & Installation; Air Conditioning Services; HVAC Maintenance; Indoor Air Quality Solutions,Gabe,Quick response times for emergency HVAC needs; Family-like customer service approach,residential and commercial customers in Dalhart,Inefficient HVAC systems; High energy costs during extreme weather,small,Commitment to customer satisfaction; Highly trained technicians,"Hey Gabe, impressive seeing Gabe's Heating and Air, LLC maintain 5 stars across 49 reviews in Dalhart - I'm in the Texas market too. Quick thing to run by you.",success,1275
Terra Landscape,5,3,2305 Brook Hollow Dr,Wichita Falls,Texas,US,https://www.terralandscapetx.com/,(940) 500-4105,Landscape architect,https://www.google.com/maps/search/?api=1&query=Terra%20Landscape&query_place_id=ChIJfeRLQsjSBoMR8pEVDMS6OOo,Yes,No,1,info@terralandscapetx.com,success,902,success,Landscape design and outdoor space solutions,Landscape design; 3D design services; Site analysis,,Emphasis on community pride and beautification; Unique blend of creativity and technical design,Homeowners and businesses in the local community,Need for functional outdoor spaces; Desire for aesthetically pleasing landscape designs,small,Combination of traditional hand-drawing and modern 3D design; Focus on client vision and site characteristics,Impressive track record at Terra Landscape - 3 reviews maintaining 5 stars in Wichita Falls. I'm in the Texas market too. Wanted to run something by you.,success,1260
C&K Lawn Mowing and landscaping,5,1,17392 Weatherby Ln,Canyon,Texas,US,https://cklawnl.wixsite.com/cklawnmowingandlands,(806) 647-7046,Lawn care service,https://www.google.com/maps/search/?api=1&query=C%26K%20Lawn%20Mowing%20and%20landscaping&query_place_id=ChIJExLNbNNdAYcR43_UrcIiPh8,Yes,No,2,cklawnl@gmail.com; usacklawnl@gmail.com,success,2557,success,Lawn mowing and landscaping services,Lawn Mowing; Weed Control; Edging; Blowing; Seeding; Fertilizing; Lawn Disease Care; Insect Control,,Highlight the importance of lawn care in enhancing property value; Emphasize their commitment to customer satisfaction,"Homeowners and property managers in Canyon, TX",Maintaining a healthy lawn; Finding reliable landscaping services,small,Personalized service; Experienced and friendly professionals,Impressive track record at C&K Lawn Mowing and landscaping - 1 review maintaining 5 stars in Canyon. I'm in the Texas market too. Wanted to run something by you.,success,1295
Voltage Tree & Lawn,5,165,2315 Buchanan St,Wichita Falls,Texas,US,https://voltagetreelawn.com/,(940) 642-1786,Lawn care service,https://www.google.com/maps/search/?api=1&query=Voltage%20Tree%20%26%20Lawn&query_place_id=ChIJ_eypS3ohU4YRH-6OdFiBukE,Yes,No,1,voltagetreelawn@gmail.com,success,3563,success,Veteran owned tree and lawn care services,Tree Removals; Tree Trimming; Stump Grinding; Lawn Mowing Maintenance; Weed Control; Emergency Tree Removal,Kat Arredondo and Kevin Daniels,Highlight their veteran-owned status; Mention their quick response time,commercial and residential properties in Wichita Falls and surrounding areas,Need for reliable tree and lawn care; Urgent tree removal due to storms,small,Customer satisfaction guarantee; 5 Star Google Review,"Hey Kat, impressive seeing Voltage Tree & Lawn maintain 5 stars across 165 reviews in Wichita Falls - I'm in the Texas market too. Quick thing to run by you.",success,1271
Elite Lawn Care Amarillo,4.8,62,5344 Capulin Ln,Amarillo,Texas,US,http://www.elitelcamarillo.com/,(806) 676-1945,Landscaper,https://www.google.com/maps/search/?api=1&query=Elite%20Lawn%20Care%20Amarillo&query_place_id=ChIJ46uxhHC15G4RI3k3wIu6KIE,Yes,No,2,william@elitelcamarillo.com; txwilliam@elitelcamarillo.com,success,2534,success,"lawn care service provider in Amarillo, TX",Mowing; Lawn Fertilization; Weed Control; Lawn Aeration; Trimming Hedges,,Transform your lawn into a masterpiece; Experience the difference of Elite Lawn Care,"homeowners in Amarillo, TX",lack of time for lawn maintenance; desire for a beautiful outdoor space,small,eco-friendly practices; customer-centric approach,Impressive track record at Elite Lawn Care Amarillo - 62 reviews maintaining 4.8 stars in Amarillo. I'm in the Texas market too. Wanted to run something by you.,success,1283
Greenwood Landscaping,4.8,35,3140 9th St,Wichita Falls,Texas,US,https://www.greenwoodlandscaping.net/,(940) 636-9569,Landscaper,https://www.google.com/maps/search/?api=1&query=Greenwood%20Landscaping&query_place_id=ChIJLX5DWgAhU4YRVBc6O4G1HbM,Yes,No,1,greenwoodinc@mail.com,success,9824,success,Landscaping contractor providing residential and commercial services,Residential Lawn Maintenance; Commercial Lawn Maintenance; Landscaping Design and Installation; Hardscaping; Tree and Stump Removal; Concrete Installation; Pond and Water Features; Patio and Walkway Installations; Fence Installations; Outdoor Kitchens; Junk Removal,,Highlight commitment to quality and customer service; Mention discounts for military personnel and seniors,Residential and commercial clients in Wichita Falls and surrounding areas,Need for reliable landscaping services; Desire for aesthetically pleasing outdoor spaces,medium,Veteran-owned business; Over 20 years of experience,Impressive track record at Greenwood Landscaping - 35 reviews maintaining 4.8 stars in Wichita Falls. I'm in the Texas market too. Wanted to run something by you.,success,1302
Lucas VIP Lawn Care LLC,5,5,6939 Quail Ridge Rd,Wichita Falls,Texas,US,https://lucasviplawncare.com/,(940) 704-7115,Lawn care service,https://www.google.com/maps/search/?api=1&query=Lucas%20VIP%20Lawn%20Care%20LLC&query_place_id=ChIJi28bdJ98tgQRcfTyGOFaPWo,Yes,No,1,lucasviplawns@gmail.com,success,3639,success,"Professional landscaping and lawn care services in Wichita Falls, TX.",Lawn Maintenance; Landscaping; Hardscaping; Spring & Fall Cleanup; Christmas Lights; Fencing; Junk Removal,Jordan Lucas,Highlight their commitment to integrity and service; Mention their satisfaction guarantee,Homeowners and businesses in Wichita Falls and surrounding areas,Lack of reliable lawn care services; Need for personalized landscaping solutions,small,Veteran-owned and operated; Focus on building lasting relationships with clients,"Hey Jordan, impressive seeing Lucas VIP Lawn Care LLC maintain 5 stars across 5 reviews in Wichita Falls - I'm in the Texas market too. Quick thing to run by you.",success,1277
All-Pro Mowing and Landscaping,5,23,7511 W McCormick Rd,Amarillo,Texas,US,http://allpromow.com/,(806) 910-6566,Landscaper,https://www.google.com/maps/search/?api=1&query=All-Pro%20Mowing%20and%20Landscaping&query_place_id=ChIJy1EsgqpDAYcR2Ihli02U9C8,Yes,No,1,clayallpro1@gmail.com,success,1664,success,Expert commercial lawn care and landscaping services,Weekly lawn care; Bi-weekly lawn care; On-call services; Fall clean-up; Winter lawn protection; Christmas light installation,,Leaves falling? We can help with clean-ups!; Enjoy the fall season while we handle your yard work.,commercial property owners,Lack of time for yard maintenance; Need for seasonal lawn care services,small,Customized fall services; Focus on commercial properties,Impressive track record at All-Pro Mowing and Landscaping - 23 reviews maintaining 5 stars in Amarillo. I'm in the Texas market too. Wanted to run something by you.,success,1291
Gene James Air Conditioning & Heating,4.6,8,108 W Cash St,Iowa Park,Texas,US,https://airconditioningwf.com/,(940) 592-9333,HVAC contractor,https://www.google.com/maps/search/?api=1&query=Gene%20James%20Air%20Conditioning%20%26%20Heating&query_place_id=ChIJJYyRH087U4YRmfUJQqm_gXk,Yes,No,2,genejames@airconditioningwf.com; genejames@airconditioningwf.comlicense,success,2585,success,"Heating and air conditioning services in Wichita Falls, Texas.",maintenance; repairs; installations,Mike James,"Highlight their commitment to honest, no-pressure service; Mention their special offers for cost savings","residents and businesses in Wichita Falls, Texas",high energy costs; inefficient heating and cooling systems,small,family-run business; authorized dealer of American Standard and WaterFurnace,"Hey Mike, impressive seeing Gene James Air Conditioning & Heating maintain 4.6 stars across 8 reviews in Iowa Park - I'm in the Texas market too. Quick thing to run by you.",success,1271
Coffee Landscape and Design LLC,4.8,45,7765 Longoria Rd #400,Amarillo,Texas,US,http://www.coffeelandscapedesign.com/,(806) 656-1296,Landscape designer,https://www.google.com/maps/search/?api=1&query=Coffee%20Landscape%20and%20Design%20LLC&query_place_id=ChIJcQUTe89dAYcRiS5e5JncALg,Yes,No,1,coffeelandscapeanddesign@gmail.com,success,2048,success,landscaping services specializing in sustainable designs,landscape design; landscape installation; irrigation system installation; irrigation repair; xeriscape design; artificial turf; hardscapes; retaining walls; landscape lighting; seasonal flower pots,,focus on sustainable landscaping; expertise in irrigation systems,residential and commercial properties in Amarillo and Canyon,need for efficient water conservation; desire for aesthetic outdoor spaces,small,over 13 years of experience; licensed by the state of Texas,Impressive track record at Coffee Landscape and Design LLC - 45 reviews maintaining 4.8 stars in Amarillo. I'm in the Texas market too. Wanted to run something by you.,success,1290
Wichita Valley Landscape,4.7,60,5314 Southwest Pkwy,Wichita Falls,Texas,US,https://www.wv-landscape.com/,(940) 696-3082,Landscaper,https://www.google.com/maps/search/?api=1&query=Wichita%20Valley%20Landscape&query_place_id=ChIJz0qmQAEiU4YRVTaWfa1laBc,Yes,No,1,wvmail@aol.com,success,1465,success,Landscape design and native plant nursery,Landscape design; Water features; Stonework; Plant selections,,Emphasize water savings in landscaping; Highlight the use of local genetics for superior plants,"Homeowners and businesses in Wichita Falls, TX",High water usage in traditional landscaping; Dependence on chemical fertilizers for plant growth,small,Focus on native plants and heirloom varieties; No chemicals used in plant growth,Impressive track record at Wichita Valley Landscape - 60 reviews maintaining 4.7 stars in Wichita Falls. I'm in the Texas market too. Wanted to run something by you.,success,1270
Flatland Roofing & Insulation,5,43,706 Elm St,Hartley,Texas,US,https://flatlandroofinginsulation.com/?utm_source=gbp,(806) 606-6794,Insulation contractor,https://www.google.com/maps/search/?api=1&query=Flatland%20Roofing%20%26%20Insulation&query_place_id=ChIJPz4Kibk1BIcR29UlEl6eKn0,Yes,No,1,info@flatlandroofinginsulation.com,success,4664,success,"Roofing and insulation contractor serving Amarillo, TX",Residential Roofing; Commercial Roofing; Residential Insulation; Commercial Insulation,Tyrell Penner,Emphasize community involvement and trust; Highlight 5-star reputation and customer satisfaction,Homeowners and businesses in Amarillo and the Texas Panhandle,Need for reliable roofing and insulation services; Concerns about project financing and quality assurance,small,Locally owned and operated; Community-focused service,"Hey Tyrell, impressive seeing Flatland Roofing & Insulation maintain 5 stars across 43 reviews in Hartley - I'm in the Texas market too. Quick thing to run by you.",success,1276
Toot'n Totum Car Care Center (Dalhart),4.2,72,410 Liberal St,Dalhart,Texas,US,https://www.tootntotum.com/carcare,(806) 244-0707,Auto repair shop,https://www.google.com/maps/search/?api=1&query=Toot'n%20Totum%20Car%20Care%20Center%20(Dalhart)&query_place_id=ChIJlyuRYs-2BYcRQI0LMFKctxE,Yes,No,0,,success,5248,success,Full-service car maintenance and repair center,Oil Changes; State Inspections; Free Brake Check; Rock Chip Repair,,Mention the free brake check offer; Highlight the quick oil change service,Vehicle owners in Dalhart and surrounding areas,Need for reliable vehicle maintenance; Concerns about vehicle safety inspections,medium,17-Point Inspection included with every service; Fast and friendly service,Impressive track record at Toot'n Totum Car Care Center (Dalhart) - 72 reviews maintaining 4.2 stars in Dalhart. I'm in the Texas market too. Wanted to run something by you.,success,1296
Juan’s landscaping and Irrigation,4.3,12,2214 Holliday Rd,Wichita Falls,Texas,US,http://www.juanslandirco.com/,(940) 631-6069,Landscaper,https://www.google.com/maps/search/?api=1&query=Juan%E2%80%99s%20landscaping%20and%20Irrigation&query_place_id=ChIJqaUan8YhU4YR4gHFAf837yA,Yes,No,2,jlmaldonadojr@gmail.com; jlmaldonadojr@gmail.comphone,success,3040,success,Landscaping and irrigation services provider,Sprinkler System Installation; Landscape Design and Maintenance; Drainage Solutions; Sod Installation; Hardscape Services; Landscape Lighting,Juan Maldonado,Highlight commitment to client satisfaction; Mention expertise in both residential and commercial projects,Residential and commercial clients in North Texas,Need for reliable landscaping services; Challenges with irrigation system maintenance,small,Over 35 years of experience; Comprehensive approach to projects,"Hey Juan, cool to see how Juan’s landscaping and Irrigation serves the Wichita Falls area - I work with Texas businesses as well. Figured I'd reach out.",success,1276
Absolute Lawn Care,3.6,56,13490 FM 2590,Amarillo,Texas,US,http://www.absolutelawncareonline.com/,(806) 676-5199,Lawn care service,https://www.google.com/maps/search/?api=1&query=Absolute%20Lawn%20Care&query_place_id=ChIJy8RJF05FAYcRGrcJR4gpJeY,Yes,No,1,micah@absolutelawncareonline.com,success,706,success,Complete lawn and landscape services for the Texas Panhandle,"Lawn Care Maintenance; Swimming Pools; Outdoor Kitchen; Artificial Turf; Fencing; Pergolas & Covers; Plant, Sod & Tree Installation; Christmas Light Installation",,Highlighting the variety of services offered; Emphasizing local expertise in Amarillo,residential and commercial clients in the Texas Panhandle,Need for reliable lawn care services; Desire for comprehensive outdoor solutions,small,One stop shop for all outdoor needs; Focus on the Texas Panhandle,Cool to see how Absolute Lawn Care serves the Amarillo area - I work with Texas businesses as well. Figured I'd reach out.,success,1285
Allen Lawn Care,4.8,23,,,,,http://www.lawncare806.com/,(806) 679-8516,Lawn care service,https://www.google.com/maps/search/?api=1&query=Allen%20Lawn%20Care&query_place_id=ChIJs5CzyF5DAYcRanTxmhScT9c,Yes,No,3,service.mail@lawncare806.com; contactmail@lawncare806.com; mail@lawncare806.com,success,3729,success,"Professional lawn care service in Amarillo and Canyon, TX",Mowing; Tree Root Feeding; Flower and Shrub Service; Landscape Upgrades; Turf Care and Disease Control; Outdoor Cleaning; Power Washing Service,,Highlight their expertise in tree root feeding; Mention the importance of curb appeal for properties,"Residents and property owners in Amarillo and Canyon, TX",Neglected lawns and gardens; Need for professional outdoor cleaning services,small,Over 30 years of combined lawn service experience; Family-run business with a focus on customer satisfaction,Impressive track record at Allen Lawn Care - 23 reviews maintaining 4.8 stars in Amarillo. I'm in the Texas market too. Wanted to run something by you.,success,1289
Custom Gardens,4.8,21,925 E Loop 335 S,Amarillo,Texas,US,http://www.customgardensamarillo.com/,(806) 354-9693,Landscape architect,https://www.google.com/maps/search/?api=1&query=Custom%20Gardens&query_place_id=ChIJlx50KrJFAYcR4WFZK4MxIpE,Yes,No,2,info@customgardensamarillo.com; info@customgardensamarillo.comconsultationwe,success,2789,success,Full-service landscaping design and maintenance in Texas Panhandle.,Landscape Design; Installation; Maintenance; Hardscaping; Irrigation; Pest Control; Weed Control; Tree Services,,Highlight the importance of planting in fall; Mention their awards for excellence in landscaping,Homeowners in the Texas Panhandle,Need for professional landscaping services; Desire for sustainable outdoor spaces,medium,Licensed landscape architects; Focus on sustainability,Impressive track record at Custom Gardens - 21 reviews maintaining 4.8 stars in Amarillo. I'm in the Texas market too. Wanted to run something by you.,success,1279
Tactical Heating & Air,4.9,50,2405 SW 6th Ave,Amarillo,Texas,US,https://tacticalheatingandair.com/?utm_source=GBP&utm_medium=IGNITE&utm_campaign=LSEO&utm_id=Tactical,(806) 576-9259,Air conditioning repair service,https://www.google.com/maps/search/?api=1&query=Tactical%20Heating%20%26%20Air&query_place_id=ChIJ0U9pI-46DyMR3oHo9R60BvA,Yes,No,1,tacticalheatingandair@yahoo.com,success,4232,success,Reliable HVAC repair and maintenance services in Amarillo,A/C Repair; Heating Services; HVAC Maintenance; System Replacement; Commercial HVAC Services,,Quick response times for urgent HVAC issues; Energy-efficient system upgrades available,residential and commercial clients in Amarillo and surrounding areas,Unreliable HVAC systems; High energy bills during extreme weather,small,Same-day service availability; Focus on customer satisfaction,Impressive track record at Tactical Heating & Air - 50 reviews maintaining 4.9 stars in Amarillo. I'm in the Texas market too. Wanted to run something by you.,success,1280
Fort Worth Air Conditioning Co. Inc.,4.9,448,9105 White Settlement Rd,Fort Worth,Texas,US,https://fortworth-air.com/,(817) 367-6000,HVAC contractor,https://www.google.com/maps/search/?api=1&query=Fort%20Worth%20Air%20Conditioning%20Co.%20Inc.&query_place_id=ChIJ0448j4QMToYRPa-ngQizuzA,Yes,No,1,service@fortworth-air.com,success,7922,success,Air conditioning and heating repair service,AC repair; Heating repair; Installation and maintenance,Sonny Pewitt,Highlight commitment to customer service; Mention financing options for customers,"Residents and businesses in Fort Worth and Tarrant County, TX",High energy costs due to inefficient systems; Emergency HVAC failures at inconvenient times,medium,24/7 emergency service; Guaranteed repairs for 1 year,"Hey Sonny, impressive seeing Fort Worth Air Conditioning Co. Inc. maintain 4.9 stars across 448 reviews in Fort Worth - I'm in the Texas market too. Quick thing to run by you.",success,1269
Orgrow Lawn Care,4.6,14,901 S Madison St,Amarillo,Texas,US,http://www.orgrowlawncare.com/,(806) 376-4769,Lawn care service,https://www.google.com/maps/search/?api=1&query=Orgrow%20Lawn%20Care&query_place_id=ChIJRfu6lVVOAYcRRgG2WFGI2eI,Yes,No,0,,success,306,success,Lawn care services tailored to individual lawn needs,Lawn Care; Tree & Shrub Care,,Highlight local expertise since 1989; Emphasize tailored treatments for unique lawn needs,Homeowners in need of lawn and garden care,Weed control; Maintaining healthy lawns,small,Locally owned and operated since 1989; Customized lawn care treatments,Impressive track record at Orgrow Lawn Care - 14 reviews maintaining 4.6 stars in Amarillo. I'm in the Texas market too. Wanted to run something by you.,success,1273
Malcolm's Heating & Air,5,202,3416 Wendell Dr,North Richland Hills,Texas,US,https://www.malcolmsheatingandair.com/,(817) 333-7310,HVAC contractor,https://www.google.com/maps/search/?api=1&query=Malcolm's%20Heating%20%26%20Air&query_place_id=ChIJE6DWTMV5ToYR3746Rw_AnWc,Yes,No,1,malcolmsair@gmail.com,success,5981,success,Heating and cooling services for residential and commercial properties,AC installation; air conditioning repair; furnace repair; heat pump repair; air purification,,Highlight energy efficiency benefits of new AC installations; Emphasize quick response times for emergency repairs,"residential and commercial properties in North Richland Hills, Haltom City, Fort Worth, and Richland Hills, TX",high energy costs; poor indoor air quality,small,24/7 support; upfront pricing,Impressive track record at Malcolm's Heating & Air - 202 reviews maintaining 5 stars in North Richland Hills. I'm in the Texas market too. Wanted to run something by you.,success,1284
Trinity Air Conditioning - Main Office,5,683,1515 Archer City Hwy,Wichita Falls,Texas,US,http://trinityairconditioning.com/,(940) 761-1808,HVAC contractor,https://www.google.com/maps/search/?api=1&query=Trinity%20Air%20Conditioning%20-%20Main%20Office&query_place_id=ChIJi9sXvvEfU4YRssKBK9o1TvQ,Yes,No,0,,success,15000,success,Heating and cooling services for residential customers,Heating services; Cooling services; Indoor air quality solutions,,Highlight their commitment to customer comfort; Mention their award-winning service,Homeowners in Wichita Falls and surrounding areas,Heating and cooling system failures; Poor indoor air quality,medium,Recipient of the Lennox Industries Length of Dealership Award; Experienced technicians for emergency repairs and installations,Impressive track record at Trinity Air Conditioning - 683 reviews maintaining 5 stars in Wichita Falls. I'm in the Texas market too. Wanted to run something by you.,success,1264
Total Lawn Care,3.8,13,308 6th St,Wichita Falls,Texas,US,http://totallawncarewf.com/,(940) 691-4309,Lawn care service,https://www.google.com/maps/search/?api=1&query=Total%20Lawn%20Care&query_place_id=ChIJnY1rZhAfU4YRhJY6622zYZQ,Yes,No,0,,success,2130,success,Lawn care services specializing in weed control and fertilization,Weed Control; Fertilization; Flower Bed Weed Control; Pest Control,,Highlight the importance of curb appeal for homeowners; Emphasize free service calls if weeds reappear,"Residential and commercial properties in Wichita Falls, TX",Difficulty in maintaining a weed-free yard; Challenges of managing larger properties,small,Locally owned; Over 15 years of experience; Licensed and insured,Cool to see how Total Lawn Care serves the Wichita Falls area - I work with Texas businesses as well. Figured I'd reach out.,success,1271
Curt's Lawn Service,5,136,,,,,http://www.curtslawnservice.com/,(940) 867-2477,Lawn care service,https://www.google.com/maps/search/?api=1&query=Curt's%20Lawn%20Service&query_place_id=ChIJOziuHOshU4YRFVU6uDAfkHk,Yes,No,0,,success,1114,success,"Lawn care services in Wichita Falls, Texas",lawn mowing; gutter cleaning; shrub trimming; leaf raking; flower bed weeding; mulch installation; lot cleanup,Curtis,Veteran-owned business; Focus on excellent customer service,small to medium sized residential properties in Wichita Falls area,limited availability in surrounding areas; need for reliable lawn care services,solo,U.S. Air Force veteran; personalized service with guaranteed work,"Hey Curtis, impressive seeing Curt's Lawn Service maintain 5 stars across 136 reviews in Wichita Falls - I'm in the Texas market too. Quick thing to run by you.",success,1265
Hall's Heating And Air,4.9,887,801 W Kingsmill Ave Ste. #2,Pampa,Texas,US,https://hallheatingandair.net/,(806) 203-6646,HVAC contractor,https://www.google.com/maps/search/?api=1&query=Hall's%20Heating%20And%20Air&query_place_id=ChIJbxkZGgVJB4cRlENErKvWEY4,Yes,No,0,,success,7585,success,"HVAC services and repairs in Pampa, TX",AC Installation & Replacement; Heating Installation & Replacement; Commercial AC Services,,Over 40 years of trusted service in Pampa; 5-star rated on Google for exceptional customer service,"residential and commercial customers in Pampa, TX",AC unit breakdown during summer; Heating failure during winter,medium,100% Satisfaction Guarantee; Highest-rated HVAC company in Pampa,Impressive track record at Hall's Heating And Air - 887 reviews maintaining 4.9 stars in Pampa. I'm in the Texas market too. Wanted to run something by you.,success,1284
Perm-O-Green,4.3,89,5018 Ditto Ln,Wichita Falls,Texas,US,https://www.permogreen.com/,(940) 488-4677,Landscaper,https://www.google.com/maps/search/?api=1&query=Perm-O-Green&query_place_id=ChIJKe3xzfsfU4YRp8GPUsYWbSo,Yes,No,0,,success,6854,success,Texas lawn care and pest control services,lawn care; pest control; weed control; fertilization; vegetation control; aeration; tree and shrub care,,emphasize local expertise in Texas lawn care; highlight commitment to exceptional customer service,home and business owners in Texas,lack of personalized lawn care; poor customer service from national companies,medium,focused solely on Texas lawn care; over 45 years of experience,Impressive track record at Perm-O-Green - 89 reviews maintaining 4.3 stars in Wichita Falls. I'm in the Texas market too. Wanted to run something by you.,success,1282
Otis Air Conditioning and Refrigeration,4.9,506,5828 Ashleyanne Cir,Wichita Falls,Texas,US,http://www.otisrefrigeration.co/,(940) 692-6847,HVAC contractor,https://www.google.com/maps/search/?api=1&query=Otis%20Air%20Conditioning%20and%20Refrigeration&query_place_id=ChIJTeHvFOQfU4YRBMEvUBsWH7o,Yes,No,2,customer_service@otisrefrigeration.co; shaney@otisrefrigeration.co,success,4209,success,Air conditioning and refrigeration services for residential and commercial clients,Air Conditioning; Heating; Refrigeration,,Mention the approaching heat wave and need for AC maintenance; Highlight financing options for new units,Residential and commercial customers in Texoma,Lack of maintenance leading to system breakdown; High energy bills due to inefficient systems,medium,Emergency service available 24/7; Energy Savings Agreement for maintenance,Impressive track record at Otis Air Conditioning and Refrigeration - 506 reviews maintaining 4.9 stars in Wichita Falls. I'm in the Texas market too. Wanted to run something by you.,success,1281
GreenSmith Lawncare Amarillo,5,5,6200 Susie Rd,Amarillo,Texas,US,https://sites.google.com/d/1-SJcZRlDnAe-PX4o-kQKo1bTQJktNPCW/p/1LobR2iFs2VCbMrkXQ-LEBqj_EqWyCPGa/edit,(806) 410-0603,Lawn care service,https://www.google.com/maps/search/?api=1&query=GreenSmith%20Lawncare%20Amarillo&query_place_id=ChIJpYn0eNXOZigReeKcGVHOQ24,Yes,No,0,,success,201,success,"Lawncare services in Amarillo, Texas",lawn mowing; landscaping; weed control,,Highlight the importance of a healthy lawn in Amarillo's climate; Offer a seasonal promotion for new customers,homeowners and businesses in Amarillo,maintaining a healthy lawn; time constraints for lawn care,small,local expertise; customized lawn care plans,Impressive track record at GreenSmith Lawncare Amarillo - 5 reviews maintaining 5 stars in Amarillo. I'm in the Texas market too. Wanted to run something by you.,success,1275
FallsTown LLC,4.6,20,2209 10th St,Wichita Falls,Texas,US,http://fallstownllc.com/,(940) 642-4139,Lawn care service,https://www.google.com/maps/search/?api=1&query=FallsTown%20LLC&query_place_id=ChIJ_f1c4uwhU4YRXfKnAunpNng,Yes,No,1,fallstownllc@gmail.comgoogle,success,480,success,Home services company offering various maintenance and installation solutions.,Air Conditioning & Heating; Chimney Sweeps; Lawn Service; Fencing Services; Landscaping; Tree Services; Light Installations; Drone Services,,Highlighting seasonal maintenance tips; Offering a special promotion for first-time customers,Homeowners in need of maintenance and installation services,Difficulty finding reliable service providers; Need for seasonal home maintenance,small,Wide range of home services; Local expertise in multiple service areas,Impressive track record at FallsTown LLC - 20 reviews maintaining 4.6 stars in Wichita Falls. I'm in the Texas market too. Wanted to run something by you.,success,1288
Metro Air Conditioning Heating & Services,4.8,315,126 W Illinois Ave,Dallas,Texas,US,https://www.metroacs.com/,(214) 304-7658,HVAC contractor,https://www.google.com/maps/search/?api=1&query=Metro%20Air%20Conditioning%20Heating%20%26%20Services&query_place_id=ChIJW9MyXeOZToYR8gwWSwYY1rw,Yes,No,1,info@metroacs.com,success,9429,success,HVAC services including air conditioning and heating,AC Repair; Heating Service; Emergency Service; Maintenance Plans; Indoor Air Quality Solutions,,Highlight their 32 years of experience; Mention their free estimates and second opinion offers,residential and commercial clients in Metro Dallas and surrounding areas,unexpected HVAC failures; high energy costs due to inefficient systems,medium,24/7 Emergency Services; 5% Senior and Military Discounts,Impressive track record at Metro Air Conditioning Heating & Services - 315 reviews maintaining 4.8 stars in Dallas. I'm in the Texas market too. Wanted to run something by you.,success,1280
Smith's Lawn & Tree Service,5,30,1112 1/2 Covington St,Wichita Falls,Texas,US,https://smithslawnandtreeservice.com/,(940) 704-1536,Lawn care service,https://www.google.com/maps/search/?api=1&query=Smith's%20Lawn%20%26%20Tree%20Service&query_place_id=ChIJ24-FetIhU4YRlZt9v1MLQgA,Yes,No,0,,success,2648,success,Tree and shrub care and maintenance services,Tree inspection; Lawn maintenance; Emergency storm damage service,Blair Smith,Free tree inspection with each estimate; 24-hour emergency service,Residential and commercial property owners,Risk of injury from DIY tree care; Need for reliable tree maintenance services,small,Certified Tree Care specialists; Commitment to customer satisfaction,"Hey Blair, impressive seeing Smith's Lawn & Tree Service maintain 5 stars across 30 reviews in Wichita Falls - I'm in the Texas market too. Quick thing to run by you.",success,1264
All-Star Heat & Air,4,80,2630 W Amarillo Blvd West,Amarillo,Texas,US,http://www.all-starheatair.com/,(806) 584-1679,Air conditioning repair service,https://www.google.com/maps/search/?api=1&query=All-Star%20Heat%20%26%20Air&query_place_id=ChIJpU1HNetPAYcRIIjvzlEiKKc,Yes,No,0,,success,4010,success,"Heating and air conditioning services in Amarillo, TX",AC Installation; AC Repair; Furnace Replacement; Furnace Repair; Mini Split Installation,Chuck,Mention their long-standing service in Amarillo; Highlight their quick response during heat waves,Residential and light commercial properties in Amarillo and surrounding areas,High repair costs for older systems; Need for reliable maintenance services,small,Over 20 years of experience; Treat customers like family,"Hey Chuck, impressive seeing All-Star Heat & Air maintain 4 stars across 80 reviews in Amarillo - I'm in the Texas market too. Quick thing to run by you.",success,1275
Rescue Air and Plumbing,4.9,3593,9639 Greenville Ave,Dallas,Texas,US,https://www.rescueairtx.com/,(972) 201-3253,HVAC contractor,https://www.google.com/maps/search/?api=1&query=Rescue%20Air%20and%20Plumbing&query_place_id=ChIJ4XFisXcfTIYRURj1cWa1MIk,Yes,No,1,info@rescueairtx.com,success,7315,success,"Heating, air conditioning, and plumbing services in Dallas",Air Conditioning Repair; Heating Services; Plumbing Services,,Same-day service availability; Free in-home water test promotion,Residential customers in the DFW area,Urgent HVAC repairs needed; High costs of unexpected plumbing issues,medium,24/7 emergency services; Upfront pricing with free estimates,Impressive track record at Rescue Air and Plumbing - 3593 reviews maintaining 4.9 stars in Dallas. I'm in the Texas market too. Wanted to run something by you.,success,1268
ETR Air Conditioning & Heating,4.9,1411,4700 Old Troup Hwy,Tyler,Texas,US,https://www.etrhvac.com/?utm_source=google&utm_medium=organic&utm_campaign=gmb&utm_content=4700_Old_Troup_Highway_Tyler,(903) 581-3771,HVAC contractor,https://www.google.com/maps/search/?api=1&query=ETR%20Air%20Conditioning%20%26%20Heating&query_place_id=ChIJq6qqqmrLSYYRU532gIOvsAQ,Yes,No,1,wecare@etrhvac.com,success,11539,success,HVAC service provider specializing in air conditioning and heating,AC Repair; Heating Repair; Installation Services,,Highlight commitment to customer service; Mention energy savings agreements,residential and commercial clients in East Texas,lack of timely updates on repairs; customer service inconsistencies,medium,24/7 emergency service; highly trained technicians,Impressive track record at ETR Air Conditioning & Heating - 1411 reviews maintaining 4.9 stars in Tyler. I'm in the Texas market too. Wanted to run something by you.,success,1271
Amarillo Land Services,5,147,7525 Canyon Dr,Amarillo,Texas,US,https://www.amarillolandservices.com/,(806) 477-2605,Lawn sprinkler system contractor,https://www.google.com/maps/search/?api=1&query=Amarillo%20Land%20Services&query_place_id=ChIJv9ePtDRFAYcRhThjPzXk6r0,Yes,No,0,,success,5013,success,"Sprinkler repair, landscape lighting, and water feature services",Sprinkler Repairs; Irrigation Systems; Water Feature Installations; Drainage Solutions; Landscape Lighting,,Highlight their expertise in water features; Mention their local community involvement,Homeowners and businesses in Amarillo and the Texas Panhandle,Inefficient sprinkler systems; Drainage problems leading to flooding,small,Only Certified Aquascape Contractor in the area; A+ rating with the BBB,Impressive track record at Amarillo Land Services - 147 reviews maintaining 5 stars in Amarillo. I'm in the Texas market too. Wanted to run something by you.,success,1280
Matthew's HVAC Services Heating & Air Conditioning,4.9,144,7684 SW 81st Ave #200,Amarillo,Texas,US,https://matthewshvac.net/?utm_source=organic&utm_medium=gbp,(806) 681-0778,HVAC contractor,https://www.google.com/maps/search/?api=1&query=Matthew's%20HVAC%20Services%20Heating%20%26%20Air%20Conditioning&query_place_id=ChIJpc3IYTVbAYcRNvryhPTsQLQ,Yes,No,0,,success,4036,success,"Heating and air conditioning services in Amarillo, TX",HVAC repairs; HVAC maintenance; HVAC installation,Matt Kirkeeng,Highlight commitment to improving indoor air quality; Mention the family-like atmosphere and employee growth,residential customers in Amarillo and surrounding areas,Heating or cooling system not performing well; Need for reliable HVAC maintenance,small,28 years of industry experience; Focus on community and customer education,"Hey Matt, impressive seeing Matthew's HVAC Services Heating & Air Conditioning maintain 4.9 stars across 144 reviews in Amarillo - I'm in the Texas market too. Quick thing to run by you.",success,1279
Complete Lawn Service LLC,4.5,21,2304 Midwestern Pkwy #203,Wichita Falls,Texas,US,http://completelawnllc.com/,(940) 689-9397,Landscaper,https://www.google.com/maps/search/?api=1&query=Complete%20Lawn%20Service%20LLC&query_place_id=ChIJRyh5G5AhU4YRa0Y5zL2-K3g,Yes,No,1,stacie@completelawnllc.com,success,4401,success,Lawn and landscaping service provider,lawn maintenance; landscaping services; tree services; weed control; fertilization; irrigation systems,,Highlight their experience since 2000; Mention their competitive pricing compared to other companies,residential and commercial accounts,maintaining lawn appearance; finding reliable landscaping services,medium,over 25 years of combined experience; BBB A+ Rating,Impressive track record at Complete Lawn Service LLC - 21 reviews maintaining 4.5 stars in Wichita Falls. I'm in the Texas market too. Wanted to run something by you.,success,1276
Dub's Heating and Air,5,337,501 Crandle Dr,White Settlement,Texas,US,http://www.dubsheatingandair.com/,(817) 845-1002,HVAC contractor,https://www.google.com/maps/search/?api=1&query=Dub's%20Heating%20and%20Air&query_place_id=ChIJVUJAMgkMToYRjlP2UYPTqDc,Yes,No,2,845-1002dubsheatingandair@gmail.com; dubsheatingandair@gmail.com,success,3107,success,"Veteran-owned HVAC solutions provider specializing in heating, cooling, and air quality.",Air Conditioning Repair & Maintenance; Heating System Service; HVAC Installation; Indoor Air Quality Solutions; HVAC Maintenance Plans,J.W.,Highlight commitment to integrity and honest service; Mention local community support and emergency services,Residential and light commercial clients in Fort Worth and surrounding areas,Unreliable HVAC service providers; High-pressure sales tactics for system replacements,small,Veteran-owned and operated; Focus on repair before replacement,"Hey J.W., impressive seeing Dub's Heating and Air maintain 5 stars across 337 reviews in White Settlement - I'm in the Texas market too. Quick thing to run by you.",success,1283
One Hour Air Conditioning & Heating,4.8,3100,2535 Brennan Ave,Fort Worth,Texas,US,https://www.onehourairftworth.com/?utm_source=organic&utm_medium=gbp,(817) 766-5706,HVAC contractor,https://www.google.com/maps/search/?api=1&query=One%20Hour%20Air%20Conditioning%20%26%20Heating&query_place_id=ChIJp-CLd_nhTYYRN-AndhiVWlY,Yes,No,1,customerservice@onehourair.com,success,6087,success,"HVAC repair and installation services in Fort Worth, TX",Heating repair; AC repair; Furnace installation; Heat pump services; Emergency HVAC services,,Mention their long-standing service since 1988; Highlight the $100 off on repairs over $500,"residential and commercial customers in Fort Worth, TX",Unexpected HVAC breakdowns; Need for efficient heating and cooling solutions,medium,Emergency services with no extra trip fees; Flexible scheduling and transparent pricing,Impressive track record at One Hour Air Conditioning & Heating - 3100 reviews maintaining 4.8 stars in Fort Worth. I'm in the Texas market too. Wanted to run something by you.,success,1293
Comfort Experts,4.8,1965,4255 Bryant Irvin Rd Ste 211,Fort Worth,Texas,US,https://comfortexpertsinc.com/?utm_source=GMB&utm_medium=organic&utm_campaign=fort_worth,(817) 678-1287,HVAC contractor,https://www.google.com/maps/search/?api=1&query=Comfort%20Experts&query_place_id=ChIJLUsPKXltToYRjPG3CeeER2s,Yes,No,0,,success,8760,success,"HVAC, plumbing, and electrical services",Air Conditioning; Heating; Plumbing; Electrical,,Highlight their commitment to answering calls promptly; Mention their extensive experience since 1962,residential customers in Fort Worth and surrounding areas,Need for reliable home service providers; Concerns about technician expertise and honesty,medium,"Certified AC, Plumbing, and Electrical Geniuses; In-house training center for technicians",Impressive track record at Comfort Experts - 1965 reviews maintaining 4.8 stars in Fort Worth. I'm in the Texas market too. Wanted to run something by you.,success,1266
Snow Bear Heat and Air | Air Conditioning | Ac | furnace repair service,4.8,961,5410 Bell St #218,Amarillo,Texas,US,https://snowbearair.com/locations/tx/snow-bear-heat-air-amarillo/,(806) 367-9416,Air conditioning repair service,https://www.google.com/maps/search/?api=1&query=Snow%20Bear%20Heat%20and%20Air%20%7C%20Air%20Conditioning%20%7C%20Ac%20%7C%20furnace%20repair%20service&query_place_id=ChIJLw49DURPAYcRkRbjdSWotEQ,Yes,No,0,,success,7335,success,HVAC services including air conditioning and heating repair,Air Conditioning; Furnace Repair; Indoor Air Quality Services,,Highest rated HVAC company in Amarillo; Community-focused with volunteer work in Belize,"homeowners in Amarillo, TX and surrounding areas",High cost of home heating fuel; Need for reliable HVAC services,medium,$7 service fee for first-time customers; Donates diagnostic fees to charity for homeless veterans,Impressive track record at Snow Bear Heat and Air - 961 reviews maintaining 4.8 stars in Amarillo. I'm in the Texas market too. Wanted to run something by you.,success,1296
5 Star HVAC Contractors,4.9,1098,3906 Melcer Dr #302,Rowlett,Texas,US,https://5starhvaccontractors.com/,(972) 848-9414,HVAC contractor,https://www.google.com/maps/search/?api=1&query=5%20Star%20HVAC%20Contractors&query_place_id=ChIJabmecnUCTIYRwKZWsPdz1aw,Yes,No,1,support@5starhvaccontractors.com,success,5761,success,HVAC repair and installation services in Rowlett and Dallas,AC Repair; Furnace Repair; Emergency Services; Preventative Maintenance; Installation Services,,Highlight the limited-time financing offer; Mention their quick response to emergency AC issues,residential homeowners in the Dallas Metro area,AC breakdown during peak heat; Furnace failure on cold nights,medium,0% interest financing for 60 months; Commitment to precision and punctuality,Impressive track record at 5 Star HVAC Contractors - 1098 reviews maintaining 4.9 stars in Rowlett. I'm in the Texas market too. Wanted to run something by you.,success,1284
Spencer Air Conditioning & Heating,4.9,1228,2928 W Story Rd,Irving,Texas,US,https://spencerairconditioning.com/?utm_medium=organic&utm_source=google&utm_campaign=gbp,(972) 544-6921,HVAC contractor,https://www.google.com/maps/search/?api=1&query=Spencer%20Air%20Conditioning%20%26%20Heating&query_place_id=ChIJoXhvJhOCToYRaOGtvXHJB3c,Yes,No,1,service@spencerairconditioning.com,success,2612,success,HVAC services including air conditioning and heating repair,AC repair; Heating repair; Emergency HVAC services,Harry Spencer,Highlight the legacy of Harry Spencer's service in the community; Mention the commitment to customer satisfaction,"residential and commercial clients in Irving, TX and surrounding areas",Need for reliable HVAC service; Emergency repair during extreme weather conditions,medium,Established in 1960; 24/7 emergency service,"Hey Harry, impressive seeing Spencer Air Conditioning & Heating maintain 4.9 stars across 1228 reviews in Irving - I'm in the Texas market too. Quick thing to run by you.",success,1271
Grizzle Heating & Air,4.9,535,112 N 15th St,Canyon,Texas,US,https://www.grizzlehvac.com/?utm_source=organic&utm_medium=website-button&utm_id=google-business-profile,(806) 655-7676,Air conditioning repair service,https://www.google.com/maps/search/?api=1&query=Grizzle%20Heating%20%26%20Air&query_place_id=ChIJ7ZgozntdAYcRboporhiR8-k,Yes,No,0,,success,4990,success,"HVAC services provider in Canyon, TX",Heating; Cooling; Indoor Air Quality,,Highlight their commitment to customer satisfaction; Mention their financing options for HVAC systems,Canyon and Amarillo residents,High energy costs due to inefficient systems; Poor indoor air quality affecting health,small,Over 20 years of experience; Full-service HVAC company,Impressive track record at Grizzle Heating & Air - 535 reviews maintaining 4.9 stars in Canyon. I'm in the Texas market too. Wanted to run something by you.,success,1270
"Xtreme Air Services - HVAC, Plumbing, & Electrical",4.8,2312,308 U.S. 80 Frontage Rd,Sunnyvale,Texas,US,https://xtremeairservices.com/,(972) 288-2263,HVAC contractor,https://www.google.com/maps/search/?api=1&query=Xtreme%20Air%20Services%20-%20HVAC%2C%20Plumbing%2C%20%26%20Electrical&query_place_id=ChIJs0F2r4mvToYR5LclsG7cQHg,Yes,No,1,servicetoday@xtremeairservices.com,success,11923,success,"HVAC, Plumbing, and Electrical services in Dallas-Fort Worth area",Air Conditioning Repair; Heating Services; Plumbing Services; Electrical Services,,Highlight commitment to customer satisfaction; Mention financing options for larger repairs,"Residential and Commercial clients in Dallas, Plano, Irving, and Sunnyvale, TX",Need for reliable HVAC systems; High costs of emergency repairs,medium,100% Satisfaction Guarantee; 24/6 Service Availability,Impressive track record at Xtreme Air Services - 2312 reviews maintaining 4.8 stars in Sunnyvale. I'm in the Texas market too. Wanted to run something by you.,success,1292
The Right Choice Air Conditioning And Plumbing,4.8,1141,2290 Springlake Rd #103,Farmers Branch,Texas,US,https://therightchoicetexas.com/,(972) 914-0624,HVAC contractor,https://www.google.com/maps/search/?api=1&query=The%20Right%20Choice%20Air%20Conditioning%20And%20Plumbing&query_place_id=ChIJHRG67MQnTIYRY3QQitvZ7CA,Yes,No,1,support@therightchoicetexas.com,success,8617,success,HVAC and plumbing services for residential and commercial needs,Leak detection; Plumbing repair; Drain cleaning; Air duct cleaning; HVAC maintenance,,Promotions for HVAC and plumbing services; Community involvement and support for local organizations,Homeowners and businesses in the Dallas/Fort Worth Metroplex,High utility bills; Unreliable HVAC systems,medium,100% customer satisfaction guarantee; Same-day service and next-day installation,Impressive track record at The Right Choice Air Conditioning And Plumbing - 1141 reviews maintaining 4.8 stars in Farmers Branch. I'm in the Texas market too. Wanted to run something by you.,success,1288
Larry's Heating & Air,4.3,59,14310 FM 2590,Amarillo,Texas,US,https://larrysamarillo.com/?utm_source=google&utm_medium=gmb,(806) 383-1956,HVAC contractor,https://www.google.com/maps/search/?api=1&query=Larry's%20Heating%20%26%20Air&query_place_id=ChIJyWza6aJPAYcRNDMr98oJCW0,Yes,No,0,,success,10600,success,Full-Service HVAC Company serving Amarillo and surrounding areas,Air Conditioner Installation; Furnace Repair; Indoor Air Quality Services,,Local expertise in Amarillo; Financing options available for customers,Residential and commercial customers in the Texas Panhandle,Heating or cooling system failures; Poor indoor air quality,medium,Over 100 years of combined experience; 24/7 service availability,Impressive track record at Larry's Heating & Air - 59 reviews maintaining 4.3 stars in Amarillo. I'm in the Texas market too. Wanted to run something by you.,success,1273
Reeder Outdoor Living,3.6,34,11923 Coulter St S,Amarillo,Texas,US,https://reederlandscape.com/,(806) 356-6163,Landscape designer,https://www.google.com/maps/search/?api=1&query=Reeder%20Outdoor%20Living&query_place_id=ChIJ6VL82_ZOAYcRc3RzopvxaMQ,Yes,No,0,,success,8089,success,Family-owned landscaping firm offering outdoor living solutions,Commercial Lawn Maintenance; Sprinkler Services; Pool Repair; Custom Landscape Design; Irrigation Repair,Blake Reeder,Highlight the importance of maintaining a beautiful yard; Discuss the benefits of custom outdoor living spaces,Homeowners and businesses in Fort Worth and the greater Panhandle region,Lack of time for yard maintenance; Need for efficient irrigation systems,medium,Guaranteed 60-day pool installation; Family-owned with over 20 years of experience,"Hey Blake, cool to see how Reeder Outdoor Living serves the Amarillo area - I work with Texas businesses as well. Figured I'd reach out.",success,1271
Texan Heating and Air,4.9,374,5608 Malvey Ave Suite 202,Fort Worth,Texas,US,https://www.texanhvac.com/,(817) 734-3073,Air conditioning repair service,https://www.google.com/maps/search/?api=1&query=Texan%20Heating%20and%20Air&query_place_id=ChIJGTvEO_J1ToYRgQopCUGuwu0,Yes,No,1,service@texanhvac.com,success,5038,success,HVAC services for residential and commercial properties,AC Repair and Installation; Heating Repair and Installation; HVAC System Replacement; Indoor Air Quality; HVAC Maintenance,,Highlight the importance of HVAC maintenance before winter; Emphasize quick response times for emergency repairs,"homeowners and businesses in Fort Worth, TX and surrounding areas",lack of reliable HVAC service; high costs of HVAC repairs and installations,medium,20 years of collective experience; competitive and honest pricing,Impressive track record at Texan Heating and Air - 374 reviews maintaining 4.9 stars in Fort Worth. I'm in the Texas market too. Wanted to run something by you.,success,1290
Captain Air Heating and Cooling,4.8,88,1202 Co Rd 2306,Canton,Texas,US,https://captainairtexas.com/,(903) 802-4022,HVAC contractor,https://www.google.com/maps/search/?api=1&query=Captain%20Air%20Heating%20and%20Cooling&query_place_id=ChIJpSPBVgcRSYYRw4YCCfb68UI,Yes,No,1,captainair.office@gmail.com,success,3089,success,HVAC services for residential and commercial clients,AC repair; heating repair; air duct cleaning; heat pump installation; indoor air quality services,,"Local expertise in Canton, Rockwall, Lindale, and Corsicana; Focus on energy efficiency and indoor air quality",homeowners and business owners in Texas,Unreliable HVAC systems; Poor indoor air quality,small,"Supports veterans, police officers, and troops; Top-rated in local area",Impressive track record at Captain Air Heating and Cooling - 88 reviews maintaining 4.8 stars in Canton. I'm in the Texas market too. Wanted to run something by you.,success,1286
1st Class Heat & Air,4.7,453,2712 S Rigsbee Dr #5,Plano,Texas,US,https://1stclassairservice.com/?utm_campaign=gmb&utm_medium=organic&utm_source=google,(972) 895-7278,HVAC contractor,https://www.google.com/maps/search/?api=1&query=1st%20Class%20Heat%20%26%20Air&query_place_id=ChIJr-jpTmgZTIYRXeuFBGR31iE,Yes,No,0,,success,7566,success,"HVAC service provider in Plano, TX",HVAC installation; HVAC replacement; HVAC repair; HVAC maintenance; heat pump services; indoor air quality solutions,,emphasize commitment to home comfort; highlight ongoing training of technicians,residential customers in Plano and surrounding areas,inefficient HVAC systems; lack of reliable service providers,small,family-owned business; same-day service,Impressive track record at 1st Class Heat & Air - 453 reviews maintaining 4.7 stars in Plano. I'm in the Texas market too. Wanted to run something by you.,success,1282
Garland Heating & Air Conditioning,4.7,617,2113 S Garland Ave,Garland,Texas,US,https://www.garlandheatingandair.com/,(972) 278-3500,HVAC contractor,https://www.google.com/maps/search/?api=1&query=Garland%20Heating%20%26%20Air%20Conditioning&query_place_id=ChIJ32KqxFqnToYRupQUcIZaGQI,Yes,No,1,info@garlandheatingandair.com,success,6272,success,HVAC services for residential and commercial clients,AC installation and replacement; AC repairs and maintenance; heating installation and replacement,null,Highlight their long-standing service in the DFW area; Mention their commitment to customer health and safety,residential and commercial clients in the Dallas Fort Worth area,high HVAC repair costs; lack of reliable emergency service,medium,family owned and operated since 1952; 24/7 emergency service,Impressive track record at Garland Heating & Air Conditioning - 617 reviews maintaining 4.7 stars in Garland. I'm in the Texas market too. Wanted to run something by you.,success,1273
"Willard Cooling, Heating, Plumbing, & Electrical (Max Air And Plumbing – Max Mechanical)",4.9,3326,2313 Michigan Ct,Arlington,Texas,US,https://willardac.com/?utm_source=google-gbp&utm_medium=organic&utm_campaign=*144*willard-cooling-arlington,(817) 674-7522,HVAC contractor,https://www.google.com/maps/search/?api=1&query=Willard%20Cooling%2C%20Heating%2C%20Plumbing%2C%20%26%20Electrical%20(Max%20Air%20And%20Plumbing%20%E2%80%93%20Max%20Mechanical)&query_place_id=ChIJH1aL_cd8ToYRY0cbOjgLh_o,Yes,No,2,info@willardac.com; callcenter@willardac.com,success,13329,success,"24/7 HVAC, plumbing, and electrical services",AC installation; plumbing repair; electrical services,,Free heater with AC system purchase; 0% financing for 72 months on new AC systems,residential customers in the Dallas-Fort Worth Metroplex,emergency repair needs; high costs of HVAC replacements,medium,24/7 emergency service; two-year warranty on repairs,"Impressive track record at Willard Cooling, Heating, Plumbing, & Electrical - 3326 reviews maintaining 4.9 stars in Arlington. I'm in the Texas market too. Wanted to run something by you.",success,1310
"Gary's Heating and Air Conditioning, Inc.",4.9,1799,2505 SW 7th Ave,Amarillo,Texas,US,https://www.garys.com/,(806) 318-1337,HVAC contractor,https://www.google.com/maps/search/?api=1&query=Gary's%20Heating%20and%20Air%20Conditioning%2C%20Inc.&query_place_id=ChIJz3Dw4kdOAYcRD-zE2puFFeQ,Yes,No,0,,success,8571,success,"HVAC services provider in Amarillo, TX",Heating Installation; Air Conditioning Repair; Ductwork,Gary Ward,Highlight their 0% financing options; Mention their commitment to customer education,residential customers in Amarillo and surrounding areas,High energy bills due to inefficient systems; Need for reliable HVAC maintenance and repair,medium,Family owned and operated since 1978; 100% satisfaction guarantee,"Hey Gary, impressive seeing Gary's Heating and Air Conditioning, Inc. maintain 4.9 stars across 1799 reviews in Amarillo - I'm in the Texas market too. Quick thing to run by you.",success,1281
Absolute Comfort Heating and Air,4.2,15,3512 McNiel Ave,Wichita Falls,Texas,US,http://www.absolutecomforttxok.com/,(940) 636-5210,Air conditioning repair service,https://www.google.com/maps/search/?api=1&query=Absolute%20Comfort%20Heating%20and%20Air&query_place_id=ChIJ03fGrcEhU4YRrskqNVJEcX8,Yes,No,0,,success,2265,success,Heating and air conditioning service provider in Texas and Oklahoma,Furnace maintenance; A/C maintenance; Air duct cleaning,,First time customer discount; Energy Savings Agreement Plan,"Residential and commercial customers in Wichita Falls, TX and Lawton, OK",Inefficient HVAC systems; High energy costs,small,24/7 emergency service; 100% financing available,Cool to see how Absolute Comfort Heating and Air serves the Wichita Falls area - I work with Texas businesses as well. Figured I'd reach out.,success,1265
Kelly's Heating and Air,4.8,194,320 S Charles St #113,Lewisville,Texas,US,https://kellysheatingandair.com/hvac-in-lewisville-tx/,(972) 436-4340,HVAC contractor,https://www.google.com/maps/search/?api=1&query=Kelly's%20Heating%20and%20Air&query_place_id=ChIJz0bSVYwyTIYRTtJCvQddMJE,Yes,No,2,info@kellysheatingandair.com; hotline@kellysheatingandair.com,success,6240,success,"HVAC services provider in Lewisville, Texas",AC Installation & Replacement; Heating Installation & Replacement; Routine HVAC Maintenance; Emergency HVAC Repairs; Custom Ductwork Design; Indoor Air Quality Improvements; Zoning System Installation; Smart Thermostat Upgrades; Energy Efficiency Audits,,Highlight the importance of regular HVAC maintenance for year-round comfort; Emphasize their quick response time for emergency services,residential customers in Lewisville and surrounding communities,high energy bills; poor indoor air quality,medium,24/7 emergency service; focus on energy efficiency and indoor air quality,Impressive track record at Kelly's Heating and Air - 194 reviews maintaining 4.8 stars in Lewisville. I'm in the Texas market too. Wanted to run something by you.,success,1315
Ellis Air Conditioning and Heating,4.9,181,536 N Hwy 67,Cedar Hill,Texas,US,https://www.ellisac.com/,(972) 291-9316,Air conditioning contractor,https://www.google.com/maps/search/?api=1&query=Ellis%20Air%20Conditioning%20and%20Heating&query_place_id=ChIJb_EfJeyNToYR9R20ccVix7s,Yes,No,1,aaron@ellisac.com,success,5161,success,HVAC services provider in the Dallas-Fort Worth area,Air Conditioning Installation; Heating Services; Emergency HVAC Service,Mark and Kent Ellis,Highlighting 50 years of trust and comfort; Discussing the upcoming 2025 refrigerant changes,homeowners and businesses in the DFW area,High summer temperatures affecting comfort; Need for reliable HVAC service and installation,medium,Celebrating 50 years of service; Factory authorized Carrier dealer,"Hey Mark, impressive seeing Ellis Air Conditioning and Heating maintain 4.9 stars across 181 reviews in Cedar Hill - I'm in the Texas market too. Quick thing to run by you.",success,1278
"Patrick heating & air conditioning, inc.",3.7,52,1602 S Monroe St,Amarillo,Texas,US,http://www.patrickcompanies.com/,(806) 374-0407,Air conditioning contractor,https://www.google.com/maps/search/?api=1&query=Patrick%20heating%20%26%20air%20conditioning%2C%20inc.&query_place_id=ChIJMyDoT6pPAYcRlkIK-reoATA,Yes,No,0,,success,1308,success,"Plumbing, heating, air conditioning, and electrical services in Amarillo, TX",Plumbing; Heating; Air Conditioning; Electrical Repairs,,Highlight the convenience of one-stop service; Emphasize 24/7 availability for emergencies,"Residential and commercial clients in Amarillo, TX",Need for reliable emergency services; Difficulty in finding multiple contractors for different services,medium,24-hour emergency service; Comprehensive service from one contractor,"Cool to see how Patrick heating & air conditioning, inc. serves the Amarillo area - I work with Texas businesses as well. Figured I'd reach out.",success,1283
Samm's Heating and Air Conditioning,4.9,1425,250 Chisholm Pl,Plano,Texas,US,https://www.sammsheatingandair.com/,(214) 251-4438,Air conditioning repair service,https://www.google.com/maps/search/?api=1&query=Samm's%20Heating%20and%20Air%20Conditioning&query_place_id=ChIJ__N8dw8ZTIYRRt4hH8JPzY8,Yes,No,0,,success,10731,success,Heating and air conditioning services in North Texas,AC repair; heating repair; air quality services; installation and maintenance,,Special financing options available for repairs over $499; April special savings on new equipment installations,"residents of Plano, Allen, McKinney & Frisco, TX",High energy costs due to inefficient HVAC systems; Emergency breakdowns during peak seasons,medium,Lifetime warranty on workmanship; No overtime charges for maintenance customers,Impressive track record at Samm's Heating and Air Conditioning - 1425 reviews maintaining 4.9 stars in Plano. I'm in the Texas market too. Wanted to run something by you.,success,1286
Hall's Heating and Air,5,40,6011 SW 45th Ave #4,Amarillo,Texas,US,https://hallheatingandair.net/,(806) 405-8884,HVAC contractor,https://www.google.com/maps/search/?api=1&query=Hall's%20Heating%20and%20Air&query_place_id=ChIJxWaxeX1RAYcRr196Dc34w58,Yes,No,0,,success,7585,success,"HVAC services and repairs in Pampa, TX",AC Installation & Replacement; Heating Installation & Replacement; AC Repair & Maintenance; Heating Repair & Maintenance; Commercial AC Services; Commercial Heating Services,,Highlight their 40 years of service in Pampa; Mention their 5-star rating on Google,"residential and commercial customers in Pampa, TX",AC unit failure during hot weather; Heating issues during cold months,medium,100% Satisfaction Guarantee; Straightforward Pricing,Impressive track record at Hall's Heating and Air - 40 reviews maintaining 5 stars in Amarillo. I'm in the Texas market too. Wanted to run something by you.,success,1290
Serveway Heating and Air Conditioning,4.9,365,10120 Cayuga Dr Suite 107,Dallas,Texas,US,https://www.servewayhvac.com/?utm_source=google&utm_medium=organic&utm_campaign=gbp,(469) 231-9379,HVAC contractor,https://www.google.com/maps/search/?api=1&query=Serveway%20Heating%20and%20Air%20Conditioning&query_place_id=ChIJx4C5x0OhToYRjJs7BQD4Mvc,Yes,No,0,,success,2099,success,HVAC service company providing heating and air conditioning solutions,Air Conditioning; Heating; Indoor Air Quality,,Highlight flexible financing options; Mention 10% discount for veterans and first responders,residential customers in Dallas and surrounding areas,high energy bills; poor indoor air quality,small,100% Satisfaction Guaranteed; Local and Family Owned,Impressive track record at Serveway Heating and Air Conditioning - 365 reviews maintaining 4.9 stars in Dallas. I'm in the Texas market too. Wanted to run something by you.,success,1273
K&S Heating and Air,4.6,571,1409 S Jupiter Rd,Garland,Texas,US,http://www.kandsac.com/,(972) 942-8078,Air conditioning repair service,https://www.google.com/maps/search/?api=1&query=K%26S%20Heating%20and%20Air&query_place_id=ChIJrRm3caCgToYRc9_oA1xCX58,Yes,No,1,accounting@kandsac.com,success,4366,success,"Heating and air conditioning services in Dallas, Texas",Emergency Service; Preventive Maintenance; New Installation; Duct Work; Equipment Replacement; Energy Efficiency Improvements,,Mention the 'Cool Club' maintenance program; Highlight their commitment to customer service,Residents of Dallas and North Texas,Uncomfortable home temperatures; High energy costs due to inefficient systems,medium,100+ years of combined experience; Same day service available,Impressive track record at K&S Heating and Air - 571 reviews maintaining 4.6 stars in Garland. I'm in the Texas market too. Wanted to run something by you.,success,1286
The Right Choice Heating and Air Inc,4.9,314,2414 W University Dr Suite 122 E,McKinney,Texas,US,https://therightchoicetexas.com/service-areas/ac-repair-mckinney/,(469) 447-9707,HVAC contractor,https://www.google.com/maps/search/?api=1&query=The%20Right%20Choice%20Heating%20and%20Air%20Inc&query_place_id=ChIJq7EeD8UTTIYRkRgQ3M6pGKE,Yes,No,1,support@therightchoicetexas.com,success,15000,success,"Local HVAC and AC repair services in McKinney, TX",AC repair; HVAC maintenance; system installation,,Expertise in McKinney's unique climate challenges; Quick response times for emergency repairs,"homeowners in McKinney, TX",high energy bills during peak seasons; unexpected AC breakdowns during summer,small,locally owned and operated; 24/7 emergency services,Impressive track record at The Right Choice Heating and Air Inc - 314 reviews maintaining 4.9 stars in McKinney. I'm in the Texas market too. Wanted to run something by you.,success,1286
Mid-Cities Air Conditioning and Heating,4.8,649,204 S Main St Ste 240,Keller,Texas,US,https://www.midcitiesac.com/?utm_source=google&utm_medium=organic&utm_campaign=gbp,(817) 284-3332,HVAC contractor,https://www.google.com/maps/search/?api=1&query=Mid-Cities%20Air%20Conditioning%20and%20Heating&query_place_id=ChIJDWTbYEwrTIYRwARgxxUtArc,Yes,No,0,,success,6545,success,"Heating and cooling repair, replacement, and maintenance services",AC Repair; Heating Repair; Air Quality Improvement,,Highlight energy savings with new systems; Emphasize commitment to customer comfort,"Homeowners and business owners in North Tarrant County, TX",High energy bills; Poor indoor air quality,medium,100% satisfaction guarantee; Energy efficient system installations,Impressive track record at Mid-Cities Air Conditioning and Heating - 649 reviews maintaining 4.8 stars in Keller. I'm in the Texas market too. Wanted to run something by you.,success,1277
J.R.V Heating & Cooling LLC.,4.9,213,720 E Main St A,Allen,Texas,US,http://www.jrvair.com/,(214) 288-5984,Air conditioning contractor,https://www.google.com/maps/search/?api=1&query=J.R.V%20Heating%20%26%20Cooling%20LLC.&query_place_id=ChIJzaCHGvoQTIYR0wg1HPmyFR4,Yes,No,3,servicenow@jrvair.com; vigilr@jrvair.com; servicesservicenow@jrvair.com,success,1068,success,HVAC installation and repair services,residential HVAC services; commercial HVAC services; emergency repair services,,mention recent extreme weather affecting HVAC needs; highlight commitment to customer service during emergencies,North Dallas area residents and businesses,inefficient HVAC systems; urgent heating or cooling repairs during extreme weather,small,top-rated customer satisfaction; individualized HVAC solutions,Impressive track record at J.R.V Heating & Cooling LLC. - 213 reviews maintaining 4.9 stars in Allen. I'm in the Texas market too. Wanted to run something by you.,success,1278
KINGS LAWN SERVICE LLC,4.4,48,6009 Canyon Dr,Amarillo,Texas,US,https://kingslawnamarillo.com/,(806) 567-4028,Landscaper,https://www.google.com/maps/search/?api=1&query=KINGS%20LAWN%20SERVICE%20LLC&query_place_id=ChIJZSIO8JvIB0sRz7QeQQyelOo,Yes,No,0,,success,15000,success,"Landscaping services in Amarillo, TX",Patio Design & Construction; Retaining Wall Construction; Artificial Turf; Complete Irrigation Install; Natural Stone Hardscape; Landscape Design; Holiday Lights Installation,,Highlight their commitment to quality work; Mention their quick response times and customer service,"Homeowners in Amarillo, TX and surrounding areas",Need for quality landscaping services; Desire for low-maintenance outdoor solutions,small,Family owned; Locally owned,Impressive track record at KINGS LAWN SERVICE LLC - 48 reviews maintaining 4.4 stars in Amarillo. I'm in the Texas market too. Wanted to run something by you.,success,1295
"Goode Brothers Heating & Air Conditioning, Inc.",4.9,1803,8812 US-259,Longview,Texas,US,https://www.goodebrothers.com/?utm_source=Google+Business+Listing+&utm_medium=organic+&utm_campaign=website+button,(903) 291-0608,HVAC contractor,https://www.google.com/maps/search/?api=1&query=Goode%20Brothers%20Heating%20%26%20Air%20Conditioning%2C%20Inc.&query_place_id=ChIJkcghcO08NoYRPSDd0gFEupE,Yes,No,1,contact@goodebrothers.com,success,6125,success,"HVAC services including installation, maintenance, and repair",Heating Services; Cooling Services; Indoor Air Quality Services; HVAC Maintenance,,Highlight their commitment to customer satisfaction; Mention their expertise in indoor air quality,Homeowners in East Texas,HVAC issues occurring at inconvenient times; Need for reliable maintenance to avoid emergencies,medium,24/7 emergency services; Free consultations for home improvement projects,"Impressive track record at Goode Brothers Heating & Air Conditioning, Inc. - 1803 reviews maintaining 4.9 stars in Longview. I'm in the Texas market too. Wanted to run something by you.",success,1294
"A&R Plumbing, Heating, & Air Conditioning",4.6,127,87 N Fannin St,Amarillo,Texas,US,https://armechanical.com/,(806) 372-1572,Air conditioning contractor,https://www.google.com/maps/search/?api=1&query=A%26R%20Plumbing%2C%20Heating%2C%20%26%20Air%20Conditioning&query_place_id=ChIJU8VehkNOAYcR106FrUTQN10,Yes,No,0,,success,4857,success,"Plumbing, heating, and air conditioning services in Amarillo, Texas",Plumbing repairs; Heating installation and repair; Air conditioning installation and maintenance,,Emergency plumbing services available after hours; Comfort Care Program offers priority service and discounts,"Residents and businesses in Amarillo, Texas",Need for reliable emergency plumbing services; Concerns about air quality and HVAC efficiency,small,Locally owned and family-operated; A+ rating with the Better Business Bureau,"Impressive track record at A&R Plumbing, Heating, & Air Conditioning - 127 reviews maintaining 4.6 stars in Amarillo. I'm in the Texas market too. Wanted to run something by you.",success,1296
North Texas HVAC,4.9,315,,,,,http://www.northtxhvac.com/?utm_campaign=gmb,(817) 522-1219,HVAC contractor,https://www.google.com/maps/search/?api=1&query=North%20Texas%20HVAC&query_place_id=ChIJYfydBATbTYYRuo-lJqFe-yY,Yes,No,1,bryan@northtxhvac.com,success,7595,success,Top-rated HVAC services in North Texas,Air Conditioning; Heating; Maintenance,Bryan Slagle,Voted Best Air Conditioning and Heating Contractor; Affordable financing options available,residential customers in North Texas,High energy bills from aging AC units; Need for reliable HVAC maintenance,medium,Consistent 5-Star Ratings; 100% Satisfaction Guarantee,"Hey Bryan, impressive seeing North Texas HVAC maintain 4.9 stars across 315 reviews in Texas - I'm in the Texas market too. Quick thing to run by you.",success,1251
Boone's Heating and Cooling,4.9,817,3372 Garden Brook Dr,Farmers Branch,Texas,US,https://willardac.com/?utm_source=google-gbp&utm_medium=organic&utm_campaign=*52*boones-heating-cooling-farmers-branch,(972) 646-1824,HVAC contractor,https://www.google.com/maps/search/?api=1&query=Boone's%20Heating%20and%20Cooling&query_place_id=ChIJA9Ndet8nTIYRuxsyKUCKBSs,Yes,No,2,info@willardac.com; callcenter@willardac.com,success,13329,success,"24/7 HVAC, Plumbing & Electrical Service in the Dallas-Fort Worth Metroplex",HVAC installation; Plumbing repair; Electrical services,,Free heater with qualifying AC system purchase; 0% financing for 72 months on new AC systems,homeowners in the Dallas-Fort Worth Metroplex,Emergency repair needs; Indoor air quality concerns,medium,24/7 emergency service; Two-year warranty on repairs,Impressive track record at Boone's Heating and Cooling - 817 reviews maintaining 4.9 stars in Farmers Branch. I'm in the Texas market too. Wanted to run something by you.,success,1287
Air Repair Pros,4.9,4453,1647 Witt Rd #201,Frisco,Texas,US,https://airrepairpros.com/?category=gmb&utm_campaign=gmb,(972) 630-4227,HVAC contractor,https://www.google.com/maps/search/?api=1&query=Air%20Repair%20Pros&query_place_id=ChIJyWxK4007TIYRMjuW9qHGhTI,Yes,No,0,,success,1428,success,Reliable HVAC service provider in North Dallas,Air Conditioning; Heating; Indoor Air Quality,,Highlight their commitment to customer satisfaction; Mention their fully stocked warehouse for quick service,Residents and businesses in North Dallas,Need for reliable HVAC service; Emergency HVAC issues,medium,Locally owned and operated since 1998; 24/7 emergency service available,Impressive track record at Air Repair Pros - 4453 reviews maintaining 4.9 stars in Frisco. I'm in the Texas market too. Wanted to run something by you.,success,1268
Amarillo Air Conditioning LLC,5,556,1001 N Forest St Unit E,Amarillo,Texas,US,https://www.amarilloair.com/?utm_source=google&utm_medium=organic&utm_campaign=gmb,(806) 515-2919,HVAC contractor,https://www.google.com/maps/search/?api=1&query=Amarillo%20Air%20Conditioning%20LLC&query_place_id=ChIJpWzLhkVOAYcRunj3WNOo5jM,Yes,No,0,,success,15000,success,HVAC contractor providing heating and cooling services,air conditioning repair; heating repair; system installation,,highlight their long-standing reputation in the community; mention their Home Comfort Club for maintenance savings,residential customers in Amarillo and surrounding areas,urgent heating or cooling failures; high indoor air quality concerns,medium,family-owned since 1955; 24/7 service availability,Impressive track record at Amarillo Air Conditioning LLC - 556 reviews maintaining 5 stars in Amarillo. I'm in the Texas market too. Wanted to run something by you.,success,1268
Chill Out Heat Air & Refrigeration,4.6,41,5206 Tradewind St,Amarillo,Texas,US,http://chilloutheatair.com/,(806) 517-2094,Air conditioning contractor,https://www.google.com/maps/search/?api=1&query=Chill%20Out%20Heat%20Air%20%26%20Refrigeration&query_place_id=ChIJx539QX5FAYcRayne2ieVrxo,Yes,No,1,bochillout@gmail.com,success,1796,success,Full-service HVAC contractor specializing in refrigeration and air conditioning services,Commercial Refrigeration Repair; Commercial HVAC System Installation; Residential AC Repair,Bo and Katrina Atkins,Highlight expertise in West Texas HVAC needs; Emphasize 24/7 emergency service availability,West Texas residents and businesses,Refrigeration emergencies; Temperature inconsistencies,small,24/7 availability for emergencies; Focus on customer satisfaction,"Hey Bo, impressive seeing Chill Out Heat Air & Refrigeration maintain 4.6 stars across 41 reviews in Amarillo - I'm in the Texas market too. Quick thing to run by you.",success,1286
NewRise Heating & Cooling,4.9,347,1003 Enterprise Pl #101,Arlington,Texas,US,https://newrisehvac.com/,(469) 579-9110,Air conditioning repair service,https://www.google.com/maps/search/?api=1&query=NewRise%20Heating%20%26%20Cooling&query_place_id=ChIJAQAEC3piToYRZFJoTY7IHJs,Yes,No,1,support@newrisehvac.com,success,4047,success,"Heating and cooling services in Arlington, TX",AC Repair; Heating Repair; Air Quality Services,,Local experts rooted in the community; Guaranteed customer satisfaction,"Homeowners in Arlington, TX",Sudden HVAC breakdowns; High energy bills due to inefficient systems,medium,24/7 Emergency HVAC Services; Transparent Pricing and No-Pressure Recommendations,Impressive track record at NewRise Heating & Cooling - 347 reviews maintaining 4.9 stars in Arlington. I'm in the Texas market too. Wanted to run something by you.,success,1269
Bill Joplin's Air Conditioning & Heating,4.9,3452,301 E Midway St,McKinney,Texas,US,https://joplins.net/?utm_source=google&utm_medium=organic&utm_campaign=gbp,(469) 846-8339,HVAC contractor,https://www.google.com/maps/search/?api=1&query=Bill%20Joplin's%20Air%20Conditioning%20%26%20Heating&query_place_id=ChIJ41cSPE4STIYRG80tt1EuEOY,Yes,No,0,,success,10688,success,HVAC repair and installation services,AC Repair; Heating Service; Ductless HVAC; Commercial HVAC; Residential AC Installation,Bill Joplin,"Free second opinion on equipment replacement quotes; 10% discount for military, first responders, and seniors","residential and commercial customers in Collin County, TX",High HVAC repair costs; Need for reliable emergency services,medium,Family owned and operated since 1978; Carrier Factory Authorized Dealer,"Hey Bill, impressive seeing Bill Joplin's Air Conditioning & Heating maintain 4.9 stars across 3452 reviews in McKinney - I'm in the Texas market too. Quick thing to run by you.",success,1296
Sutton Heating and Air,4.9,115,508 Crockett St,Amarillo,Texas,US,https://www.suttonheatingandair.com/,(806) 331-2584,HVAC contractor,https://www.google.com/maps/search/?api=1&query=Sutton%20Heating%20and%20Air&query_place_id=ChIJA53JiU9OAYcRnzIaIlFD97o,Yes,No,0,,success,13286,success,HVAC contractor providing heating and cooling services,Furnace Repair & Installation; Heat Pump Repair & Installation; AC System Repair & Installation; Ductless Mini-Split Repair & Installation; Indoor Air Quality Services,,Highlight their experience in extreme Texas weather; Mention their commitment to fair pricing and customer satisfaction,"homeowners and businesses in Amarillo, TX",Unexpected HVAC breakdowns; Poor indoor air quality,medium,Established in 1982; Focus on long-term fixes over quick repairs,Impressive track record at Sutton Heating and Air - 115 reviews maintaining 4.9 stars in Amarillo. I'm in the Texas market too. Wanted to run something by you.,success,1293
A/C Contractors,4.9,1238,3830 Gilmer Rd,Longview,Texas,US,https://www.accontractors.com/,(903) 759-4250,HVAC contractor,https://www.google.com/maps/search/?api=1&query=A%2FC%20Contractors&query_place_id=ChIJtRdu1rw-NoYR7fQYYlurwWI,Yes,No,0,,success,6450,success,"HVAC and plumbing services provider in Longview, Texas",Air Conditioning; Heating; Plumbing; Indoor Air Quality; Generators,,Over 40 years of experience in HVAC; Same-day scheduling and weekend appointments available,residential and commercial property owners in East Texas,HVAC or plumbing emergencies; hidden costs and surprise fees,medium,Fixed Right or It's Free™ guarantee; 100% Satisfaction Guarantee,Impressive track record at A/C Contractors - 1238 reviews maintaining 4.9 stars in Longview. I'm in the Texas market too. Wanted to run something by you.,success,1277
Collin Air Conditioning,4.9,411,6905 K Ave #201,Plano,Texas,US,https://collinair.com/?utm_source=google&utm_medium=organic&utm_campaign=gbp,(972) 424-4905,Air conditioning repair service,https://www.google.com/maps/search/?api=1&query=Collin%20Air%20Conditioning&query_place_id=ChIJeXiETN0ZTIYRz62ClnBNy3A,Yes,No,0,,success,4016,success,Heating and air conditioning repair and service,Air conditioning repair; Heating services; Indoor air quality maintenance,John and Brian Bullock,Highlight their long-standing service since 1980; Mention their Comfort Club membership options,"Homeowners in Plano, TX and surrounding areas",Need for reliable heating and cooling solutions; Desire for affordable financing options,medium,Family-owned since 1980; Focus on customer satisfaction,"Hey John, impressive seeing Collin Air Conditioning maintain 4.9 stars across 411 reviews in Plano - I'm in the Texas market too. Quick thing to run by you.",success,1268
"AryCo HVAC, Electric, & Plumbing",4.9,1298,1721 N Business 287,Decatur,Texas,US,https://www.aryco.com/,(940) 627-5882,HVAC contractor,https://www.google.com/maps/search/?api=1&query=AryCo%20HVAC%2C%20Electric%2C%20%26%20Plumbing&query_place_id=ChIJy3SUYuySTYYRQfo0TOEmVjk,Yes,No,0,,success,3437,success,"HVAC, electrical, and plumbing services in Wise County since 1982",Air Conditioning Repair; Heating Repair; Electrical Services; Plumbing Services,Mark Ary,Highlight energy-efficient products that save up to 62% in energy costs; Emphasize commitment to customer service and satisfaction,residential customers in Wise County,High energy costs; Inefficient HVAC systems,medium,Voted Reader's Choice for 2023 in Wise County; Trane Comfort Specialist since 2016,"Hey Mark, impressive seeing AryCo HVAC, Electric, & Plumbing maintain 4.9 stars across 1298 reviews in Decatur - I'm in the Texas market too. Quick thing to run by you.",success,1298
Crow's Heat & Air- McKinney,4.9,379,1132 Westmoreland Dr,McKinney,Texas,US,http://crowsheatandair.com/,(972) 548-1323,HVAC contractor,https://www.google.com/maps/search/?api=1&query=Crow's%20Heat%20%26%20Air-%20McKinney&query_place_id=ChIJzXUBqyYSTIYRc9DJAQVGZOI,Yes,No,0,,success,4373,success,Heating and air conditioning service provider,Residential Heating & Air Conditioning; Commercial HVAC Services; Preventative Maintenance,,Highlight their 24/7 emergency service; Mention their competitive pricing and satisfaction guarantee,Homeowners and businesses in Collin County and surrounding areas,High energy bills; Unreliable HVAC systems,medium,Family owned and operated; 31+ years of industry experience,Impressive track record at Crow's Heat & Air- McKinney - 379 reviews maintaining 4.9 stars in McKinney. I'm in the Texas market too. Wanted to run something by you.,success,1291
Dallas Heating and Air Conditioning,4.8,205,5050 Quorum Dr Ste 700,Dallas,Texas,US,https://www.dallasheatingac.com/?utm_source=GMB&utm_medium=Website&utm_campaign=Addison,(214) 831-8061,HVAC contractor,https://www.google.com/maps/search/?api=1&query=Dallas%20Heating%20and%20Air%20Conditioning&query_place_id=ChIJd7VVVu8hTIYRzxc4WSeppGM,Yes,No,0,,success,3480,success,Top-rated heating and air conditioning service in Dallas,Air Conditioning Repair; Air Conditioning Maintenance; AC System Replacement,,Highlight the $59 Tune Up offer; Mention their 100% Satisfaction Guarantee,homeowners in the Dallas-Fort Worth metro area,High summer temperatures; Need for reliable HVAC maintenance,medium,24/7 service availability; Hassle-free financing options,Impressive track record at Dallas Heating and Air Conditioning - 205 reviews maintaining 4.8 stars in Dallas. I'm in the Texas market too. Wanted to run something by you.,success,1273
Service Experts Fort Worth,4.8,4946,2725 Basswood Blvd Suite #241,Fort Worth,Texas,US,https://www.serviceexperts.com/fort-worth-tx/,(817) 241-5893,HVAC contractor,https://www.google.com/maps/search/?api=1&query=Service%20Experts%20Fort%20Worth&query_place_id=ChIJFYtJpRN5ToYRBZxn9XqNk6w,Yes,No,0,,success,15000,success,"HVAC, plumbing, and electrical services provider",HVAC repair; plumbing services; electrical work,,40+ years of experience in DFW; 10% off for military personnel,homeowners in the Fort Worth metroplex,harsh Texas weather affecting home systems; urgent repair needs during extreme weather,medium,locally managed with national brand support; ACE-certified technicians,Impressive track record at Service Experts Fort Worth - 4946 reviews maintaining 4.8 stars in Fort Worth. I'm in the Texas market too. Wanted to run something by you.,success,1274
Hardwick Heating and Air,5,58,5000 S Western St,Amarillo,Texas,US,http://hardwickheatingair.com/,(806) 471-0103,HVAC contractor,https://www.google.com/maps/search/?api=1&query=Hardwick%20Heating%20and%20Air&query_place_id=ChIJXSYrTGg6zkwRQuBc11jazMY,Yes,No,0,,success,1179,success,Professional HVAC contractor providing installation and maintenance services,Heating system installation; Heating system maintenance; Ventilation installation; Ventilation maintenance; AC installation; AC maintenance,,Building a new home? We can help with HVAC installation.; Looking for reliable HVAC services in Amarillo?,"Residential and commercial customers in Amarillo, TX",Finding trustworthy HVAC contractors; Need for quick and reliable HVAC installation,small,Over 20 years of experience; 10% military discount,Impressive track record at Hardwick Heating and Air - 58 reviews maintaining 5 stars in Amarillo. I'm in the Texas market too. Wanted to run something by you.,success,1284
Bennett Heating and Air Conditioning,5,19,600 S Broadway St,Plainview,Texas,US,http://bennettheatandair.com/contact-us/,(806) 293-7285,Air conditioning contractor,https://www.google.com/maps/search/?api=1&query=Bennett%20Heating%20and%20Air%20Conditioning&query_place_id=ChIJNXg5zn7CAYcRM9Ppw1zKrj4,Yes,No,0,,success,258,success,"Heating and air conditioning services in Plainview, Texas",HVAC installation; HVAC repair; Maintenance services,,Highlight the importance of quick HVAC service; Mention energy efficiency solutions,"Residential and commercial clients in Plainview, TX",Unreliable heating and cooling; High energy bills,small,Quick response time; Local service expertise,Impressive track record at Bennett Heating and Air Conditioning - 19 reviews maintaining 5 stars in Plainview. I'm in the Texas market too. Wanted to run something by you.,success,1267
James Lane Air Conditioning & Plumbing - A Fidelity Company,4.8,389,5024 Old Jacksboro Hwy,Wichita Falls,Texas,US,http://www.jameslane.com/,(940) 766-0244,HVAC contractor,https://www.google.com/maps/search/?api=1&query=James%20Lane%20Air%20Conditioning%20%26%20Plumbing%20-%20A%20Fidelity%20Company&query_place_id=ChIJy32m5_kfU4YRIe00YVttY8Y,Yes,No,0,,success,4896,success,"HVAC and plumbing services in Wichita Falls, Texas",Air Conditioning; Heating; Plumbing,,Highlight their commitment to customer service; Mention their financing options for unexpected expenses,residential and commercial customers in Wichita Falls and surrounding areas,Emergency HVAC and plumbing issues; High costs of unexpected repairs,medium,24/7 emergency service; Energy Savings Agreements,Impressive track record at James Lane Air Conditioning & Plumbing - 389 reviews maintaining 4.8 stars in Wichita Falls. I'm in the Texas market too. Wanted to run something by you.,success,1281
